{"type":"FeatureCollection","name":"riyadh_districts_mock","crs":{"type":"name","properties":{"name":"urn:ogc:def:crs:OGC:1.3:CRS84"}},"features":[{"type":"Feature","properties":{"district_id":"D01","name":"Al Olaya","area_km2":26.28},"geometry":{"type":"Polygon","coordinates":[[[46.655947,24.665261],[46.638205,24.668744],[46.655601,24.721984],[46.658512,24.723334],[46.688941,24.719104],[46.700384,24.685],[46.655947,24.665261]]]}},{"type":"Feature","properties":{"district_id":"D02","name":"Al Sulimaniyah","area_km2":20.55},"geometry":{"type":"Polygon","coordinates":[[[46.688941,24.719104],[46.707575,24.732621],[46.745228,24.720219],[46.741379,24.700148],[46.71553,24.685],[46.700384,24.685],[46.688941,24.719104]]]}},{"type":"Feature","properties":{"district_id":"D03","name":"Al Malaz","area_km2":17.23},"geometry":{"type":"Polygon","coordinates":[[[46.741379,24.700148],[46.759,24.682499],[46.759,24.662516],[46.726171,24.646063],[46.725341,24.646375],[46.71553,24.685],[46.741379,24.700148]]]}},{"type":"Feature","properties":{"district_id":"D04","name":"Al Murabba","area_km2":24.88},"geometry":{"type":"Polygon","coordinates":[[[46.700384,24.685],[46.71553,24.685],[46.725341,24.646375],[46.688995,24.632572],[46.655947,24.665261],[46.700384,24.685]]]}},{"type":"Feature","properties":{"district_id":"D05","name":"Al Batha","area_km2":26.14},"geometry":{"type":"Polygon","coordinates":[[[46.688995,24.632572],[46.725341,24.646375],[46.726171,24.646063],[46.753788,24.611449],[46.752951,24.609001],[46.713569,24.589248],[46.692008,24.602357],[46.688995,24.632572]]]}},{"type":"Feature","properties":{"district_id":"D06","name":"Al Aziziyah","area_km2":48.48},"geometry":{"type":"Polygon","coordinates":[[[46.713569,24.589248],[46.752951,24.609001],[46.801671,24.55468],[46.74,24.53],[46.718497,24.531544],[46.713569,24.589248]]]}},{"type":"Feature","properties":{"district_id":"D07","name":"Al Shumaisi","area_km2":52.94},"geometry":{"type":"Polygon","coordinates":[[[46.638205,24.668744],[46.655947,24.665261],[46.688995,24.632572],[46.692008,24.602357],[46.629896,24.581582],[46.610944,24.660773],[46.638205,24.668744]]]}},{"type":"Feature","properties":{"district_id":"D08","name":"Al Suwaidi","area_km2":92.1},"geometry":{"type":"Polygon","coordinates":[[[46.610944,24.660773],[46.629896,24.581582],[46.611232,24.539203],[46.6,24.54],[46.58306,24.546782],[46.525223,24.667641],[46.572237,24.672012],[46.610944,24.660773]]]}},{"type":"Feature","properties":{"district_id":"D09","name":"Tuwaiq","area_km2":64.25},"geometry":{"type":"Polygon","coordinates":[[[46.525223,24.667641],[46.58306,24.546782],[46.5,24.58],[46.49,24.66],[46.49405,24.673509],[46.525223,24.667641]]]}},{"type":"Feature","properties":{"district_id":"D10","name":"Diriyah","area_km2":110.17},"geometry":{"type":"Polygon","coordinates":[[[46.606847,24.751434],[46.572237,24.672012],[46.525223,24.667641],[46.49405,24.673509],[46.52,24.76],[46.554276,24.817151],[46.606847,24.751434]]]}},{"type":"Feature","properties":{"district_id":"D11","name":"King Saud University","area_km2":53.0},"geometry":{"type":"Polygon","coordinates":[[[46.572237,24.672012],[46.606847,24.751434],[46.621514,24.750416],[46.655601,24.721984],[46.638205,24.668744],[46.610944,24.660773],[46.572237,24.672012]]]}},{"type":"Feature","properties":{"district_id":"D12","name":"Al Muruj","area_km2":15.4},"geometry":{"type":"Polygon","coordinates":[[[46.64878,24.769362],[46.677494,24.754998],[46.658512,24.723334],[46.655601,24.721984],[46.621514,24.750416],[46.64878,24.769362]]]}},{"type":"Feature","properties":{"district_id":"D13","name":"Al Aqiq","area_km2":34.48},"geometry":{"type":"Polygon","coordinates":[[[46.554276,24.817151],[46.554403,24.817362],[46.65192,24.790299],[46.64878,24.769362],[46.621514,24.750416],[46.606847,24.751434],[46.554276,24.817151]]]}},{"type":"Feature","properties":{"district_id":"D14","name":"Al Sahafah","area_km2":56.89},"geometry":{"type":"Polygon","coordinates":[[[46.674572,24.829143],[46.676963,24.821675],[46.668406,24.802074],[46.65192,24.790299],[46.554403,24.817362],[46.58,24.86],[46.582222,24.864079],[46.674572,24.829143]]]}},{"type":"Feature","properties":{"district_id":"D15","name":"Al Ghadir","area_km2":14.15},"geometry":{"type":"Polygon","coordinates":[[[46.668406,24.802074],[46.695862,24.763935],[46.693504,24.760003],[46.677494,24.754998],[46.64878,24.769362],[46.65192,24.790299],[46.668406,24.802074]]]}},{"type":"Feature","properties":{"district_id":"D16","name":"Al Nafl","area_km2":18.09},"geometry":{"type":"Polygon","coordinates":[[[46.676963,24.821675],[46.709846,24.807981],[46.715631,24.774235],[46.695862,24.763935],[46.668406,24.802074],[46.676963,24.821675]]]}},{"type":"Feature","properties":{"district_id":"D17","name":"Al Wurud","area_km2":13.31},"geometry":{"type":"Polygon","coordinates":[[[46.693504,24.760003],[46.707575,24.732621],[46.688941,24.719104],[46.658512,24.723334],[46.677494,24.754998],[46.693504,24.760003]]]}},{"type":"Feature","properties":{"district_id":"D18","name":"Al Nuzhah","area_km2":20.93},"geometry":{"type":"Polygon","coordinates":[[[46.695862,24.763935],[46.715631,24.774235],[46.730293,24.771519],[46.752232,24.728831],[46.751901,24.7269],[46.745228,24.720219],[46.707575,24.732621],[46.693504,24.760003],[46.695862,24.763935]]]}},{"type":"Feature","properties":{"district_id":"D19","name":"Al Hamra","area_km2":17.97},"geometry":{"type":"Polygon","coordinates":[[[46.730293,24.771519],[46.759527,24.791824],[46.765727,24.789757],[46.776784,24.757499],[46.752232,24.728831],[46.730293,24.771519]]]}},{"type":"Feature","properties":{"district_id":"D20","name":"Al Nada","area_km2":17.52},"geometry":{"type":"Polygon","coordinates":[[[46.759527,24.791824],[46.730293,24.771519],[46.715631,24.774235],[46.709846,24.807981],[46.744339,24.820295],[46.759527,24.791824]]]}},{"type":"Feature","properties":{"district_id":"D21","name":"Al Yarmuk","area_km2":76.04},"geometry":{"type":"Polygon","coordinates":[[[46.808908,24.803249],[46.765727,24.789757],[46.759527,24.791824],[46.744339,24.820295],[46.765019,24.889152],[46.809943,24.910065],[46.82,24.9],[46.830742,24.888076],[46.808908,24.803249]]]}},{"type":"Feature","properties":{"district_id":"D22","name":"Al Khaleej","area_km2":22.4},"geometry":{"type":"Polygon","coordinates":[[[46.828934,24.76653],[46.816745,24.757498],[46.776784,24.757499],[46.765727,24.789757],[46.808908,24.803249],[46.828934,24.76653]]]}},{"type":"Feature","properties":{"district_id":"D23","name":"Al Rawabi","area_km2":20.02},"geometry":{"type":"Polygon","coordinates":[[[46.752232,24.728831],[46.776784,24.757499],[46.816745,24.757498],[46.804299,24.715973],[46.751901,24.7269],[46.752232,24.728831]]]}},{"type":"Feature","properties":{"district_id":"D24","name":"Al Rawdah","area_km2":29.91},"geometry":{"type":"Polygon","coordinates":[[[46.751901,24.7269],[46.804299,24.715973],[46.828368,24.682492],[46.759,24.682499],[46.741379,24.700148],[46.745228,24.720219],[46.751901,24.7269]]]}},{"type":"Feature","properties":{"district_id":"D25","name":"Al Jazirah","area_km2":44.43},"geometry":{"type":"Polygon","coordinates":[[[46.759,24.682499],[46.828368,24.682492],[46.881425,24.648394],[46.781365,24.634494],[46.759,24.662516],[46.759,24.682499]]]}},{"type":"Feature","properties":{"district_id":"D26","name":"Al Naseem","area_km2":51.0},"geometry":{"type":"Polygon","coordinates":[[[46.828368,24.682492],[46.804299,24.715973],[46.816745,24.757498],[46.828934,24.76653],[46.841815,24.764229],[46.888773,24.646669],[46.888641,24.646462],[46.881425,24.648394],[46.828368,24.682492]]]}},{"type":"Feature","properties":{"district_id":"D27","name":"Khashm Al An","area_km2":66.77},"geometry":{"type":"Polygon","coordinates":[[[46.841815,24.764229],[46.91,24.795221],[46.91,24.68],[46.888773,24.646669],[46.841815,24.764229]]]}},{"type":"Feature","properties":{"district_id":"D28","name":"Al Qadisiyah","area_km2":74.13},"geometry":{"type":"Polygon","coordinates":[[[46.841815,24.764229],[46.828934,24.76653],[46.808908,24.803249],[46.830742,24.888076],[46.91,24.8],[46.91,24.795221],[46.841815,24.764229]]]}},{"type":"Feature","properties":{"district_id":"D29","name":"Imam University","area_km2":48.34},"geometry":{"type":"Polygon","coordinates":[[[46.676963,24.821675],[46.674572,24.829143],[46.722327,24.885932],[46.765019,24.889152],[46.744339,24.820295],[46.709846,24.807981],[46.676963,24.821675]]]}},{"type":"Feature","properties":{"district_id":"D30","name":"Al Qirawan","area_km2":87.2},"geometry":{"type":"Polygon","coordinates":[[[46.722327,24.885932],[46.674572,24.829143],[46.582222,24.864079],[46.619102,24.931714],[46.722327,24.885932]]]}},{"type":"Feature","properties":{"district_id":"D31","name":"Airport","area_km2":127.0},"geometry":{"type":"Polygon","coordinates":[[[46.765019,24.889152],[46.722327,24.885932],[46.619102,24.931714],[46.64,24.97],[46.74,24.98],[46.809943,24.910065],[46.765019,24.889152]]]}},{"type":"Feature","properties":{"district_id":"D32","name":"Al Marqab","area_km2":16.14},"geometry":{"type":"Polygon","coordinates":[[[46.759,24.662516],[46.781365,24.634494],[46.753788,24.611449],[46.726171,24.646063],[46.759,24.662516]]]}},{"type":"Feature","properties":{"district_id":"D33","name":"Al Faisaliyah","area_km2":79.18},"geometry":{"type":"Polygon","coordinates":[[[46.752951,24.609001],[46.753788,24.611449],[46.781365,24.634494],[46.881425,24.648394],[46.888641,24.646462],[46.84,24.57],[46.801671,24.55468],[46.752951,24.609001]]]}},{"type":"Feature","properties":{"district_id":"D34","name":"Namar","area_km2":60.68},"geometry":{"type":"Polygon","coordinates":[[[46.629896,24.581582],[46.692008,24.602357],[46.713569,24.589248],[46.718497,24.531544],[46.611232,24.539203],[46.629896,24.581582]]]}}]}
