{"type":"FeatureCollection","name":"riyadh_bus_osm","attribution":"© OpenStreetMap contributors, ODbL 1.0","features":[{"type":"Feature","properties":{"kind":"route","ref":"9","name":"Route 9","brt":false,"osm_id":10864242},"geometry":{"type":"MultiLineString","coordinates":[[[46.745821,24.596717],[46.745225,24.597926],[46.745221,24.598052],[46.745325,24.598187],[46.747171,24.599321],[46.751621,24.601768],[46.752606,24.602433],[46.752706,24.602591],[46.752673,24.602748],[46.752523,24.602858],[46.752262,24.602854],[46.75162,24.602589],[46.740481,24.596474],[46.737471,24.594747],[46.737287,24.594686],[46.737011,24.594742]],[[46.745821,24.596717],[46.745722,24.596661]],[[46.747172,24.597255],[46.745821,24.596717]],[[46.745999,24.596387],[46.745821,24.596717]]]}},{"type":"Feature","properties":{"kind":"route","ref":"7","name":"Route 7","brt":false,"osm_id":10874440},"geometry":{"type":"MultiLineString","coordinates":[[[46.639546,24.67659],[46.639614,24.677308],[46.639605,24.67831],[46.639397,24.679364],[46.639014,24.68046],[46.638507,24.68135],[46.637501,24.682987],[46.631683,24.691542],[46.627285,24.698157],[46.626269,24.699531],[46.621367,24.706776],[46.620653,24.707918],[46.619252,24.70978],[46.619146,24.710429],[46.619192,24.710928],[46.619332,24.711022],[46.619568,24.710972],[46.620646,24.709791]],[[46.710673,24.653081],[46.708747,24.652505],[46.708043,24.652191],[46.705739,24.651403],[46.701796,24.650212],[46.701168,24.650258],[46.700761,24.650388],[46.699782,24.65103],[46.699273,24.651254],[46.698944,24.651318],[46.698463,24.6513],[46.695801,24.650846],[46.69429,24.65065],[46.692862,24.650693],[46.691539,24.65088],[46.691156,24.650824],[46.690345,24.650527],[46.690131,24.65053],[46.689967,24.650749],[46.687204,24.656408],[46.686935,24.657048],[46.686424,24.658058],[46.686241,24.658581],[46.685237,24.660691],[46.684998,24.660831],[46.684762,24.660854],[46.679123,24.657131],[46.678869,24.656919],[46.678724,24.656691],[46.678482,24.656485],[46.676146,24.654887],[46.675864,24.654627],[46.670235,24.650774],[46.669929,24.650794],[46.669141,24.652989],[46.669066,24.653306],[46.669136,24.653434],[46.670397,24.654546],[46.67092,24.654898],[46.672131,24.655576],[46.673907,24.656661],[46.674259,24.656981],[46.674864,24.657787],[46.675092,24.657988],[46.675539,24.658263],[46.675978,24.658267],[46.676111,24.658399],[46.676126,24.658577],[46.676018,24.658727],[46.675042,24.659173],[46.674615,24.659436],[46.673721,24.660129],[46.670508,24.662378],[46.668539,24.663943],[46.667904,24.664507],[46.662586,24.668844],[46.661183,24.669916],[46.65871,24.671546],[46.657646,24.673624],[46.656752,24.675074],[46.653109,24.683501],[46.651192,24.687791],[46.650793,24.689793],[46.65067,24.690962],[46.650138,24.693864],[46.649644,24.696991],[46.649901,24.69778],[46.650123,24.698022],[46.65328,24.700602],[46.654587,24.701614],[46.654996,24.701775],[46.655023,24.701825],[46.654941,24.701904],[46.654422,24.70176],[46.654304,24.701776],[46.653942,24.701973],[46.653693,24.701993],[46.650846,24.701983],[46.650466,24.702057],[46.650315,24.702171],[46.650289,24.70242],[46.650428,24.702599],[46.651035,24.702909],[46.653607,24.703998],[46.653747,24.70413],[46.65372,24.704237],[46.65359,24.704301],[46.653434,24.704289],[46.648862,24.70242],[46.644018,24.700409],[46.634978,24.696509],[46.632043,24.695337],[46.631425,24.695176],[46.631044,24.695144],[46.630728,24.695155],[46.630022,24.695303],[46.629549,24.695489],[46.629158,24.695711],[46.628841,24.695971],[46.628362,24.696552]],[[46.653717,24.70465],[46.653733,24.704521],[46.653654,24.704392]],[[46.71904,24.627732],[46.71863,24.62846],[46.717543,24.62988],[46.716877,24.630845],[46.716485,24.632124],[46.716555,24.633336],[46.716735,24.633867],[46.717112,24.634585],[46.717413,24.635391],[46.717727,24.636604],[46.71789,24.638709],[46.717912,24.639813],[46.71788,24.640412],[46.717602,24.641466],[46.715844,24.645259],[46.714329,24.648375],[46.71246,24.653427],[46.711315,24.653255],[46.710673,24.653081]],[[46.710812,24.653053],[46.710673,24.653081]],[[46.710928,24.652864],[46.710852,24.653026]],[[46.715038,24.646547],[46.712977,24.646096]],[[46.71904,24.627732],[46.718566,24.628394]],[[46.72458,24.619433],[46.723003,24.622917],[46.722151,24.624554],[46.72178,24.624917],[46.720657,24.62569],[46.720039,24.626385],[46.71904,24.627732]],[[46.726571,24.618104],[46.726622,24.620045],[46.726561,24.620062],[46.72458,24.619433]],[[46.745821,24.596717],[46.745225,24.597926],[46.745221,24.598052],[46.745325,24.598187],[46.747171,24.599321],[46.751621,24.601768],[46.752606,24.602433],[46.752706,24.602591],[46.752673,24.602748],[46.752523,24.602858],[46.752262,24.602854],[46.75162,24.602589],[46.740481,24.596474],[46.737471,24.594747],[46.737287,24.594686],[46.737011,24.594742],[46.735954,24.596215],[46.735103,24.597676],[46.734141,24.599674],[46.732226,24.603389],[46.7303,24.607241],[46.729692,24.608686],[46.728449,24.611107],[46.727371,24.613575],[46.72658,24.615046],[46.725376,24.617972],[46.72458,24.619433]],[[46.726538,24.615151],[46.726584,24.615391],[46.727562,24.615872],[46.726849,24.617465],[46.726655,24.618025]],[[46.745821,24.596717],[46.745722,24.596661]],[[46.747172,24.597255],[46.745821,24.596717]],[[46.745999,24.596387],[46.745821,24.596717]]]}},{"type":"Feature","properties":{"kind":"route","ref":"730","name":"Route 730_d1","brt":false,"osm_id":10889197},"geometry":{"type":"MultiLineString","coordinates":[[[46.614638,24.58259],[46.609163,24.58996],[46.609032,24.590034],[46.607603,24.589151],[46.607327,24.589176],[46.606548,24.590254],[46.606497,24.590466]],[[46.606548,24.590254],[46.606288,24.590369],[46.605959,24.59029],[46.603757,24.588909],[46.599234,24.586212],[46.598653,24.586225],[46.598184,24.58682],[46.596002,24.590405],[46.595412,24.591669],[46.594536,24.593257],[46.59416,24.594158],[46.59201,24.598185],[46.591341,24.599578],[46.590243,24.601657],[46.587947,24.605602],[46.586552,24.608208],[46.581228,24.61944],[46.580783,24.620493],[46.580289,24.62189],[46.580154,24.622616],[46.580646,24.625573],[46.580841,24.627787],[46.580949,24.628107],[46.581252,24.628721],[46.582308,24.6305],[46.584838,24.63412],[46.585315,24.634383],[46.585493,24.634312],[46.585718,24.634014],[46.585845,24.633928],[46.586002,24.633932],[46.586121,24.634022],[46.586315,24.634576],[46.586972,24.635539],[46.590687,24.640761],[46.59294,24.643841],[46.592768,24.643898],[46.58783,24.636976],[46.586183,24.634593],[46.585807,24.634327],[46.585531,24.63444],[46.585429,24.634638],[46.585714,24.635311],[46.591088,24.64283],[46.593044,24.645672],[46.595142,24.648525],[46.596209,24.649782],[46.597578,24.651218],[46.598578,24.652129],[46.600329,24.653966],[46.601173,24.654677],[46.603544,24.656313],[46.604395,24.657076],[46.607309,24.658809],[46.609461,24.659918],[46.615242,24.66341],[46.616293,24.663796],[46.617343,24.664429],[46.620418,24.666011],[46.622513,24.666914],[46.624692,24.667678],[46.626617,24.668501],[46.633127,24.670283],[46.635103,24.671013],[46.635761,24.671345],[46.636886,24.672122],[46.637602,24.672743],[46.638514,24.67378],[46.639353,24.675663],[46.639474,24.676122],[46.639614,24.677308],[46.639605,24.67831],[46.639515,24.678817],[46.639397,24.679364],[46.639014,24.68046],[46.637501,24.682987],[46.631683,24.691542],[46.627285,24.698157],[46.626269,24.699531],[46.623621,24.703466]],[[46.627285,24.698157],[46.626697,24.699306],[46.625816,24.700576],[46.624128,24.703398],[46.623749,24.70394],[46.623732,24.704079],[46.624003,24.704441],[46.627058,24.707728],[46.630885,24.711628],[46.632652,24.713345],[46.633741,24.714274],[46.63498,24.715067],[46.636614,24.715984],[46.642373,24.718344],[46.644051,24.719091]],[[46.633868,24.714486],[46.634617,24.715008],[46.636066,24.715821],[46.637609,24.716521],[46.641574,24.718128],[46.649579,24.721582],[46.652305,24.722691],[46.652928,24.722868],[46.654072,24.723302]],[[46.642998,24.777295],[46.642917,24.777258],[46.642939,24.777135],[46.643035,24.776955],[46.644067,24.774885]],[[46.654345,24.724017],[46.652667,24.726477],[46.651758,24.728011],[46.650221,24.730946],[46.64768,24.73649],[46.64745,24.737099],[46.644169,24.743491],[46.643819,24.744105],[46.64365,24.744292],[46.643333,24.7449],[46.641045,24.74949],[46.636784,24.75777],[46.636518,24.758377],[46.636192,24.759507],[46.636061,24.760522],[46.636041,24.761181],[46.636093,24.762048],[46.636231,24.762934],[46.636673,24.764345],[46.637445,24.766081],[46.637777,24.766721],[46.641529,24.775166],[46.64181,24.77565],[46.642495,24.777074],[46.642689,24.77713],[46.642866,24.777071],[46.643253,24.776518]],[[46.654678,24.723606],[46.654561,24.723679],[46.65441,24.72374],[46.654255,24.723796],[46.653806,24.723798]],[[46.654072,24.723302],[46.654379,24.723342],[46.654674,24.723255],[46.656879,24.720581],[46.658013,24.71896],[46.659007,24.7173]],[[46.654072,24.723302],[46.654398,24.723601],[46.65441,24.72374],[46.654345,24.724017]],[[46.654678,24.723606],[46.654345,24.724017]],[[46.658772,24.718154],[46.657955,24.71947],[46.656497,24.721457],[46.655808,24.722324],[46.654678,24.723606]]]}},{"type":"Feature","properties":{"kind":"route","ref":"250","name":"Route 250d1","brt":false,"osm_id":10893912},"geometry":{"type":"MultiLineString","coordinates":[[[46.701405,24.692476],[46.698804,24.685923],[46.698735,24.685476],[46.698768,24.685047],[46.698866,24.684682],[46.69912,24.684188]],[[46.699958,24.683257],[46.701615,24.683891],[46.701821,24.684073],[46.702751,24.684577],[46.702827,24.684658],[46.708681,24.687059],[46.709531,24.687339],[46.711606,24.687838],[46.712659,24.688205],[46.713148,24.688463],[46.714263,24.68934],[46.715814,24.691065],[46.716522,24.691613],[46.717532,24.692113],[46.718394,24.692389],[46.721116,24.69293],[46.723491,24.693555],[46.730684,24.694916],[46.731717,24.695278],[46.732326,24.695601],[46.733358,24.696217],[46.735212,24.697474],[46.736671,24.698223],[46.744718,24.703592],[46.756971,24.711273],[46.757912,24.712005],[46.768108,24.718331],[46.769227,24.718916],[46.769554,24.719017],[46.771957,24.720518],[46.772479,24.720795],[46.778893,24.724871],[46.79357,24.734006],[46.796706,24.73588],[46.799511,24.737659],[46.802526,24.739479],[46.80416,24.740586],[46.811149,24.74484],[46.812902,24.745977],[46.815993,24.748101],[46.82331,24.752652],[46.826026,24.754223],[46.826678,24.75453],[46.830174,24.756685],[46.831484,24.757551],[46.836653,24.760585],[46.838284,24.761465],[46.838902,24.761626],[46.83973,24.761691],[46.841725,24.761665],[46.842548,24.761491],[46.843474,24.76097],[46.844022,24.760401],[46.84424,24.760083],[46.846288,24.756823],[46.848799,24.752194],[46.84893,24.752099],[46.849043,24.752094],[46.849928,24.75263],[46.850152,24.752704],[46.850311,24.752668],[46.851806,24.750621],[46.851962,24.750533],[46.852301,24.750094],[46.852464,24.749972],[46.85268,24.749981],[46.856841,24.752581]],[[46.714525,24.690124],[46.714309,24.690056],[46.714004,24.690059],[46.701574,24.692911]],[[46.702072,24.692805],[46.701873,24.692903],[46.701806,24.693058]],[[46.712841,24.702378],[46.715503,24.703912],[46.715699,24.703992],[46.715919,24.703905],[46.715944,24.703787],[46.715859,24.70354],[46.715266,24.702615],[46.71175,24.694831],[46.711599,24.694712],[46.711438,24.694272],[46.710568,24.690858]]]}},{"type":"Feature","properties":{"kind":"route","ref":"540","name":"Route 540_d1","brt":false,"osm_id":10894323},"geometry":{"type":"MultiLineString","coordinates":[[[46.791812,24.783765],[46.792198,24.78329],[46.792802,24.782796],[46.794257,24.781965],[46.794577,24.781738],[46.796085,24.780929],[46.79671,24.780642],[46.797008,24.78053],[46.797083,24.780552],[46.797089,24.780641],[46.796759,24.780893],[46.795983,24.781205],[46.79551,24.781473],[46.794351,24.782168],[46.793399,24.782635],[46.792871,24.782953],[46.79207,24.783685],[46.791826,24.784031]],[[46.795138,24.781699],[46.794898,24.781928],[46.794878,24.782102],[46.795223,24.782365]],[[46.795926,24.780235],[46.79617,24.780432],[46.796174,24.780512],[46.796064,24.78054],[46.795718,24.780339]],[[46.795926,24.780235],[46.796369,24.780539],[46.796496,24.780566],[46.796585,24.780567],[46.797218,24.78029]],[[46.797218,24.78029],[46.797597,24.780053],[46.798025,24.779563],[46.802463,24.773591],[46.802476,24.773436],[46.801964,24.773021],[46.795378,24.768859],[46.789702,24.77645],[46.795926,24.780235]],[[46.79671,24.780642],[46.797218,24.78029]],[[46.845878,24.716462],[46.821232,24.749729],[46.820169,24.751026],[46.819971,24.751026],[46.819659,24.750894],[46.819495,24.750967],[46.812535,24.760376],[46.803792,24.772081],[46.800951,24.775996],[46.797834,24.780029],[46.797342,24.780748]]]}},{"type":"Feature","properties":{"kind":"route","ref":"BRT13","name":"Route BRT13","brt":true,"osm_id":16934561},"geometry":{"type":"MultiLineString","coordinates":[[[46.786788,24.730379],[46.786918,24.730205],[46.786919,24.729908],[46.786987,24.72973],[46.787391,24.729195],[46.787857,24.728443],[46.788847,24.727092],[46.785866,24.725251],[46.785681,24.725011]],[[46.785961,24.725179],[46.78902,24.727069],[46.787933,24.728529]],[[46.80884,24.693973],[46.808452,24.694322],[46.808052,24.694872]]]}},{"type":"Feature","properties":{"kind":"route","ref":"BRT11","name":"Route BRT 11","brt":true,"osm_id":16934913},"geometry":{"type":"MultiLineString","coordinates":[[[46.672277,24.762039],[46.672401,24.761951],[46.674486,24.757842]],[[46.679106,24.748725],[46.682061,24.74284],[46.682468,24.742134]],[[46.688113,24.730899],[46.690557,24.726046]],[[46.716792,24.706756],[46.716138,24.706968]],[[46.725001,24.684929],[46.726467,24.678924]],[[46.735895,24.660847],[46.735756,24.660891]],[[46.748131,24.666249],[46.748296,24.666041],[46.749686,24.663462],[46.754923,24.65335]],[[46.75823,24.646546],[46.761851,24.63456],[46.764474,24.625606],[46.764559,24.625331],[46.764687,24.625276]]]}},{"type":"Feature","properties":{"kind":"stop","name":null,"osm_id":672665473},"geometry":{"type":"Point","coordinates":[46.697553,24.712036]}},{"type":"Feature","properties":{"kind":"stop","name":"#2","osm_id":3380996783},"geometry":{"type":"Point","coordinates":[46.901911,24.676576]}},{"type":"Feature","properties":{"kind":"stop","name":"#3","osm_id":3380996784},"geometry":{"type":"Point","coordinates":[46.903883,24.67625]}},{"type":"Feature","properties":{"kind":"stop","name":"MC Bus Stop","osm_id":3381343650},"geometry":{"type":"Point","coordinates":[46.86693,24.75396]}},{"type":"Feature","properties":{"kind":"stop","name":null,"osm_id":3381343801},"geometry":{"type":"Point","coordinates":[46.859843,24.752696]}},{"type":"Feature","properties":{"kind":"stop","name":"Hospital Stop","osm_id":3381343802},"geometry":{"type":"Point","coordinates":[46.859963,24.750386]}},{"type":"Feature","properties":{"kind":"stop","name":null,"osm_id":3381343803},"geometry":{"type":"Point","coordinates":[46.860992,24.751199]}},{"type":"Feature","properties":{"kind":"stop","name":null,"osm_id":3381343804},"geometry":{"type":"Point","coordinates":[46.858524,24.748135]}},{"type":"Feature","properties":{"kind":"stop","name":null,"osm_id":3381343829},"geometry":{"type":"Point","coordinates":[46.857273,24.754207]}},{"type":"Feature","properties":{"kind":"stop","name":null,"osm_id":3381343840},"geometry":{"type":"Point","coordinates":[46.85468,24.75625]}},{"type":"Feature","properties":{"kind":"stop","name":null,"osm_id":3381343841},"geometry":{"type":"Point","coordinates":[46.856187,24.759343]}},{"type":"Feature","properties":{"kind":"stop","name":null,"osm_id":3381343842},"geometry":{"type":"Point","coordinates":[46.859857,24.759141]}},{"type":"Feature","properties":{"kind":"stop","name":null,"osm_id":3381343843},"geometry":{"type":"Point","coordinates":[46.859728,24.752617]}},{"type":"Feature","properties":{"kind":"stop","name":null,"osm_id":3381343844},"geometry":{"type":"Point","coordinates":[46.860844,24.751125]}},{"type":"Feature","properties":{"kind":"stop","name":null,"osm_id":3381343845},"geometry":{"type":"Point","coordinates":[46.857187,24.754311]}},{"type":"Feature","properties":{"kind":"stop","name":null,"osm_id":3381343846},"geometry":{"type":"Point","coordinates":[46.854801,24.756342]}},{"type":"Feature","properties":{"kind":"stop","name":null,"osm_id":3381343847},"geometry":{"type":"Point","coordinates":[46.856282,24.759221]}},{"type":"Feature","properties":{"kind":"stop","name":null,"osm_id":3381343848},"geometry":{"type":"Point","coordinates":[46.859938,24.759024]}},{"type":"Feature","properties":{"kind":"stop","name":null,"osm_id":3381343849},"geometry":{"type":"Point","coordinates":[46.863385,24.76097]}},{"type":"Feature","properties":{"kind":"stop","name":null,"osm_id":3381343850},"geometry":{"type":"Point","coordinates":[46.863304,24.761099]}},{"type":"Feature","properties":{"kind":"stop","name":null,"osm_id":3381343851},"geometry":{"type":"Point","coordinates":[46.865859,24.762694]}},{"type":"Feature","properties":{"kind":"stop","name":null,"osm_id":3381343852},"geometry":{"type":"Point","coordinates":[46.865926,24.762578]}},{"type":"Feature","properties":{"kind":"stop","name":null,"osm_id":3381343853},"geometry":{"type":"Point","coordinates":[46.86867,24.764401]}},{"type":"Feature","properties":{"kind":"stop","name":null,"osm_id":3381343854},"geometry":{"type":"Point","coordinates":[46.868731,24.764278]}},{"type":"Feature","properties":{"kind":"stop","name":null,"osm_id":3381685115},"geometry":{"type":"Point","coordinates":[46.870929,24.751743]}},{"type":"Feature","properties":{"kind":"stop","name":null,"osm_id":3381685116},"geometry":{"type":"Point","coordinates":[46.875004,24.751577]}},{"type":"Feature","properties":{"kind":"stop","name":null,"osm_id":3381685118},"geometry":{"type":"Point","coordinates":[46.876505,24.751482]}},{"type":"Feature","properties":{"kind":"stop","name":null,"osm_id":3381685119},"geometry":{"type":"Point","coordinates":[46.878076,24.751194]}},{"type":"Feature","properties":{"kind":"stop","name":null,"osm_id":3381685120},"geometry":{"type":"Point","coordinates":[46.880198,24.751765]}},{"type":"Feature","properties":{"kind":"stop","name":null,"osm_id":3381685121},"geometry":{"type":"Point","coordinates":[46.880604,24.751718]}},{"type":"Feature","properties":{"kind":"stop","name":null,"osm_id":3381685122},"geometry":{"type":"Point","coordinates":[46.879817,24.752845]}},{"type":"Feature","properties":{"kind":"stop","name":null,"osm_id":3381685123},"geometry":{"type":"Point","coordinates":[46.879999,24.75302]}},{"type":"Feature","properties":{"kind":"stop","name":null,"osm_id":3381685124},"geometry":{"type":"Point","coordinates":[46.881479,24.754766]}},{"type":"Feature","properties":{"kind":"stop","name":null,"osm_id":3381685125},"geometry":{"type":"Point","coordinates":[46.877362,24.75709]}},{"type":"Feature","properties":{"kind":"stop","name":null,"osm_id":3381685126},"geometry":{"type":"Point","coordinates":[46.875685,24.757419]}},{"type":"Feature","properties":{"kind":"stop","name":null,"osm_id":3381685127},"geometry":{"type":"Point","coordinates":[46.874482,24.755576]}},{"type":"Feature","properties":{"kind":"stop","name":null,"osm_id":3381685128},"geometry":{"type":"Point","coordinates":[46.874638,24.75657]}},{"type":"Feature","properties":{"kind":"stop","name":"CCIS Bus Stop","osm_id":6553542209},"geometry":{"type":"Point","coordinates":[46.620406,24.723201]}},{"type":"Feature","properties":{"kind":"stop","name":null,"osm_id":6670210343},"geometry":{"type":"Point","coordinates":[46.746652,24.595852]}},{"type":"Feature","properties":{"kind":"stop","name":null,"osm_id":6670210344},"geometry":{"type":"Point","coordinates":[46.746707,24.595873]}},{"type":"Feature","properties":{"kind":"stop","name":null,"osm_id":6670210345},"geometry":{"type":"Point","coordinates":[46.746758,24.595896]}},{"type":"Feature","properties":{"kind":"stop","name":null,"osm_id":6670210346},"geometry":{"type":"Point","coordinates":[46.746812,24.595916]}},{"type":"Feature","properties":{"kind":"stop","name":null,"osm_id":6670210347},"geometry":{"type":"Point","coordinates":[46.746868,24.595939]}},{"type":"Feature","properties":{"kind":"stop","name":null,"osm_id":6670210348},"geometry":{"type":"Point","coordinates":[46.746913,24.595966]}},{"type":"Feature","properties":{"kind":"stop","name":null,"osm_id":6670210349},"geometry":{"type":"Point","coordinates":[46.746967,24.595985]}},{"type":"Feature","properties":{"kind":"stop","name":null,"osm_id":6670210350},"geometry":{"type":"Point","coordinates":[46.747022,24.596008]}},{"type":"Feature","properties":{"kind":"stop","name":null,"osm_id":6670210351},"geometry":{"type":"Point","coordinates":[46.747074,24.596032]}},{"type":"Feature","properties":{"kind":"stop","name":null,"osm_id":6670210352},"geometry":{"type":"Point","coordinates":[46.747175,24.596077]}},{"type":"Feature","properties":{"kind":"stop","name":null,"osm_id":6670210353},"geometry":{"type":"Point","coordinates":[46.74723,24.596104]}},{"type":"Feature","properties":{"kind":"stop","name":null,"osm_id":6670210355},"geometry":{"type":"Point","coordinates":[46.747283,24.596124]}},{"type":"Feature","properties":{"kind":"stop","name":null,"osm_id":6670210356},"geometry":{"type":"Point","coordinates":[46.747333,24.596147]}},{"type":"Feature","properties":{"kind":"stop","name":null,"osm_id":6670210357},"geometry":{"type":"Point","coordinates":[46.747395,24.596171]}},{"type":"Feature","properties":{"kind":"stop","name":null,"osm_id":6670210358},"geometry":{"type":"Point","coordinates":[46.747446,24.596193]}},{"type":"Feature","properties":{"kind":"stop","name":null,"osm_id":6670210359},"geometry":{"type":"Point","coordinates":[46.747496,24.596217]}},{"type":"Feature","properties":{"kind":"stop","name":null,"osm_id":6670210360},"geometry":{"type":"Point","coordinates":[46.747554,24.596241]}},{"type":"Feature","properties":{"kind":"stop","name":null,"osm_id":6670210361},"geometry":{"type":"Point","coordinates":[46.747616,24.596267]}},{"type":"Feature","properties":{"kind":"stop","name":null,"osm_id":6670210362},"geometry":{"type":"Point","coordinates":[46.747669,24.596285]}},{"type":"Feature","properties":{"kind":"stop","name":null,"osm_id":6670210365},"geometry":{"type":"Point","coordinates":[46.74782,24.596358]}},{"type":"Feature","properties":{"kind":"stop","name":null,"osm_id":6670210367},"geometry":{"type":"Point","coordinates":[46.746847,24.595479]}},{"type":"Feature","properties":{"kind":"stop","name":null,"osm_id":6670210369},"geometry":{"type":"Point","coordinates":[46.746907,24.595504]}},{"type":"Feature","properties":{"kind":"stop","name":null,"osm_id":6670210371},"geometry":{"type":"Point","coordinates":[46.74696,24.595528]}},{"type":"Feature","properties":{"kind":"stop","name":null,"osm_id":6670210373},"geometry":{"type":"Point","coordinates":[46.747006,24.595548]}},{"type":"Feature","properties":{"kind":"stop","name":null,"osm_id":6670210375},"geometry":{"type":"Point","coordinates":[46.747061,24.595572]}},{"type":"Feature","properties":{"kind":"stop","name":null,"osm_id":6670210377},"geometry":{"type":"Point","coordinates":[46.747115,24.595596]}},{"type":"Feature","properties":{"kind":"stop","name":null,"osm_id":6670210379},"geometry":{"type":"Point","coordinates":[46.747164,24.595616]}},{"type":"Feature","properties":{"kind":"stop","name":null,"osm_id":6670210381},"geometry":{"type":"Point","coordinates":[46.747221,24.595641]}},{"type":"Feature","properties":{"kind":"stop","name":null,"osm_id":6670210383},"geometry":{"type":"Point","coordinates":[46.74727,24.595664]}},{"type":"Feature","properties":{"kind":"stop","name":null,"osm_id":6670213985},"geometry":{"type":"Point","coordinates":[46.747374,24.595708]}},{"type":"Feature","properties":{"kind":"stop","name":null,"osm_id":6670213987},"geometry":{"type":"Point","coordinates":[46.747432,24.595734]}},{"type":"Feature","properties":{"kind":"stop","name":null,"osm_id":6670213988},"geometry":{"type":"Point","coordinates":[46.747481,24.595755]}},{"type":"Feature","properties":{"kind":"stop","name":null,"osm_id":6670213990},"geometry":{"type":"Point","coordinates":[46.747534,24.595776]}},{"type":"Feature","properties":{"kind":"stop","name":null,"osm_id":6670213992},"geometry":{"type":"Point","coordinates":[46.747642,24.595825]}},{"type":"Feature","properties":{"kind":"stop","name":null,"osm_id":6670213994},"geometry":{"type":"Point","coordinates":[46.747592,24.595801]}},{"type":"Feature","properties":{"kind":"stop","name":null,"osm_id":6670213996},"geometry":{"type":"Point","coordinates":[46.747693,24.595846]}},{"type":"Feature","properties":{"kind":"stop","name":null,"osm_id":6670213998},"geometry":{"type":"Point","coordinates":[46.747754,24.595872]}},{"type":"Feature","properties":{"kind":"stop","name":null,"osm_id":6670214000},"geometry":{"type":"Point","coordinates":[46.747816,24.595897]}},{"type":"Feature","properties":{"kind":"stop","name":null,"osm_id":6670214002},"geometry":{"type":"Point","coordinates":[46.747863,24.595916]}},{"type":"Feature","properties":{"kind":"stop","name":null,"osm_id":6670214004},"geometry":{"type":"Point","coordinates":[46.747915,24.595937]}},{"type":"Feature","properties":{"kind":"stop","name":null,"osm_id":6670214006},"geometry":{"type":"Point","coordinates":[46.747977,24.595965]}},{"type":"Feature","properties":{"kind":"stop","name":null,"osm_id":6670214008},"geometry":{"type":"Point","coordinates":[46.748418,24.596141]}},{"type":"Feature","properties":{"kind":"stop","name":null,"osm_id":6670214010},"geometry":{"type":"Point","coordinates":[46.748473,24.596171]}},{"type":"Feature","properties":{"kind":"stop","name":null,"osm_id":6670214012},"geometry":{"type":"Point","coordinates":[46.748519,24.596195]}},{"type":"Feature","properties":{"kind":"stop","name":null,"osm_id":6670214014},"geometry":{"type":"Point","coordinates":[46.748564,24.596214]}},{"type":"Feature","properties":{"kind":"stop","name":null,"osm_id":6670214016},"geometry":{"type":"Point","coordinates":[46.74861,24.596229]}},{"type":"Feature","properties":{"kind":"stop","name":null,"osm_id":6670214018},"geometry":{"type":"Point","coordinates":[46.748671,24.596249]}},{"type":"Feature","properties":{"kind":"stop","name":"PSU Bus Stop","osm_id":6834324527},"geometry":{"type":"Point","coordinates":[46.696396,24.734272]}},{"type":"Feature","properties":{"kind":"stop","name":"yamamah university","osm_id":6834392188},"geometry":{"type":"Point","coordinates":[46.592502,24.864781]}},{"type":"Feature","properties":{"kind":"stop","name":null,"osm_id":7176787286},"geometry":{"type":"Point","coordinates":[46.716177,24.632894]}},{"type":"Feature","properties":{"kind":"stop","name":"Olaya bound","osm_id":7176787287},"geometry":{"type":"Point","coordinates":[46.717723,24.641216]}},{"type":"Feature","properties":{"kind":"stop","name":"Riyadh Public Buses","osm_id":7176790185},"geometry":{"type":"Point","coordinates":[46.747114,24.59727]}},{"type":"Feature","properties":{"kind":"stop","name":null,"osm_id":7179151485},"geometry":{"type":"Point","coordinates":[46.710498,24.657758]}},{"type":"Feature","properties":{"kind":"stop","name":"Sulaymaniyah bound","osm_id":7229278185},"geometry":{"type":"Point","coordinates":[46.717757,24.64099]}},{"type":"Feature","properties":{"kind":"stop","name":null,"osm_id":7229354385},"geometry":{"type":"Point","coordinates":[46.786482,24.73122]}},{"type":"Feature","properties":{"kind":"stop","name":"الباص السياحي","osm_id":7906706475},"geometry":{"type":"Point","coordinates":[46.573922,24.737739]}},{"type":"Feature","properties":{"kind":"stop","name":null,"osm_id":8305819167},"geometry":{"type":"Point","coordinates":[46.622572,24.590556]}},{"type":"Feature","properties":{"kind":"stop","name":null,"osm_id":8305819168},"geometry":{"type":"Point","coordinates":[46.623103,24.590476]}},{"type":"Feature","properties":{"kind":"stop","name":null,"osm_id":8305819169},"geometry":{"type":"Point","coordinates":[46.616508,24.599454]}},{"type":"Feature","properties":{"kind":"stop","name":"Alhamra Bus Stop (Non Operational )","osm_id":8809454071},"geometry":{"type":"Point","coordinates":[46.741594,24.780473]}},{"type":"Feature","properties":{"kind":"stop","name":"Saeed Bin Zaid 01","osm_id":9064465190},"geometry":{"type":"Point","coordinates":[46.726368,24.827047]}},{"type":"Feature","properties":{"kind":"stop","name":"Saeed Bin Zaid 01","osm_id":9064465191},"geometry":{"type":"Point","coordinates":[46.726882,24.827279]}},{"type":"Feature","properties":{"kind":"stop","name":null,"osm_id":9064465210},"geometry":{"type":"Point","coordinates":[46.719698,24.811799]}},{"type":"Feature","properties":{"kind":"stop","name":null,"osm_id":9064465211},"geometry":{"type":"Point","coordinates":[46.720901,24.811499]}},{"type":"Feature","properties":{"kind":"stop","name":null,"osm_id":9108035338},"geometry":{"type":"Point","coordinates":[46.624416,24.604288]}},{"type":"Feature","properties":{"kind":"stop","name":null,"osm_id":9187386205},"geometry":{"type":"Point","coordinates":[46.639287,24.730305]}},{"type":"Feature","properties":{"kind":"stop","name":null,"osm_id":9187386206},"geometry":{"type":"Point","coordinates":[46.638522,24.731629]}},{"type":"Feature","properties":{"kind":"stop","name":"Al-Muhammadiyah 501","osm_id":9187386211},"geometry":{"type":"Point","coordinates":[46.634364,24.734344]}},{"type":"Feature","properties":{"kind":"stop","name":null,"osm_id":9187386212},"geometry":{"type":"Point","coordinates":[46.635309,24.734249]}},{"type":"Feature","properties":{"kind":"stop","name":null,"osm_id":9197393474},"geometry":{"type":"Point","coordinates":[46.612474,24.716815]}},{"type":"Feature","properties":{"kind":"stop","name":null,"osm_id":9202161283},"geometry":{"type":"Point","coordinates":[46.614067,24.751086]}},{"type":"Feature","properties":{"kind":"stop","name":null,"osm_id":9332328939},"geometry":{"type":"Point","coordinates":[46.692384,24.628286]}},{"type":"Feature","properties":{"kind":"stop","name":null,"osm_id":9332328942},"geometry":{"type":"Point","coordinates":[46.696103,24.62293]}},{"type":"Feature","properties":{"kind":"stop","name":null,"osm_id":10603682141},"geometry":{"type":"Point","coordinates":[46.75425,24.654713]}},{"type":"Feature","properties":{"kind":"stop","name":"Al Batha","osm_id":10709820414},"geometry":{"type":"Point","coordinates":[46.71726,24.642243]}},{"type":"Feature","properties":{"kind":"stop","name":"Foreign Affairs","osm_id":10709820417},"geometry":{"type":"Point","coordinates":[46.691859,24.647855]}},{"type":"Feature","properties":{"kind":"stop","name":"Al Nasiriyah","osm_id":10709820418},"geometry":{"type":"Point","coordinates":[46.684796,24.674768]}},{"type":"Feature","properties":{"kind":"stop","name":"Takhaasusi","osm_id":10709820419},"geometry":{"type":"Point","coordinates":[46.678537,24.676881]}},{"type":"Feature","properties":{"kind":"stop","name":"Takhaasusi","osm_id":10709820420},"geometry":{"type":"Point","coordinates":[46.678121,24.676971]}},{"type":"Feature","properties":{"kind":"stop","name":"Ath Thumamah","osm_id":10783500944},"geometry":{"type":"Point","coordinates":[46.694972,24.819806]}},{"type":"Feature","properties":{"kind":"stop","name":"Saeed Bin Zaid 02","osm_id":10783572663},"geometry":{"type":"Point","coordinates":[46.729577,24.820864]}},{"type":"Feature","properties":{"kind":"stop","name":"Saeed Bin Zaid 02","osm_id":10783572664},"geometry":{"type":"Point","coordinates":[46.730425,24.820138]}},{"type":"Feature","properties":{"kind":"stop","name":"Ath Thumamah","osm_id":10783579127},"geometry":{"type":"Point","coordinates":[46.689208,24.818221]}},{"type":"Feature","properties":{"kind":"stop","name":"Ath Thumamah","osm_id":10783579128},"geometry":{"type":"Point","coordinates":[46.684377,24.816575]}},{"type":"Feature","properties":{"kind":"stop","name":"Ath Thumamah","osm_id":10783579129},"geometry":{"type":"Point","coordinates":[46.684275,24.81617]}},{"type":"Feature","properties":{"kind":"stop","name":"Ath Thumamah","osm_id":10783579130},"geometry":{"type":"Point","coordinates":[46.678936,24.813911]}},{"type":"Feature","properties":{"kind":"stop","name":"Ath Thumamah","osm_id":10783579131},"geometry":{"type":"Point","coordinates":[46.678195,24.814004]}},{"type":"Feature","properties":{"kind":"stop","name":"Ath Thumamah","osm_id":10783579132},"geometry":{"type":"Point","coordinates":[46.673364,24.811566]}},{"type":"Feature","properties":{"kind":"stop","name":"Ath Thumamah","osm_id":10783579133},"geometry":{"type":"Point","coordinates":[46.672695,24.811689]}},{"type":"Feature","properties":{"kind":"stop","name":"Ath Thumamah","osm_id":10783579134},"geometry":{"type":"Point","coordinates":[46.668106,24.809344]}},{"type":"Feature","properties":{"kind":"stop","name":"Ath Thumamah","osm_id":10783579135},"geometry":{"type":"Point","coordinates":[46.666479,24.809067]}},{"type":"Feature","properties":{"kind":"stop","name":"Ath Thumamah","osm_id":10783579136},"geometry":{"type":"Point","coordinates":[46.661375,24.806507]}},{"type":"Feature","properties":{"kind":"stop","name":"Ath Thumamah","osm_id":10783579137},"geometry":{"type":"Point","coordinates":[46.660648,24.806594]}},{"type":"Feature","properties":{"kind":"stop","name":"Ath Thumamah","osm_id":10783579138},"geometry":{"type":"Point","coordinates":[46.655915,24.803664]}},{"type":"Feature","properties":{"kind":"stop","name":null,"osm_id":10783579139},"geometry":{"type":"Point","coordinates":[46.655005,24.804337]}},{"type":"Feature","properties":{"kind":"stop","name":null,"osm_id":10783579140},"geometry":{"type":"Point","coordinates":[46.701717,24.818833]}},{"type":"Feature","properties":{"kind":"stop","name":null,"osm_id":10783579141},"geometry":{"type":"Point","coordinates":[46.704694,24.81954]}},{"type":"Feature","properties":{"kind":"stop","name":"Saeed Bin Zaid 03","osm_id":10783720380},"geometry":{"type":"Point","coordinates":[46.735094,24.810919]}},{"type":"Feature","properties":{"kind":"stop","name":"Saeed Bin Zaid 03","osm_id":10783720381},"geometry":{"type":"Point","coordinates":[46.735007,24.809912]}},{"type":"Feature","properties":{"kind":"stop","name":"Saeed Bin Zaid 04","osm_id":10783720382},"geometry":{"type":"Point","coordinates":[46.738483,24.804173]}},{"type":"Feature","properties":{"kind":"stop","name":"Saeed Bin Zaid 03","osm_id":10783720383},"geometry":{"type":"Point","coordinates":[46.738273,24.803631]}},{"type":"Feature","properties":{"kind":"stop","name":"Khalid Bin Alwalid 01","osm_id":10783720384},"geometry":{"type":"Point","coordinates":[46.740966,24.799176]}},{"type":"Feature","properties":{"kind":"stop","name":"Khalid Bin Alwalid 01","osm_id":10783720385},"geometry":{"type":"Point","coordinates":[46.740775,24.798728]}},{"type":"Feature","properties":{"kind":"stop","name":"Khalid Bin Alwalid 02","osm_id":10783720386},"geometry":{"type":"Point","coordinates":[46.742493,24.796139]}},{"type":"Feature","properties":{"kind":"stop","name":"Khalid Bin Alwalid 02","osm_id":10783720387},"geometry":{"type":"Point","coordinates":[46.742177,24.795914]}},{"type":"Feature","properties":{"kind":"stop","name":"Khalid Bin Alwalid 03","osm_id":10783720388},"geometry":{"type":"Point","coordinates":[46.7436,24.793942]}},{"type":"Feature","properties":{"kind":"stop","name":"Khalid Bin Alwalid 03","osm_id":10783720389},"geometry":{"type":"Point","coordinates":[46.743464,24.793354]}},{"type":"Feature","properties":{"kind":"stop","name":"Khalid Bin Alwalid 04","osm_id":10783720390},"geometry":{"type":"Point","coordinates":[46.74593,24.789383]}},{"type":"Feature","properties":{"kind":"stop","name":"Khalid Bin Alwalid 04","osm_id":10783720391},"geometry":{"type":"Point","coordinates":[46.746335,24.787639]}},{"type":"Feature","properties":{"kind":"stop","name":null,"osm_id":10783720392},"geometry":{"type":"Point","coordinates":[46.748986,24.782305]}},{"type":"Feature","properties":{"kind":"stop","name":null,"osm_id":10783720393},"geometry":{"type":"Point","coordinates":[46.750027,24.781361]}},{"type":"Feature","properties":{"kind":"stop","name":null,"osm_id":10783720394},"geometry":{"type":"Point","coordinates":[46.75182,24.777884]}},{"type":"Feature","properties":{"kind":"stop","name":null,"osm_id":10783720395},"geometry":{"type":"Point","coordinates":[46.751285,24.7778]}},{"type":"Feature","properties":{"kind":"stop","name":null,"osm_id":10783720396},"geometry":{"type":"Point","coordinates":[46.754923,24.773634]}},{"type":"Feature","properties":{"kind":"stop","name":null,"osm_id":10783720397},"geometry":{"type":"Point","coordinates":[46.754454,24.77346]}},{"type":"Feature","properties":{"kind":"stop","name":"Al-Hamra 03","osm_id":10783720398},"geometry":{"type":"Point","coordinates":[46.753049,24.785372]}},{"type":"Feature","properties":{"kind":"stop","name":"Al-Hamra 04","osm_id":10783720399},"geometry":{"type":"Point","coordinates":[46.755675,24.786991]}},{"type":"Feature","properties":{"kind":"stop","name":"Al-Hamra 05","osm_id":10783720400},"geometry":{"type":"Point","coordinates":[46.758752,24.788308]}},{"type":"Feature","properties":{"kind":"stop","name":"Al-Hamra 05","osm_id":10783720401},"geometry":{"type":"Point","coordinates":[46.759109,24.787902]}},{"type":"Feature","properties":{"kind":"stop","name":null,"osm_id":10783720402},"geometry":{"type":"Point","coordinates":[46.780514,24.797534]}},{"type":"Feature","properties":{"kind":"stop","name":null,"osm_id":10783720403},"geometry":{"type":"Point","coordinates":[46.775366,24.795318]}},{"type":"Feature","properties":{"kind":"stop","name":"Ishbiliyah 02","osm_id":10783720404},"geometry":{"type":"Point","coordinates":[46.770117,24.793048]}},{"type":"Feature","properties":{"kind":"stop","name":"Ishbiliyah 02","osm_id":10785699005},"geometry":{"type":"Point","coordinates":[46.771191,24.793014]}},{"type":"Feature","properties":{"kind":"stop","name":null,"osm_id":10820535497},"geometry":{"type":"Point","coordinates":[46.647753,24.789718]}},{"type":"Feature","properties":{"kind":"stop","name":null,"osm_id":10915969335},"geometry":{"type":"Point","coordinates":[46.758226,24.769515]}},{"type":"Feature","properties":{"kind":"stop","name":null,"osm_id":11057263225},"geometry":{"type":"Point","coordinates":[46.631739,24.79448]}},{"type":"Feature","properties":{"kind":"stop","name":null,"osm_id":11110319828},"geometry":{"type":"Point","coordinates":[46.68991,24.814254]}},{"type":"Feature","properties":{"kind":"stop","name":"Olaya 215","osm_id":11209514338},"geometry":{"type":"Point","coordinates":[46.680805,24.70268]}},{"type":"Feature","properties":{"kind":"stop","name":"An-Namunthajiyah 503","osm_id":11209514339},"geometry":{"type":"Point","coordinates":[46.689111,24.65198]}},{"type":"Feature","properties":{"kind":"stop","name":"Ad-Dirah 605","osm_id":11209514439},"geometry":{"type":"Point","coordinates":[46.710721,24.631743]}},{"type":"Feature","properties":{"kind":"stop","name":"Olaya 212","osm_id":11209514440},"geometry":{"type":"Point","coordinates":[46.675917,24.712093]}},{"type":"Feature","properties":{"kind":"stop","name":"Takhassusi 111","osm_id":11209514441},"geometry":{"type":"Point","coordinates":[46.664266,24.706429]}},{"type":"Feature","properties":{"kind":"stop","name":"Takhassusi 116","osm_id":11209514442},"geometry":{"type":"Point","coordinates":[46.677127,24.680949]}},{"type":"Feature","properties":{"kind":"stop","name":"Al-Olaya 603","osm_id":11209514938},"geometry":{"type":"Point","coordinates":[46.701398,24.680325]}},{"type":"Feature","properties":{"kind":"stop","name":"Olaya 218","osm_id":11209514939},"geometry":{"type":"Point","coordinates":[46.690399,24.683711]}},{"type":"Feature","properties":{"kind":"stop","name":"Takhassusi 114","osm_id":11209514940},"geometry":{"type":"Point","coordinates":[46.670794,24.693652]}},{"type":"Feature","properties":{"kind":"stop","name":"Olaya 217","osm_id":11209515037},"geometry":{"type":"Point","coordinates":[46.687731,24.688993]}},{"type":"Feature","properties":{"kind":"stop","name":"Takhassusi 115","osm_id":11209515337},"geometry":{"type":"Point","coordinates":[46.674021,24.687282]}},{"type":"Feature","properties":{"kind":"stop","name":"Takhassusi 120","osm_id":11209515338},"geometry":{"type":"Point","coordinates":[46.681766,24.667084]}},{"type":"Feature","properties":{"kind":"stop","name":null,"osm_id":11399873869},"geometry":{"type":"Point","coordinates":[46.539381,24.580793]}},{"type":"Feature","properties":{"kind":"stop","name":"أنس بن مالك","osm_id":11446221089},"geometry":{"type":"Point","coordinates":[46.675708,24.832946]}},{"type":"Feature","properties":{"kind":"stop","name":null,"osm_id":11486651432},"geometry":{"type":"Point","coordinates":[46.762831,24.76278]}},{"type":"Feature","properties":{"kind":"stop","name":null,"osm_id":11486651433},"geometry":{"type":"Point","coordinates":[46.763394,24.762007]}},{"type":"Feature","properties":{"kind":"stop","name":null,"osm_id":11486651434},"geometry":{"type":"Point","coordinates":[46.766691,24.757574]}},{"type":"Feature","properties":{"kind":"stop","name":null,"osm_id":11486651435},"geometry":{"type":"Point","coordinates":[46.766885,24.757307]}},{"type":"Feature","properties":{"kind":"stop","name":null,"osm_id":11486651436},"geometry":{"type":"Point","coordinates":[46.771278,24.751391]}},{"type":"Feature","properties":{"kind":"stop","name":null,"osm_id":11486651438},"geometry":{"type":"Point","coordinates":[46.779053,24.740944]}},{"type":"Feature","properties":{"kind":"stop","name":null,"osm_id":11486651439},"geometry":{"type":"Point","coordinates":[46.780232,24.73935]}},{"type":"Feature","properties":{"kind":"stop","name":null,"osm_id":11486651441},"geometry":{"type":"Point","coordinates":[46.784339,24.733832]}},{"type":"Feature","properties":{"kind":"stop","name":null,"osm_id":11486651443},"geometry":{"type":"Point","coordinates":[46.786023,24.724316]}},{"type":"Feature","properties":{"kind":"stop","name":null,"osm_id":11486651444},"geometry":{"type":"Point","coordinates":[46.791568,24.716829]}},{"type":"Feature","properties":{"kind":"stop","name":null,"osm_id":11486651446},"geometry":{"type":"Point","coordinates":[46.797783,24.708424]}},{"type":"Feature","properties":{"kind":"stop","name":null,"osm_id":11486651448},"geometry":{"type":"Point","coordinates":[46.802446,24.702458]}},{"type":"Feature","properties":{"kind":"stop","name":null,"osm_id":11486651449},"geometry":{"type":"Point","coordinates":[46.803265,24.701273]}},{"type":"Feature","properties":{"kind":"stop","name":null,"osm_id":11486651450},"geometry":{"type":"Point","coordinates":[46.807659,24.695361]}},{"type":"Feature","properties":{"kind":"stop","name":null,"osm_id":11486842724},"geometry":{"type":"Point","coordinates":[46.660694,24.786982]}},{"type":"Feature","properties":{"kind":"stop","name":null,"osm_id":11486842726},"geometry":{"type":"Point","coordinates":[46.762411,24.632584]}},{"type":"Feature","properties":{"kind":"stop","name":null,"osm_id":11486842727},"geometry":{"type":"Point","coordinates":[46.762023,24.633969]}},{"type":"Feature","properties":{"kind":"stop","name":null,"osm_id":11486842728},"geometry":{"type":"Point","coordinates":[46.760199,24.640016]}},{"type":"Feature","properties":{"kind":"stop","name":null,"osm_id":11486842729},"geometry":{"type":"Point","coordinates":[46.754786,24.653625]}},{"type":"Feature","properties":{"kind":"stop","name":null,"osm_id":11486842730},"geometry":{"type":"Point","coordinates":[46.749686,24.663462]}},{"type":"Feature","properties":{"kind":"stop","name":null,"osm_id":11486842731},"geometry":{"type":"Point","coordinates":[46.749002,24.664758]}},{"type":"Feature","properties":{"kind":"stop","name":null,"osm_id":11486842732},"geometry":{"type":"Point","coordinates":[46.741284,24.660901]}},{"type":"Feature","properties":{"kind":"stop","name":null,"osm_id":11486842734},"geometry":{"type":"Point","coordinates":[46.733828,24.662561]}},{"type":"Feature","properties":{"kind":"stop","name":null,"osm_id":11486842735},"geometry":{"type":"Point","coordinates":[46.730643,24.667117]}},{"type":"Feature","properties":{"kind":"stop","name":null,"osm_id":11486842736},"geometry":{"type":"Point","coordinates":[46.727741,24.673047]}},{"type":"Feature","properties":{"kind":"stop","name":null,"osm_id":11486842737},"geometry":{"type":"Point","coordinates":[46.725899,24.68125]}},{"type":"Feature","properties":{"kind":"stop","name":null,"osm_id":11486842738},"geometry":{"type":"Point","coordinates":[46.725152,24.684357]}},{"type":"Feature","properties":{"kind":"stop","name":null,"osm_id":11486968261},"geometry":{"type":"Point","coordinates":[46.723302,24.692449]}},{"type":"Feature","properties":{"kind":"stop","name":"King Abdulaziz 09","osm_id":11486968262},"geometry":{"type":"Point","coordinates":[46.716138,24.706968]}},{"type":"Feature","properties":{"kind":"stop","name":"King Abdulaziz 08","osm_id":11486968263},"geometry":{"type":"Point","coordinates":[46.709049,24.709194]}},{"type":"Feature","properties":{"kind":"stop","name":null,"osm_id":11486968264},"geometry":{"type":"Point","coordinates":[46.696815,24.715447]}},{"type":"Feature","properties":{"kind":"stop","name":null,"osm_id":11486968265},"geometry":{"type":"Point","coordinates":[46.688739,24.729663]}},{"type":"Feature","properties":{"kind":"stop","name":null,"osm_id":11486968268},"geometry":{"type":"Point","coordinates":[46.663534,24.7796]}},{"type":"Feature","properties":{"kind":"stop","name":null,"osm_id":11539633724},"geometry":{"type":"Point","coordinates":[46.755029,24.623667]}},{"type":"Feature","properties":{"kind":"stop","name":null,"osm_id":11545554532},"geometry":{"type":"Point","coordinates":[46.726187,24.60983]}},{"type":"Feature","properties":{"kind":"stop","name":null,"osm_id":11547050691},"geometry":{"type":"Point","coordinates":[46.703933,24.674785]}},{"type":"Feature","properties":{"kind":"stop","name":null,"osm_id":11553647069},"geometry":{"type":"Point","coordinates":[46.79492,24.781452]}},{"type":"Feature","properties":{"kind":"stop","name":null,"osm_id":11556034207},"geometry":{"type":"Point","coordinates":[46.647736,24.740987]}},{"type":"Feature","properties":{"kind":"stop","name":null,"osm_id":11558206433},"geometry":{"type":"Point","coordinates":[46.653379,24.724763]}},{"type":"Feature","properties":{"kind":"stop","name":"أنس بن مالك","osm_id":11559437376},"geometry":{"type":"Point","coordinates":[46.676431,24.83263]}},{"type":"Feature","properties":{"kind":"stop","name":"أنس بن مالك","osm_id":11559437377},"geometry":{"type":"Point","coordinates":[46.663428,24.827717]}},{"type":"Feature","properties":{"kind":"stop","name":"أنس بن مالك","osm_id":11559437378},"geometry":{"type":"Point","coordinates":[46.663958,24.827417]}},{"type":"Feature","properties":{"kind":"stop","name":"Al Batha 210","osm_id":11587492228},"geometry":{"type":"Point","coordinates":[46.735774,24.596688]}},{"type":"Feature","properties":{"kind":"stop","name":"Al Batha 208","osm_id":11587492233},"geometry":{"type":"Point","coordinates":[46.732883,24.6023]}},{"type":"Feature","properties":{"kind":"stop","name":"Al Batha 207","osm_id":11587492239},"geometry":{"type":"Point","coordinates":[46.729749,24.608696]}},{"type":"Feature","properties":{"kind":"stop","name":"Al Batha 206","osm_id":11587492245},"geometry":{"type":"Point","coordinates":[46.725828,24.616958]}},{"type":"Feature","properties":{"kind":"stop","name":"Al Batha 205","osm_id":11592905073},"geometry":{"type":"Point","coordinates":[46.720996,24.625542]}},{"type":"Feature","properties":{"kind":"stop","name":"Al Batha 204","osm_id":11592905081},"geometry":{"type":"Point","coordinates":[46.719216,24.627643]}},{"type":"Feature","properties":{"kind":"stop","name":null,"osm_id":11592905089},"geometry":{"type":"Point","coordinates":[46.716587,24.632161]}},{"type":"Feature","properties":{"kind":"stop","name":"Al Batha 202","osm_id":11592905098},"geometry":{"type":"Point","coordinates":[46.717213,24.634741]}},{"type":"Feature","properties":{"kind":"stop","name":"Al Batha 201","osm_id":11592905101},"geometry":{"type":"Point","coordinates":[46.716532,24.643857]}},{"type":"Feature","properties":{"kind":"stop","name":"Al-Muraba 610","osm_id":11592905106},"geometry":{"type":"Point","coordinates":[46.712902,24.652315]}},{"type":"Feature","properties":{"kind":"stop","name":"Al Washm 401","osm_id":11592905110},"geometry":{"type":"Point","coordinates":[46.69837,24.651391]}},{"type":"Feature","properties":{"kind":"stop","name":"An-Namuthajiyah 603","osm_id":11592905116},"geometry":{"type":"Point","coordinates":[46.689338,24.652147]}},{"type":"Feature","properties":{"kind":"stop","name":null,"osm_id":11592963582},"geometry":{"type":"Point","coordinates":[46.687292,24.656428]}},{"type":"Feature","properties":{"kind":"stop","name":"King Saus 301","osm_id":11592963588},"geometry":{"type":"Point","coordinates":[46.682637,24.659536]}},{"type":"Feature","properties":{"kind":"stop","name":"An-Nasiriyah 602","osm_id":11592963595},"geometry":{"type":"Point","coordinates":[46.676111,24.654928]}},{"type":"Feature","properties":{"kind":"stop","name":"An-Nasiriyah 601","osm_id":11592963600},"geometry":{"type":"Point","coordinates":[46.671849,24.651992]}},{"type":"Feature","properties":{"kind":"stop","name":"Ash-Sharafiya 604","osm_id":11594220724},"geometry":{"type":"Point","coordinates":[46.669547,24.652053]}},{"type":"Feature","properties":{"kind":"stop","name":"Ash-Sharafiyah 603","osm_id":11594220726},"geometry":{"type":"Point","coordinates":[46.670679,24.654694]}},{"type":"Feature","properties":{"kind":"stop","name":"Ash-Sharafiyah 602","osm_id":11594220728},"geometry":{"type":"Point","coordinates":[46.672748,24.6559]}},{"type":"Feature","properties":{"kind":"stop","name":null,"osm_id":11594220729},"geometry":{"type":"Point","coordinates":[46.67473,24.657596]}},{"type":"Feature","properties":{"kind":"stop","name":"Ash-Sharafiyah 601","osm_id":11594220730},"geometry":{"type":"Point","coordinates":[46.67476,24.657572]}},{"type":"Feature","properties":{"kind":"stop","name":"King Khalid 206","osm_id":11594220732},"geometry":{"type":"Point","coordinates":[46.67238,24.661147]}},{"type":"Feature","properties":{"kind":"stop","name":"King Khalid 205","osm_id":11594220734},"geometry":{"type":"Point","coordinates":[46.667693,24.664763]}},{"type":"Feature","properties":{"kind":"stop","name":"King Khalid 204","osm_id":11594220736},"geometry":{"type":"Point","coordinates":[46.66529,24.666726]}},{"type":"Feature","properties":{"kind":"stop","name":"King Khalid 203","osm_id":11594220738},"geometry":{"type":"Point","coordinates":[46.660879,24.670164]}},{"type":"Feature","properties":{"kind":"stop","name":"Umm All Hamam 208","osm_id":11594220740},"geometry":{"type":"Point","coordinates":[46.65516,24.678957]}},{"type":"Feature","properties":{"kind":"stop","name":"Umm Al Hamam 207","osm_id":11594220742},"geometry":{"type":"Point","coordinates":[46.653378,24.683094]}},{"type":"Feature","properties":{"kind":"stop","name":"Umm Al Hamam 206","osm_id":11594220744},"geometry":{"type":"Point","coordinates":[46.652144,24.685838]}},{"type":"Feature","properties":{"kind":"stop","name":"Umm Al Hamam 205","osm_id":11594220746},"geometry":{"type":"Point","coordinates":[46.650808,24.690142]}},{"type":"Feature","properties":{"kind":"stop","name":"Umm Al Hamam 204","osm_id":11594220748},"geometry":{"type":"Point","coordinates":[46.650338,24.693106]}},{"type":"Feature","properties":{"kind":"stop","name":"Umm Al Hamam 203","osm_id":11594220750},"geometry":{"type":"Point","coordinates":[46.649833,24.696071]}},{"type":"Feature","properties":{"kind":"stop","name":"Umm Al Hamam 202","osm_id":11594220752},"geometry":{"type":"Point","coordinates":[46.650768,24.698421]}},{"type":"Feature","properties":{"kind":"stop","name":"Al Urubah 404","osm_id":11594220758},"geometry":{"type":"Point","coordinates":[46.651462,24.703584]}},{"type":"Feature","properties":{"kind":"stop","name":"Al Urubah 403","osm_id":11594220764},"geometry":{"type":"Point","coordinates":[46.643498,24.700236]}},{"type":"Feature","properties":{"kind":"stop","name":"Al Urubah 401","osm_id":11594222570},"geometry":{"type":"Point","coordinates":[46.633209,24.695869]}},{"type":"Feature","properties":{"kind":"stop","name":"KSU 503","osm_id":11594222575},"geometry":{"type":"Point","coordinates":[46.620598,24.709755]}},{"type":"Feature","properties":{"kind":"stop","name":null,"osm_id":11595077620},"geometry":{"type":"Point","coordinates":[46.72666,24.754069]}},{"type":"Feature","properties":{"kind":"stop","name":null,"osm_id":11735364378},"geometry":{"type":"Point","coordinates":[46.639543,24.752554]}},{"type":"Feature","properties":{"kind":"stop","name":null,"osm_id":11735364379},"geometry":{"type":"Point","coordinates":[46.639721,24.751347]}},{"type":"Feature","properties":{"kind":"stop","name":null,"osm_id":11735364380},"geometry":{"type":"Point","coordinates":[46.642146,24.747465]}},{"type":"Feature","properties":{"kind":"stop","name":null,"osm_id":11735364381},"geometry":{"type":"Point","coordinates":[46.643059,24.744949]}},{"type":"Feature","properties":{"kind":"stop","name":null,"osm_id":11735364382},"geometry":{"type":"Point","coordinates":[46.644923,24.742206]}},{"type":"Feature","properties":{"kind":"stop","name":null,"osm_id":11735364383},"geometry":{"type":"Point","coordinates":[46.644797,24.741429]}},{"type":"Feature","properties":{"kind":"stop","name":null,"osm_id":11735364384},"geometry":{"type":"Point","coordinates":[46.646495,24.741032]}},{"type":"Feature","properties":{"kind":"stop","name":"Ad Dar 402 bus stop","osm_id":11827298970},"geometry":{"type":"Point","coordinates":[46.740899,24.647383]}},{"type":"Feature","properties":{"kind":"stop","name":null,"osm_id":11831512477},"geometry":{"type":"Point","coordinates":[46.570974,24.74857]}},{"type":"Feature","properties":{"kind":"stop","name":"Mohammed Al Barqi 402","osm_id":11880005625},"geometry":{"type":"Point","coordinates":[46.767166,24.822571]}},{"type":"Feature","properties":{"kind":"stop","name":"Rajia 101","osm_id":11880042099},"geometry":{"type":"Point","coordinates":[46.763891,24.820588]}},{"type":"Feature","properties":{"kind":"stop","name":"Mohammed Al Barqi 401","osm_id":11880099160},"geometry":{"type":"Point","coordinates":[46.763826,24.821179]}},{"type":"Feature","properties":{"kind":"stop","name":"محمد البرقي ٣٠٢","osm_id":11880124276},"geometry":{"type":"Point","coordinates":[46.767376,24.822342]}},{"type":"Feature","properties":{"kind":"stop","name":"انس بن مالك","osm_id":12029964642},"geometry":{"type":"Point","coordinates":[46.655543,24.823882]}},{"type":"Feature","properties":{"kind":"stop","name":null,"osm_id":12030697954},"geometry":{"type":"Point","coordinates":[46.673718,24.688379]}},{"type":"Feature","properties":{"kind":"stop","name":null,"osm_id":12041475314},"geometry":{"type":"Point","coordinates":[46.701786,24.67855]}},{"type":"Feature","properties":{"kind":"stop","name":null,"osm_id":12059022027},"geometry":{"type":"Point","coordinates":[46.691754,24.699929]}},{"type":"Feature","properties":{"kind":"stop","name":null,"osm_id":12059059816},"geometry":{"type":"Point","coordinates":[46.681864,24.704069]}},{"type":"Feature","properties":{"kind":"stop","name":null,"osm_id":12060869775},"geometry":{"type":"Point","coordinates":[46.686068,24.697556]}},{"type":"Feature","properties":{"kind":"stop","name":null,"osm_id":12060869777},"geometry":{"type":"Point","coordinates":[46.685333,24.697249]}},{"type":"Feature","properties":{"kind":"stop","name":"محطة العروبة 408","osm_id":12069690108},"geometry":{"type":"Point","coordinates":[46.670413,24.711513]}},{"type":"Feature","properties":{"kind":"stop","name":"محطة العروبة 407","osm_id":12069794729},"geometry":{"type":"Point","coordinates":[46.66715,24.710126]}},{"type":"Feature","properties":{"kind":"stop","name":"التخصصي 209","osm_id":12077793615},"geometry":{"type":"Point","coordinates":[46.659435,24.71712]}},{"type":"Feature","properties":{"kind":"stop","name":"التخصصي 210","osm_id":12079660196},"geometry":{"type":"Point","coordinates":[46.662973,24.710061]}},{"type":"Feature","properties":{"kind":"stop","name":"محطة وققوف حافلات الملك فهد 602","osm_id":12084995166},"geometry":{"type":"Point","coordinates":[46.666473,24.738306]}},{"type":"Feature","properties":{"kind":"stop","name":"محطة وقوف حافلات الملك فهد 604","osm_id":12085114139},"geometry":{"type":"Point","coordinates":[46.67097,24.740559]}},{"type":"Feature","properties":{"kind":"stop","name":"الملك فهد 603","osm_id":12091756872},"geometry":{"type":"Point","coordinates":[46.668473,24.739167]}},{"type":"Feature","properties":{"kind":"stop","name":null,"osm_id":12096939568},"geometry":{"type":"Point","coordinates":[46.667435,24.749796]}},{"type":"Feature","properties":{"kind":"stop","name":"محطة حطين ٥٠٢ | hittin’s station 502","osm_id":12106680031},"geometry":{"type":"Point","coordinates":[46.617394,24.77687]}},{"type":"Feature","properties":{"kind":"stop","name":"King Abdulaziz Road","osm_id":12404441370},"geometry":{"type":"Point","coordinates":[46.657612,24.79194]}},{"type":"Feature","properties":{"kind":"stop","name":"King Abdulaziz Road","osm_id":12404441372},"geometry":{"type":"Point","coordinates":[46.65584,24.795421]}},{"type":"Feature","properties":{"kind":"stop","name":"King Abdulaziz Road","osm_id":12404441373},"geometry":{"type":"Point","coordinates":[46.650662,24.805775]}},{"type":"Feature","properties":{"kind":"stop","name":"King Abdulaziz Road","osm_id":12404441374},"geometry":{"type":"Point","coordinates":[46.649051,24.809001]}},{"type":"Feature","properties":{"kind":"stop","name":"King Abdulaziz Road","osm_id":12404441375},"geometry":{"type":"Point","coordinates":[46.642912,24.821047]}},{"type":"Feature","properties":{"kind":"stop","name":"King Abdulaziz Road","osm_id":12404441376},"geometry":{"type":"Point","coordinates":[46.640103,24.826605]}},{"type":"Feature","properties":{"kind":"stop","name":"King Abdulaziz Road","osm_id":12404441377},"geometry":{"type":"Point","coordinates":[46.638488,24.829831]}},{"type":"Feature","properties":{"kind":"stop","name":"King Abdulaziz Road","osm_id":12404441378},"geometry":{"type":"Point","coordinates":[46.637201,24.831175]}},{"type":"Feature","properties":{"kind":"stop","name":"King Abdulaziz Road","osm_id":12404441379},"geometry":{"type":"Point","coordinates":[46.640532,24.824587]}},{"type":"Feature","properties":{"kind":"stop","name":"King Abdulaziz Road","osm_id":12404441380},"geometry":{"type":"Point","coordinates":[46.655014,24.795881]}},{"type":"Feature","properties":{"kind":"stop","name":"أنس بن مالك","osm_id":12407573102},"geometry":{"type":"Point","coordinates":[46.669837,24.830372]}},{"type":"Feature","properties":{"kind":"stop","name":"أنس بن مالك","osm_id":12407573103},"geometry":{"type":"Point","coordinates":[46.670842,24.830381]}},{"type":"Feature","properties":{"kind":"stop","name":"انس بن مالك","osm_id":12407573104},"geometry":{"type":"Point","coordinates":[46.654837,24.82414]}},{"type":"Feature","properties":{"kind":"stop","name":"انس بن مالك","osm_id":12407573105},"geometry":{"type":"Point","coordinates":[46.648119,24.821297]}},{"type":"Feature","properties":{"kind":"stop","name":"انس بن مالك","osm_id":12407573106},"geometry":{"type":"Point","coordinates":[46.648452,24.820864]}},{"type":"Feature","properties":{"kind":"stop","name":"العليا","osm_id":12407573107},"geometry":{"type":"Point","coordinates":[46.625158,24.812169]}},{"type":"Feature","properties":{"kind":"stop","name":"العليا","osm_id":12407573108},"geometry":{"type":"Point","coordinates":[46.61671,24.829607]}},{"type":"Feature","properties":{"kind":"stop","name":"Ath Thumamah","osm_id":12426106203},"geometry":{"type":"Point","coordinates":[46.650456,24.795757]}},{"type":"Feature","properties":{"kind":"stop","name":"Ath Thumamah","osm_id":12426106204},"geometry":{"type":"Point","coordinates":[46.650684,24.79539]}},{"type":"Feature","properties":{"kind":"stop","name":"Ath Thumamah","osm_id":12426106205},"geometry":{"type":"Point","coordinates":[46.648571,24.790694]}},{"type":"Feature","properties":{"kind":"stop","name":"Ath Thumamah","osm_id":12426106206},"geometry":{"type":"Point","coordinates":[46.647826,24.789848]}},{"type":"Feature","properties":{"kind":"stop","name":"Ath Thumamah","osm_id":12426106207},"geometry":{"type":"Point","coordinates":[46.645331,24.783442]}},{"type":"Feature","properties":{"kind":"stop","name":"Ath Thumamah","osm_id":12426106208},"geometry":{"type":"Point","coordinates":[46.645198,24.784045]}},{"type":"Feature","properties":{"kind":"stop","name":"Al-Muanisiyah","osm_id":12465576788},"geometry":{"type":"Point","coordinates":[46.750781,24.835545]}},{"type":"Feature","properties":{"kind":"stop","name":"Al-Muanisiyah","osm_id":12465576789},"geometry":{"type":"Point","coordinates":[46.751638,24.835578]}},{"type":"Feature","properties":{"kind":"stop","name":"Al-Muanisiyah","osm_id":12465576790},"geometry":{"type":"Point","coordinates":[46.747717,24.834241]}},{"type":"Feature","properties":{"kind":"stop","name":"Al-Muanisiyah","osm_id":12465576791},"geometry":{"type":"Point","coordinates":[46.747772,24.833959]}},{"type":"Feature","properties":{"kind":"stop","name":"Al Qana","osm_id":12465576794},"geometry":{"type":"Point","coordinates":[46.753527,24.835155]}},{"type":"Feature","properties":{"kind":"stop","name":"Al Qana","osm_id":12465576795},"geometry":{"type":"Point","coordinates":[46.753819,24.835264]}},{"type":"Feature","properties":{"kind":"stop","name":null,"osm_id":12486610248},"geometry":{"type":"Point","coordinates":[46.661209,24.787017]}},{"type":"Feature","properties":{"kind":"stop","name":null,"osm_id":12486610249},"geometry":{"type":"Point","coordinates":[46.661431,24.786565]}},{"type":"Feature","properties":{"kind":"stop","name":null,"osm_id":13338598197},"geometry":{"type":"Point","coordinates":[46.747774,24.596334]}},{"type":"Feature","properties":{"kind":"stop","name":null,"osm_id":13338598198},"geometry":{"type":"Point","coordinates":[46.74773,24.596312]}},{"type":"Feature","properties":{"kind":"stop","name":"المدينة المنورة 308","osm_id":13455592293},"geometry":{"type":"Point","coordinates":[46.636621,24.595959]}},{"type":"Feature","properties":{"kind":"stop","name":"المدينة المنورة 310","osm_id":13455611967},"geometry":{"type":"Point","coordinates":[46.641287,24.598857]}},{"type":"Feature","properties":{"kind":"stop","name":"ظهرة البديعة 603","osm_id":13455617629},"geometry":{"type":"Point","coordinates":[46.638795,24.588465]}},{"type":"Feature","properties":{"kind":"stop","name":"بديع الزمان الهمذاني 201","osm_id":13455632685},"geometry":{"type":"Point","coordinates":[46.643095,24.586533]}},{"type":"Feature","properties":{"kind":"stop","name":"المدينة المنورة 309","osm_id":13455633754},"geometry":{"type":"Point","coordinates":[46.639042,24.597442]}},{"type":"Feature","properties":{"kind":"stop","name":"المدينة المنورة 410","osm_id":13455644837},"geometry":{"type":"Point","coordinates":[46.641143,24.59911]}},{"type":"Feature","properties":{"kind":"stop","name":"ظهرة البديعة 601","osm_id":13455664795},"geometry":{"type":"Point","coordinates":[46.634764,24.594017]}},{"type":"Feature","properties":{"kind":"stop","name":"الزهرة 601","osm_id":13455667104},"geometry":{"type":"Point","coordinates":[46.640849,24.587061]}},{"type":"Feature","properties":{"kind":"stop","name":"ظهرة البديعة 602","osm_id":13455667844},"geometry":{"type":"Point","coordinates":[46.637309,24.590453]}},{"type":"Feature","properties":{"kind":"stop","name":"بديع الزمان الهمذاني 203","osm_id":13455692936},"geometry":{"type":"Point","coordinates":[46.646993,24.581226]}},{"type":"Feature","properties":{"kind":"stop","name":"بديع الزمان الهمذاني 202","osm_id":13455773155},"geometry":{"type":"Point","coordinates":[46.645162,24.583696]}},{"type":"Feature","properties":{"kind":"stop","name":"بديع الزمان الهمذاني 204","osm_id":13455786804},"geometry":{"type":"Point","coordinates":[46.648464,24.579227]}},{"type":"Feature","properties":{"kind":"stop","name":"الزهرة 504","osm_id":13455828117},"geometry":{"type":"Point","coordinates":[46.645557,24.573381]}},{"type":"Feature","properties":{"kind":"stop","name":"بديع الزمان الهمذاني 205","osm_id":13455833272},"geometry":{"type":"Point","coordinates":[46.649773,24.577417]}},{"type":"Feature","properties":{"kind":"stop","name":"الزهرة 505","osm_id":13455834916},"geometry":{"type":"Point","coordinates":[46.647884,24.574803]}},{"type":"Feature","properties":{"kind":"stop","name":"الزهرة 503","osm_id":13455845185},"geometry":{"type":"Point","coordinates":[46.643541,24.572139]}},{"type":"Feature","properties":{"kind":"stop","name":"الدائري الغربي 107","osm_id":13455848706},"geometry":{"type":"Point","coordinates":[46.63734,24.560031]}},{"type":"Feature","properties":{"kind":"stop","name":"الزهرة 602","osm_id":13462190027},"geometry":{"type":"Point","coordinates":[46.639537,24.570032]}},{"type":"Feature","properties":{"kind":"stop","name":"الزهرة 603","osm_id":13462190244},"geometry":{"type":"Point","coordinates":[46.643473,24.572474]}},{"type":"Feature","properties":{"kind":"stop","name":"الزهرة 605","osm_id":13462197373},"geometry":{"type":"Point","coordinates":[46.647665,24.57505]}},{"type":"Feature","properties":{"kind":"stop","name":"الزهرة 604","osm_id":13462204822},"geometry":{"type":"Point","coordinates":[46.645547,24.573739]}},{"type":"Feature","properties":{"kind":"stop","name":"بديع الزمان الهمذاني 103","osm_id":13462207922},"geometry":{"type":"Point","coordinates":[46.646749,24.58108]}},{"type":"Feature","properties":{"kind":"stop","name":"بديع الزمان الهمذاني 105","osm_id":13462210607},"geometry":{"type":"Point","coordinates":[46.649729,24.57701]}},{"type":"Feature","properties":{"kind":"stop","name":"بديع الزمان الهمذاني 102","osm_id":13462211184},"geometry":{"type":"Point","coordinates":[46.644804,24.583703]}},{"type":"Feature","properties":{"kind":"stop","name":"بديع الزمان الهمذاني 104","osm_id":13462216308},"geometry":{"type":"Point","coordinates":[46.647996,24.579333]}},{"type":"Feature","properties":{"kind":"stop","name":"بديع الزمان الهمذاني101","osm_id":13474455112},"geometry":{"type":"Point","coordinates":[46.643093,24.586069]}},{"type":"Feature","properties":{"kind":"stop","name":"ظهرة البديعة 501","osm_id":13474456083},"geometry":{"type":"Point","coordinates":[46.634737,24.593451]}},{"type":"Feature","properties":{"kind":"stop","name":"ظهرة البديعة 502","osm_id":13474461196},"geometry":{"type":"Point","coordinates":[46.63639,24.591182]}},{"type":"Feature","properties":{"kind":"stop","name":"ظهرة البديعة 503","osm_id":13474462767},"geometry":{"type":"Point","coordinates":[46.638754,24.587984]}},{"type":"Feature","properties":{"kind":"stop","name":"الزهرة 501","osm_id":13474464328},"geometry":{"type":"Point","coordinates":[46.641056,24.586823]}},{"type":"Feature","properties":{"kind":"stop","name":"المدينة المنورة 408","osm_id":13474474205},"geometry":{"type":"Point","coordinates":[46.635639,24.595731]}},{"type":"Feature","properties":{"kind":"stop","name":"المدينة المنورة 409","osm_id":13474479188},"geometry":{"type":"Point","coordinates":[46.638894,24.597751]}},{"type":"Feature","properties":{"kind":"stop","name":"المدينة المنورة 411","osm_id":13575423646},"geometry":{"type":"Point","coordinates":[46.644888,24.601386]}},{"type":"Feature","properties":{"kind":"stop","name":"المدينة المنورة 412","osm_id":13575423647},"geometry":{"type":"Point","coordinates":[46.649272,24.604052]}},{"type":"Feature","properties":{"kind":"stop","name":"المدينة المنورة312","osm_id":13575423648},"geometry":{"type":"Point","coordinates":[46.650249,24.604323]}},{"type":"Feature","properties":{"kind":"stop","name":"المدينة المنورة 313","osm_id":13575423649},"geometry":{"type":"Point","coordinates":[46.653058,24.606054]}},{"type":"Feature","properties":{"kind":"stop","name":"المدينة المنورة 413","osm_id":13575423650},"geometry":{"type":"Point","coordinates":[46.654845,24.607474]}},{"type":"Feature","properties":{"kind":"stop","name":"المدينة المنورة 314","osm_id":13575423651},"geometry":{"type":"Point","coordinates":[46.66002,24.610357]}},{"type":"Feature","properties":{"kind":"stop","name":"المدينة المنورة 414","osm_id":13575423652},"geometry":{"type":"Point","coordinates":[46.659809,24.610506]}},{"type":"Feature","properties":{"kind":"stop","name":"البديعة 605","osm_id":13575423653},"geometry":{"type":"Point","coordinates":[46.675303,24.614685]}},{"type":"Feature","properties":{"kind":"stop","name":"البديعة 505","osm_id":13575423654},"geometry":{"type":"Point","coordinates":[46.675011,24.614732]}},{"type":"Feature","properties":{"kind":"stop","name":"البديعة 606","osm_id":13575423655},"geometry":{"type":"Point","coordinates":[46.677395,24.619071]}},{"type":"Feature","properties":{"kind":"stop","name":"البديعة 506","osm_id":13575423656},"geometry":{"type":"Point","coordinates":[46.677843,24.619036]}},{"type":"Feature","properties":{"kind":"stop","name":"البديعة 507","osm_id":13575425632},"geometry":{"type":"Point","coordinates":[46.681099,24.620929]}},{"type":"Feature","properties":{"kind":"stop","name":"البديعة 607","osm_id":13575425633},"geometry":{"type":"Point","coordinates":[46.681279,24.621292]}},{"type":"Feature","properties":{"kind":"stop","name":"البديعة 508","osm_id":13575425634},"geometry":{"type":"Point","coordinates":[46.682915,24.621966]}},{"type":"Feature","properties":{"kind":"stop","name":"البديعة 608","osm_id":13575425635},"geometry":{"type":"Point","coordinates":[46.6837,24.622689]}},{"type":"Feature","properties":{"kind":"stop","name":"البديعة 509","osm_id":13575425636},"geometry":{"type":"Point","coordinates":[46.685822,24.623632]}},{"type":"Feature","properties":{"kind":"stop","name":"البديعة 609","osm_id":13575425637},"geometry":{"type":"Point","coordinates":[46.68589,24.623993]}},{"type":"Feature","properties":{"kind":"stop","name":"البديعة 603","osm_id":13575425638},"geometry":{"type":"Point","coordinates":[46.689753,24.625967]}},{"type":"Feature","properties":{"kind":"stop","name":"البديعة 503","osm_id":13575425639},"geometry":{"type":"Point","coordinates":[46.690488,24.625922]}},{"type":"Feature","properties":{"kind":"stop","name":"الشميسي 503","osm_id":13575425640},"geometry":{"type":"Point","coordinates":[46.693213,24.627212]}},{"type":"Feature","properties":{"kind":"stop","name":"الشميسي504","osm_id":13575425641},"geometry":{"type":"Point","coordinates":[46.698616,24.627982]}},{"type":"Feature","properties":{"kind":"stop","name":"الشميسي 601","osm_id":13575434998},"geometry":{"type":"Point","coordinates":[46.697574,24.630384]}},{"type":"Feature","properties":{"kind":"stop","name":"الشميسي 602","osm_id":13575434999},"geometry":{"type":"Point","coordinates":[46.703041,24.630909]}},{"type":"Feature","properties":{"kind":"stop","name":"البطحاء 102","osm_id":13575435000},"geometry":{"type":"Point","coordinates":[46.716516,24.634084]}},{"type":"Feature","properties":{"kind":"stop","name":"الشميسي505","osm_id":13575453709},"geometry":{"type":"Point","coordinates":[46.703483,24.628675]}},{"type":"Feature","properties":{"kind":"stop","name":"الديره505","osm_id":13575453710},"geometry":{"type":"Point","coordinates":[46.710463,24.631434]}},{"type":"Feature","properties":{"kind":"stop","name":"الملك فيصل 209","osm_id":13575453711},"geometry":{"type":"Point","coordinates":[46.714946,24.637562]}},{"type":"Feature","properties":{"kind":"stop","name":"البطحاء101","osm_id":13575453712},"geometry":{"type":"Point","coordinates":[46.716969,24.642194]}},{"type":"Feature","properties":{"kind":"stop","name":"الملك فيصل 208","osm_id":13575453713},"geometry":{"type":"Point","coordinates":[46.714834,24.640799]}},{"type":"Feature","properties":{"kind":"stop","name":"طنجة 102","osm_id":13672707681},"geometry":{"type":"Point","coordinates":[46.659664,24.598247]}},{"type":"Feature","properties":{"kind":"stop","name":"طنجة 201","osm_id":13672819900},"geometry":{"type":"Point","coordinates":[46.657454,24.601773]}},{"type":"Feature","properties":{"kind":"stop","name":"طنجة 101","osm_id":13672823157},"geometry":{"type":"Point","coordinates":[46.656997,24.601889]}},{"type":"Feature","properties":{"kind":"stop","name":"سعد بن عتيق 401","osm_id":13672827333},"geometry":{"type":"Point","coordinates":[46.662129,24.596771]}},{"type":"Feature","properties":{"kind":"stop","name":"سعد بن عتيق 301","osm_id":13672831290},"geometry":{"type":"Point","coordinates":[46.662566,24.596699]}},{"type":"Feature","properties":{"kind":"stop","name":"طنجة 202","osm_id":13672832650},"geometry":{"type":"Point","coordinates":[46.660053,24.598205]}},{"type":"Feature","properties":{"kind":"stop","name":"عبدالملك بن هشام 101","osm_id":13672900786},"geometry":{"type":"Point","coordinates":[46.666522,24.598634]}},{"type":"Feature","properties":{"kind":"stop","name":"سعد بن عتيق 402","osm_id":13672904355},"geometry":{"type":"Point","coordinates":[46.664905,24.598476]}},{"type":"Feature","properties":{"kind":"stop","name":"عبدالملك بن هشام 102","osm_id":13672919894},"geometry":{"type":"Point","coordinates":[46.667409,24.597439]}},{"type":"Feature","properties":{"kind":"stop","name":"عبدالملك بن هشام 203","osm_id":13672920576},"geometry":{"type":"Point","coordinates":[46.669201,24.595414]}},{"type":"Feature","properties":{"kind":"stop","name":"عبدالملك بن هشام 103","osm_id":13672920783},"geometry":{"type":"Point","coordinates":[46.669193,24.594984]}},{"type":"Feature","properties":{"kind":"stop","name":"عبدالملك بن هشام 202","osm_id":13672931330},"geometry":{"type":"Point","coordinates":[46.667354,24.597959]}},{"type":"Feature","properties":{"kind":"stop","name":"عبدالملك بن هشام 204","osm_id":13674622200},"geometry":{"type":"Point","coordinates":[46.671731,24.592151]}},{"type":"Feature","properties":{"kind":"stop","name":"عبدالملك بن هشام 104","osm_id":13674676229},"geometry":{"type":"Point","coordinates":[46.67196,24.591247]}},{"type":"Feature","properties":{"kind":"stop","name":"السويدي العام 302","osm_id":13674694052},"geometry":{"type":"Point","coordinates":[46.666925,24.586605]}},{"type":"Feature","properties":{"kind":"stop","name":"السويدي العام 301","osm_id":13674699152},"geometry":{"type":"Point","coordinates":[46.662345,24.583893]}},{"type":"Feature","properties":{"kind":"stop","name":"السويدي العام 402","osm_id":13674705527},"geometry":{"type":"Point","coordinates":[46.666663,24.586827]}},{"type":"Feature","properties":{"kind":"stop","name":"السويدي العام 401","osm_id":13674730536},"geometry":{"type":"Point","coordinates":[46.662041,24.584034]}},{"type":"Feature","properties":{"kind":"stop","name":"عائشة بنت أبي بكر 208","osm_id":13677434479},"geometry":{"type":"Point","coordinates":[46.649416,24.593246]}},{"type":"Feature","properties":{"kind":"stop","name":"عائشة بنت أبي بكر 211","osm_id":13677444442},"geometry":{"type":"Point","coordinates":[46.654504,24.586395]}},{"type":"Feature","properties":{"kind":"stop","name":"عائشة بنت أبي بكر 206","osm_id":13677451090},"geometry":{"type":"Point","coordinates":[46.646207,24.59763]}},{"type":"Feature","properties":{"kind":"stop","name":"عائشة بنت أبي بكر 209","osm_id":13677486809},"geometry":{"type":"Point","coordinates":[46.651049,24.591005]}},{"type":"Feature","properties":{"kind":"stop","name":"عائشة بنت أبي بكر  207","osm_id":13677495898},"geometry":{"type":"Point","coordinates":[46.647909,24.595326]}},{"type":"Feature","properties":{"kind":"stop","name":"معاوية بن أبي سفيان 302","osm_id":13677531127},"geometry":{"type":"Point","coordinates":[46.650261,24.60107]}},{"type":"Feature","properties":{"kind":"stop","name":"معاوية بن أبي سفيان 303","osm_id":13677559851},"geometry":{"type":"Point","coordinates":[46.653078,24.602767]}},{"type":"Feature","properties":{"kind":"stop","name":"معاوية بن أبي سفيان 301","osm_id":13677567107},"geometry":{"type":"Point","coordinates":[46.647906,24.599615]}},{"type":"Feature","properties":{"kind":"stop","name":"معاوية بن أبي سفيان 403","osm_id":13677625723},"geometry":{"type":"Point","coordinates":[46.653645,24.603481]}},{"type":"Feature","properties":{"kind":"stop","name":"معاوية بن أبي سفيان 401","osm_id":13677631205},"geometry":{"type":"Point","coordinates":[46.647816,24.599895]}},{"type":"Feature","properties":{"kind":"stop","name":"معاوية بن أبي سفيان 402","osm_id":13677638084},"geometry":{"type":"Point","coordinates":[46.650757,24.601693]}},{"type":"Feature","properties":{"kind":"stop","name":null,"osm_id":13898951049},"geometry":{"type":"Point","coordinates":[46.60087,24.761057]}},{"type":"Feature","properties":{"kind":"stop","name":null,"osm_id":13928645445},"geometry":{"type":"Point","coordinates":[46.587664,24.755443]}},{"type":"Feature","properties":{"kind":"stop","name":null,"osm_id":13928788208},"geometry":{"type":"Point","coordinates":[46.599785,24.761171]}},{"type":"Feature","properties":{"kind":"stop","name":null,"osm_id":13928788225},"geometry":{"type":"Point","coordinates":[46.587464,24.755923]}},{"type":"Feature","properties":{"kind":"stop","name":"السويدي العام 303","osm_id":13959328387},"geometry":{"type":"Point","coordinates":[46.676774,24.592802]}},{"type":"Feature","properties":{"kind":"stop","name":"السويدي العام 404","osm_id":13959338090},"geometry":{"type":"Point","coordinates":[46.678236,24.593976]}},{"type":"Feature","properties":{"kind":"stop","name":"السويدي العام 407","osm_id":13959338099},"geometry":{"type":"Point","coordinates":[46.691048,24.59883]}},{"type":"Feature","properties":{"kind":"stop","name":"السويدي العام 304","osm_id":13959342487},"geometry":{"type":"Point","coordinates":[46.679918,24.594727]}},{"type":"Feature","properties":{"kind":"stop","name":"السويدي العام 403","osm_id":13959354652},"geometry":{"type":"Point","coordinates":[46.676242,24.592762]}},{"type":"Feature","properties":{"kind":"stop","name":"السويدي العام 307","osm_id":13959378878},"geometry":{"type":"Point","coordinates":[46.692054,24.598714]}},{"type":"Feature","properties":{"kind":"stop","name":"السويدي العام 405","osm_id":13959405115},"geometry":{"type":"Point","coordinates":[46.682661,24.596682]}},{"type":"Feature","properties":{"kind":"stop","name":"السويدي العام 305","osm_id":13959408503},"geometry":{"type":"Point","coordinates":[46.682564,24.596347]}},{"type":"Feature","properties":{"kind":"stop","name":"السويدي العام 406","osm_id":13959420211},"geometry":{"type":"Point","coordinates":[46.68524,24.598108]}},{"type":"Feature","properties":{"kind":"stop","name":"سلطانة 501","osm_id":13959423980},"geometry":{"type":"Point","coordinates":[46.685525,24.608297]}},{"type":"Feature","properties":{"kind":"stop","name":"السويدي العام 306","osm_id":13959425001},"geometry":{"type":"Point","coordinates":[46.68537,24.597896]}},{"type":"Feature","properties":{"kind":"stop","name":"سلطانة 206","osm_id":13959437014},"geometry":{"type":"Point","coordinates":[46.693459,24.603481]}},{"type":"Feature","properties":{"kind":"stop","name":"سلطانة 106","osm_id":13959438383},"geometry":{"type":"Point","coordinates":[46.69377,24.60264]}},{"type":"Feature","properties":{"kind":"stop","name":"الضبطية 102","osm_id":13959438845},"geometry":{"type":"Point","coordinates":[46.686909,24.605831]}},{"type":"Feature","properties":{"kind":"stop","name":"سلطانة 105","osm_id":13959443597},"geometry":{"type":"Point","coordinates":[46.690648,24.606974]}},{"type":"Feature","properties":{"kind":"stop","name":"سلطانة 205","osm_id":13959446049},"geometry":{"type":"Point","coordinates":[46.690275,24.607767]}},{"type":"Feature","properties":{"kind":"stop","name":"سلطانة 104","osm_id":13959463284},"geometry":{"type":"Point","coordinates":[46.688269,24.609003]}},{"type":"Feature","properties":{"kind":"stop","name":"آل عبدالقادر 401","osm_id":13959468754},"geometry":{"type":"Point","coordinates":[46.685742,24.600595]}},{"type":"Feature","properties":{"kind":"stop","name":"سلطانة 204","osm_id":13959470316},"geometry":{"type":"Point","coordinates":[46.687341,24.609394]}},{"type":"Feature","properties":{"kind":"stop","name":"سلطانة 602","osm_id":13959475034},"geometry":{"type":"Point","coordinates":[46.686605,24.605994]}},{"type":"Feature","properties":{"kind":"stop","name":"الضبطية 101","osm_id":13959492309},"geometry":{"type":"Point","coordinates":[46.686387,24.607979]}},{"type":"Feature","properties":{"kind":"stop","name":"سلطانة 503","osm_id":13959497399},"geometry":{"type":"Point","coordinates":[46.688066,24.602494]}},{"type":"Feature","properties":{"kind":"stop","name":"دار الصفاء 302","osm_id":13959509425},"geometry":{"type":"Point","coordinates":[46.686826,24.604504]}},{"type":"Feature","properties":{"kind":"stop","name":"دار الصفاء 301","osm_id":13959523605},"geometry":{"type":"Point","coordinates":[46.68439,24.603072]}},{"type":"Feature","properties":{"kind":"stop","name":"الأفلاج 401","osm_id":13959535951},"geometry":{"type":"Point","coordinates":[46.692264,24.591305]}},{"type":"Feature","properties":{"kind":"stop","name":"البقاع 202","osm_id":13959569083},"geometry":{"type":"Point","coordinates":[46.699202,24.591156]}},{"type":"Feature","properties":{"kind":"stop","name":"ابن عساكر 303","osm_id":13959572345},"geometry":{"type":"Point","coordinates":[46.698792,24.589661]}},{"type":"Feature","properties":{"kind":"stop","name":"سلطانة 107","osm_id":13959587858},"geometry":{"type":"Point","coordinates":[46.696771,24.597044]}},{"type":"Feature","properties":{"kind":"stop","name":"سلطانة 207","osm_id":13959588725},"geometry":{"type":"Point","coordinates":[46.69693,24.597167]}},{"type":"Feature","properties":{"kind":"stop","name":"ساري 101","osm_id":13959589114},"geometry":{"type":"Point","coordinates":[46.691281,24.588898]}},{"type":"Feature","properties":{"kind":"stop","name":"ابن عساكر 301","osm_id":13959591428},"geometry":{"type":"Point","coordinates":[46.693585,24.587684]}},{"type":"Feature","properties":{"kind":"stop","name":"تميم الداري 401","osm_id":13959598459},"geometry":{"type":"Point","coordinates":[46.681396,24.585737]}},{"type":"Feature","properties":{"kind":"stop","name":"آل عباد 302","osm_id":13959603036},"geometry":{"type":"Point","coordinates":[46.68224,24.587474]}},{"type":"Feature","properties":{"kind":"stop","name":"المعمورة 201","osm_id":13959609564},"geometry":{"type":"Point","coordinates":[46.695265,24.593387]}},{"type":"Feature","properties":{"kind":"stop","name":"ابن عساكر 302","osm_id":13959612884},"geometry":{"type":"Point","coordinates":[46.695783,24.58868]}},{"type":"Feature","properties":{"kind":"stop","name":"البقاع 201","osm_id":13959628546},"geometry":{"type":"Point","coordinates":[46.697909,24.592433]}},{"type":"Feature","properties":{"kind":"stop","name":"آل عباد 301","osm_id":13959628888},"geometry":{"type":"Point","coordinates":[46.679654,24.58588]}},{"type":"Feature","properties":{"kind":"stop","name":"شبرا 501","osm_id":13959629752},"geometry":{"type":"Point","coordinates":[46.684107,24.58729]}},{"type":"Feature","properties":{"kind":"stop","name":"عبدالملك بن هشام 105","osm_id":13959639284},"geometry":{"type":"Point","coordinates":[46.676755,24.584768]}},{"type":"Feature","properties":{"kind":"stop","name":"عبدالملك بن هشام 205","osm_id":13959683323},"geometry":{"type":"Point","coordinates":[46.676912,24.584813]}},{"type":"Feature","properties":{"kind":"stop","name":"سدير 306","osm_id":13959683889},"geometry":{"type":"Point","coordinates":[46.671236,24.582964]}},{"type":"Feature","properties":{"kind":"stop","name":"سدير 408","osm_id":13959690518},"geometry":{"type":"Point","coordinates":[46.674911,24.585457]}},{"type":"Feature","properties":{"kind":"stop","name":"آل عباد 401","osm_id":13959691142},"geometry":{"type":"Point","coordinates":[46.679248,24.585828]}},{"type":"Feature","properties":{"kind":"stop","name":"سدير 407","osm_id":13959691173},"geometry":{"type":"Point","coordinates":[46.673158,24.58436]}},{"type":"Feature","properties":{"kind":"stop","name":"سدير 307","osm_id":13959694589},"geometry":{"type":"Point","coordinates":[46.673302,24.58425]}},{"type":"Feature","properties":{"kind":"stop","name":"سدير 308","osm_id":13959724886},"geometry":{"type":"Point","coordinates":[46.675303,24.585486]}},{"type":"Feature","properties":{"kind":"stop","name":"سدير 406","osm_id":13959755862},"geometry":{"type":"Point","coordinates":[46.671799,24.583508]}},{"type":"Feature","properties":{"kind":"stop","name":"كعب بن زهير 201","osm_id":13959775455},"geometry":{"type":"Point","coordinates":[46.667002,24.584858]}},{"type":"Feature","properties":{"kind":"stop","name":"كعب بن زهير 101","osm_id":13959783116},"geometry":{"type":"Point","coordinates":[46.667173,24.58408]}},{"type":"Feature","properties":{"kind":"stop","name":"كعب بن زهير","osm_id":13959785260},"geometry":{"type":"Point","coordinates":[46.668735,24.58251]}},{"type":"Feature","properties":{"kind":"stop","name":"كعب بن زهير 102","osm_id":13959787141},"geometry":{"type":"Point","coordinates":[46.668635,24.582082]}},{"type":"Feature","properties":{"kind":"stop","name":"عائشة بنت أبي بكر 106","osm_id":13969530674},"geometry":{"type":"Point","coordinates":[46.646135,24.597068]}},{"type":"Feature","properties":{"kind":"stop","name":"عائشة بنت أبي بكر 110","osm_id":13969546096},"geometry":{"type":"Point","coordinates":[46.652727,24.58811]}},{"type":"Feature","properties":{"kind":"stop","name":"عائشة بنت أبي بكر 108","osm_id":13969565570},"geometry":{"type":"Point","coordinates":[46.648864,24.593346]}},{"type":"Feature","properties":{"kind":"stop","name":"عائشة بنت أبي بكر 114","osm_id":13969568390},"geometry":{"type":"Point","coordinates":[46.658104,24.580904]}},{"type":"Feature","properties":{"kind":"stop","name":"عائشة بنت أبي بكر 115","osm_id":13969568399},"geometry":{"type":"Point","coordinates":[46.662295,24.575221]}},{"type":"Feature","properties":{"kind":"stop","name":"عائشة بنت أبي بكر 105","osm_id":13969577269},"geometry":{"type":"Point","coordinates":[46.644309,24.599605]}},{"type":"Feature","properties":{"kind":"stop","name":"عائشة بنت أبي بكر 205","osm_id":13969579900},"geometry":{"type":"Point","coordinates":[46.644851,24.599415]}},{"type":"Feature","properties":{"kind":"stop","name":"عائشة بنت أبي بكر 112","osm_id":13969584032},"geometry":{"type":"Point","coordinates":[46.656081,24.583613]}},{"type":"Feature","properties":{"kind":"stop","name":"عائشة بنت أبي بكر 107","osm_id":13969590181},"geometry":{"type":"Point","coordinates":[46.647733,24.594877]}},{"type":"Feature","properties":{"kind":"stop","name":"سدير 402","osm_id":13969591465},"geometry":{"type":"Point","coordinates":[46.647516,24.568731]}},{"type":"Feature","properties":{"kind":"stop","name":"عائشة بنت أبي بكر 215","osm_id":13969591638},"geometry":{"type":"Point","coordinates":[46.662683,24.575236]}},{"type":"Feature","properties":{"kind":"stop","name":"عائشة بنت أبي بكر 109","osm_id":13969591799},"geometry":{"type":"Point","coordinates":[46.650626,24.590974]}},{"type":"Feature","properties":{"kind":"stop","name":"سليط بن قيس 401","osm_id":13969596367},"geometry":{"type":"Point","coordinates":[46.668817,24.568263]}},{"type":"Feature","properties":{"kind":"stop","name":"عائشة بنت أبي بكر 111","osm_id":13969598253},"geometry":{"type":"Point","coordinates":[46.653885,24.586549]}},{"type":"Feature","properties":{"kind":"stop","name":"عائشة بنت أبي بكر 113","osm_id":13969604405},"geometry":{"type":"Point","coordinates":[46.657153,24.582088]}},{"type":"Feature","properties":{"kind":"stop","name":"عائشة بنت أبي بكر 214","osm_id":13969606083},"geometry":{"type":"Point","coordinates":[46.658596,24.580763]}},{"type":"Feature","properties":{"kind":"stop","name":"سدير 303","osm_id":13969616799},"geometry":{"type":"Point","coordinates":[46.650364,24.570086]}},{"type":"Feature","properties":{"kind":"stop","name":"عائشة بنت أبي بكر 116","osm_id":13969619691},"geometry":{"type":"Point","coordinates":[46.663596,24.57337]}},{"type":"Feature","properties":{"kind":"stop","name":"عائشة بنت أبي بكر 216","osm_id":13969621161},"geometry":{"type":"Point","coordinates":[46.664004,24.57349]}},{"type":"Feature","properties":{"kind":"stop","name":"عائشة بنت أبي بكر 117","osm_id":13969624963},"geometry":{"type":"Point","coordinates":[46.665246,24.571236]}},{"type":"Feature","properties":{"kind":"stop","name":"سدير 403","osm_id":13969627192},"geometry":{"type":"Point","coordinates":[46.651044,24.570762]}},{"type":"Feature","properties":{"kind":"stop","name":"سدير 404","osm_id":13969631318},"geometry":{"type":"Point","coordinates":[46.655546,24.573489]}},{"type":"Feature","properties":{"kind":"stop","name":"سدير 405","osm_id":13969643617},"geometry":{"type":"Point","coordinates":[46.659248,24.575751]}},{"type":"Feature","properties":{"kind":"stop","name":"سدير 305","osm_id":13969648505},"geometry":{"type":"Point","coordinates":[46.659223,24.575554]}},{"type":"Feature","properties":{"kind":"stop","name":"سدير 304","osm_id":13969652210},"geometry":{"type":"Point","coordinates":[46.655687,24.573352]}},{"type":"Feature","properties":{"kind":"stop","name":"سدير 302","osm_id":13969656504},"geometry":{"type":"Point","coordinates":[46.647354,24.568313]}},{"type":"Feature","properties":{"kind":"stop","name":"Ad-Diriyah 504","osm_id":13981755315},"geometry":{"type":"Point","coordinates":[46.571508,24.748596]}},{"type":"Feature","properties":{"kind":"stop","name":"Al-Nakheel 602","osm_id":14003351322},"geometry":{"type":"Point","coordinates":[46.612188,24.733967]}},{"type":"Feature","properties":{"kind":"stop","name":"سدير 301","osm_id":14003900298},"geometry":{"type":"Point","coordinates":[46.643661,24.566037]}},{"type":"Feature","properties":{"kind":"stop","name":"السويدي الغربي 607","osm_id":14003925284},"geometry":{"type":"Point","coordinates":[46.633498,24.565352]}},{"type":"Feature","properties":{"kind":"stop","name":"سدير 401","osm_id":14003943002},"geometry":{"type":"Point","coordinates":[46.643574,24.566289]}},{"type":"Feature","properties":{"kind":"stop","name":"السويدي الغربي 609","osm_id":14003954727},"geometry":{"type":"Point","coordinates":[46.637554,24.567825]}},{"type":"Feature","properties":{"kind":"stop","name":"السويدي الغربي 608","osm_id":14003955930},"geometry":{"type":"Point","coordinates":[46.635444,24.566553]}},{"type":"Feature","properties":{"kind":"stop","name":"محطة حمزة بن عبد المطلب 06A","osm_id":14003960156},"geometry":{"type":"Point","coordinates":[46.643395,24.5625]}},{"type":"Feature","properties":{"kind":"stop","name":"محطة حمزة بن عبد المطلب 06B","osm_id":14003960157},"geometry":{"type":"Point","coordinates":[46.643457,24.562539]}},{"type":"Feature","properties":{"kind":"stop","name":"محطة حمزة بن عبد المطلب 04B","osm_id":14004010253},"geometry":{"type":"Point","coordinates":[46.633217,24.576472]}},{"type":"Feature","properties":{"kind":"stop","name":"محطة حمزة بن عبد المطلب 04A","osm_id":14004010254},"geometry":{"type":"Point","coordinates":[46.633152,24.576449]}},{"type":"Feature","properties":{"kind":"stop","name":null,"osm_id":14023849731},"geometry":{"type":"Point","coordinates":[46.616873,24.741329]}},{"type":"Feature","properties":{"kind":"stop","name":null,"osm_id":14023849732},"geometry":{"type":"Point","coordinates":[46.617797,24.739692]}},{"type":"Feature","properties":{"kind":"stop","name":null,"osm_id":14023981193},"geometry":{"type":"Point","coordinates":[46.544346,24.618898]}},{"type":"Feature","properties":{"kind":"stop","name":null,"osm_id":14023981199},"geometry":{"type":"Point","coordinates":[46.547328,24.620748]}},{"type":"Feature","properties":{"kind":"stop","name":"Saeed Bin Amer 302","osm_id":14031518799},"geometry":{"type":"Point","coordinates":[46.607749,24.738531]}},{"type":"Feature","properties":{"kind":"stop","name":"Saeed Bin Amer 402","osm_id":14031518800},"geometry":{"type":"Point","coordinates":[46.607977,24.738887]}},{"type":"Feature","properties":{"kind":"stop","name":"Saeed Bin Amer 301","osm_id":14031542004},"geometry":{"type":"Point","coordinates":[46.604109,24.736811]}},{"type":"Feature","properties":{"kind":"stop","name":"Saeed Bin Amer 401","osm_id":14031542011},"geometry":{"type":"Point","coordinates":[46.603356,24.736705]}},{"type":"Feature","properties":{"kind":"stop","name":null,"osm_id":14058838300},"geometry":{"type":"Point","coordinates":[46.700431,24.862582]}},{"type":"Feature","properties":{"kind":"stop","name":null,"osm_id":14058843901},"geometry":{"type":"Point","coordinates":[46.703747,24.860214]}},{"type":"Feature","properties":{"kind":"stop","name":null,"osm_id":14058843902},"geometry":{"type":"Point","coordinates":[46.704014,24.860526]}},{"type":"Feature","properties":{"kind":"stop","name":"Jeddah Road 414","osm_id":14061340378},"geometry":{"type":"Point","coordinates":[46.622131,24.667668]}},{"type":"Feature","properties":{"kind":"stop","name":"Jeddah Road 314","osm_id":14061340379},"geometry":{"type":"Point","coordinates":[46.622277,24.666754]}},{"type":"Feature","properties":{"kind":"stop","name":null,"osm_id":14076625017},"geometry":{"type":"Point","coordinates":[46.605255,24.763527]}},{"type":"Feature","properties":{"kind":"stop","name":null,"osm_id":14076625018},"geometry":{"type":"Point","coordinates":[46.60583,24.758616]}},{"type":"Feature","properties":{"kind":"stop","name":null,"osm_id":14076625019},"geometry":{"type":"Point","coordinates":[46.605773,24.757817]}},{"type":"Feature","properties":{"kind":"stop","name":null,"osm_id":14076625020},"geometry":{"type":"Point","coordinates":[46.609213,24.755028]}},{"type":"Feature","properties":{"kind":"stop","name":null,"osm_id":14076625021},"geometry":{"type":"Point","coordinates":[46.610329,24.753502]}},{"type":"Feature","properties":{"kind":"stop","name":null,"osm_id":14076625022},"geometry":{"type":"Point","coordinates":[46.621552,24.744346]}},{"type":"Feature","properties":{"kind":"stop","name":null,"osm_id":14076625023},"geometry":{"type":"Point","coordinates":[46.604494,24.729137]}},{"type":"Feature","properties":{"kind":"stop","name":null,"osm_id":14076625024},"geometry":{"type":"Point","coordinates":[46.604796,24.729751]}},{"type":"Feature","properties":{"kind":"stop","name":null,"osm_id":14076625025},"geometry":{"type":"Point","coordinates":[46.604813,24.726577]}},{"type":"Feature","properties":{"kind":"stop","name":null,"osm_id":14076625026},"geometry":{"type":"Point","coordinates":[46.605178,24.693094]}},{"type":"Feature","properties":{"kind":"stop","name":null,"osm_id":14076625027},"geometry":{"type":"Point","coordinates":[46.605255,24.692822]}},{"type":"Feature","properties":{"kind":"stop","name":null,"osm_id":14076625028},"geometry":{"type":"Point","coordinates":[46.601966,24.691953]}},{"type":"Feature","properties":{"kind":"stop","name":null,"osm_id":14076625029},"geometry":{"type":"Point","coordinates":[46.601383,24.692166]}},{"type":"Feature","properties":{"kind":"stop","name":null,"osm_id":14076625030},"geometry":{"type":"Point","coordinates":[46.598045,24.690961]}},{"type":"Feature","properties":{"kind":"stop","name":null,"osm_id":14076625031},"geometry":{"type":"Point","coordinates":[46.597159,24.691098]}},{"type":"Feature","properties":{"kind":"stop","name":null,"osm_id":14076625032},"geometry":{"type":"Point","coordinates":[46.583716,24.687328]}},{"type":"Feature","properties":{"kind":"stop","name":"KAFD C","osm_id":14085138898},"geometry":{"type":"Point","coordinates":[46.64316,24.767719]}},{"type":"Feature","properties":{"kind":"stop","name":"KAFD A","osm_id":14087116339},"geometry":{"type":"Point","coordinates":[46.643392,24.767246]}},{"type":"Feature","properties":{"kind":"stop","name":null,"osm_id":14121843857},"geometry":{"type":"Point","coordinates":[46.690939,24.759771]}},{"type":"Feature","properties":{"kind":"stop","name":null,"osm_id":14122057932},"geometry":{"type":"Point","coordinates":[46.611094,24.726866]}},{"type":"Feature","properties":{"kind":"stop","name":null,"osm_id":14124420468},"geometry":{"type":"Point","coordinates":[46.709991,24.76779]}},{"type":"Feature","properties":{"kind":"stop","name":null,"osm_id":14124456456},"geometry":{"type":"Point","coordinates":[46.699799,24.763517]}},{"type":"Feature","properties":{"kind":"stop","name":null,"osm_id":14124461448},"geometry":{"type":"Point","coordinates":[46.650926,24.742895]}},{"type":"Feature","properties":{"kind":"stop","name":null,"osm_id":14124471810},"geometry":{"type":"Point","coordinates":[46.642246,24.727652]}},{"type":"Feature","properties":{"kind":"stop","name":null,"osm_id":14157169263},"geometry":{"type":"Point","coordinates":[46.705807,24.782969]}},{"type":"Feature","properties":{"kind":"stop","name":null,"osm_id":14157220314},"geometry":{"type":"Point","coordinates":[46.70218,24.790184]}},{"type":"Feature","properties":{"kind":"stop","name":null,"osm_id":14157231677},"geometry":{"type":"Point","coordinates":[46.701905,24.789082]}},{"type":"Feature","properties":{"kind":"stop","name":null,"osm_id":14159076463},"geometry":{"type":"Point","coordinates":[46.71045,24.772182]}},{"type":"Feature","properties":{"kind":"stop","name":null,"osm_id":14159120339},"geometry":{"type":"Point","coordinates":[46.708014,24.777021]}},{"type":"Feature","properties":{"kind":"stop","name":null,"osm_id":14159128096},"geometry":{"type":"Point","coordinates":[46.708588,24.777488]}},{"type":"Feature","properties":{"kind":"stop","name":"al-qitar 101","osm_id":14162475502},"geometry":{"type":"Point","coordinates":[46.763891,24.767345]}},{"type":"Feature","properties":{"kind":"stop","name":null,"osm_id":14178130205},"geometry":{"type":"Point","coordinates":[46.653267,24.722868]}},{"type":"Feature","properties":{"kind":"stop","name":null,"osm_id":14178311732},"geometry":{"type":"Point","coordinates":[46.6506,24.722461]}}]}
