{"type":"FeatureCollection","name":"riyadh_metro_stations","attribution":"© OpenStreetMap contributors, ODbL 1.0","features":[{"type":"Feature","properties":{"station_id":"ST_DAR_BAIDA","name":"Ad Dar Al Baida","name_ar":"الدار البيضاء","lines":["1"],"codes":[],"interchange":false,"spread_m":0.0,"district":"Ad Dar Al Baida District","district_ar":"الدار البيضاء","municipality":null,"area":null,"aliases":[]},"geometry":{"type":"Point","coordinates":[46.77632,24.560098]}},{"type":"Feature","properties":{"station_id":"ST_AZIZIAH","name":"Al Aziziah","name_ar":"العزيزية","lines":["1"],"codes":[],"interchange":false,"spread_m":0.0,"district":"Al Aziziyah District","district_ar":"العزيزية","municipality":null,"area":null,"aliases":[]},"geometry":{"type":"Point","coordinates":[46.760875,24.5873]}},{"type":"Feature","properties":{"station_id":"ST_BATHA","name":"Al Bat'ha","name_ar":"البطحاء","lines":["1"],"codes":["1F5g"],"interchange":false,"spread_m":0.0,"district":"Al Futah District","district_ar":"الفوطة","municipality":null,"area":null,"aliases":[]},"geometry":{"type":"Point","coordinates":[46.714875,24.638309]}},{"type":"Feature","properties":{"station_id":"ST_IMAN_HOSPITAL","name":"Al Iman Hospital","name_ar":"مستشفى الإيمان","lines":["1"],"codes":["1G2"],"interchange":false,"spread_m":0.0,"district":"Al Mansurah District","district_ar":"المنصوره","municipality":null,"area":null,"aliases":[]},"geometry":{"type":"Point","coordinates":[46.735785,24.600632]}},{"type":"Feature","properties":{"station_id":"ST_MURABBA","name":"Al Murabba","name_ar":"المربع","lines":["1"],"codes":["1D5"],"interchange":false,"spread_m":0.0,"district":"Al Murabba District","district_ar":"المربع","municipality":null,"area":null,"aliases":[]},"geometry":{"type":"Point","coordinates":[46.70236,24.664733]}},{"type":"Feature","properties":{"station_id":"ST_MUROOJ","name":"Al Murooj","name_ar":"المروج","lines":["1"],"codes":["1A2"],"interchange":false,"spread_m":0.0,"district":"Almuruj Dstrict","district_ar":"المروج","municipality":null,"area":null,"aliases":[]},"geometry":{"type":"Point","coordinates":[46.65458,24.754252]}},{"type":"Feature","properties":{"station_id":"ST_OWD","name":"Al Owd","name_ar":"العود","lines":["1"],"codes":["1F8"],"interchange":false,"spread_m":0.0,"district":"Al Oud District","district_ar":"العود","municipality":null,"area":null,"aliases":[]},"geometry":{"type":"Point","coordinates":[46.721433,24.625642]}},{"type":"Feature","properties":{"station_id":"ST_URUBAH","name":"Al Urubah","name_ar":"العروبة","lines":["1"],"codes":["1C1"],"interchange":false,"spread_m":0.0,"district":"Al Wuroud District","district_ar":"الورود","municipality":null,"area":null,"aliases":[]},"geometry":{"type":"Point","coordinates":[46.675143,24.713472]}},{"type":"Feature","properties":{"station_id":"ST_WURUD_2","name":"Al Wurud 2","name_ar":"الورود 2","lines":["1"],"codes":[],"interchange":false,"spread_m":0.0,"district":"Al Wuroud District","district_ar":"الورود","municipality":null,"area":null,"aliases":[]},"geometry":{"type":"Point","coordinates":[46.671268,24.721278]}},{"type":"Feature","properties":{"station_id":"ST_ALINMA_BANK","name":"Alinma Bank","name_ar":"مصرف الانماء","lines":["1"],"codes":["1C2"],"interchange":false,"spread_m":0.0,"district":"Al Olaya District","district_ar":"العليا","municipality":null,"area":null,"aliases":[]},"geometry":{"type":"Point","coordinates":[46.680213,24.703454]}},{"type":"Feature","properties":{"station_id":"ST_BANK_ALBILAD","name":"Bank Albilad","name_ar":"بنك البلاد","lines":["1"],"codes":[],"interchange":false,"spread_m":0.0,"district":"Al Olaya District","district_ar":"العليا","municipality":null,"area":null,"aliases":[]},"geometry":{"type":"Point","coordinates":[46.683726,24.696513]}},{"type":"Feature","properties":{"station_id":"ST_DR_SULAIMAN_HABIB","name":"Dr Sulaiman Al Habib","name_ar":"د. سليمان الحبيب","lines":["1"],"codes":[],"interchange":false,"spread_m":0.0,"district":"As Sahafah District","district_ar":"الصحافة","municipality":"Municipality of Al Shamal","area":null,"aliases":[]},"geometry":{"type":"Point","coordinates":[46.625719,24.811572]}},{"type":"Feature","properties":{"station_id":"ST_KAFD","name":"KAFD","name_ar":"مركز الملك عبدالله المالي","lines":["1","4","6"],"codes":["1A1","4A1"],"interchange":true,"spread_m":18.9,"district":"Al Aqeeq District","district_ar":"العقيق","municipality":"Municipality of Al Shamal","area":null,"aliases":[]},"geometry":{"type":"Point","coordinates":[46.643086,24.76745]}},{"type":"Feature","properties":{"station_id":"ST_KING_FAHD_DISTRICT","name":"King Fahad District","name_ar":"حي الملك فهد","lines":["1"],"codes":["1B1"],"interchange":false,"spread_m":0.0,"district":"King Fahd District","district_ar":"الملك فهد","municipality":null,"area":null,"aliases":[]},"geometry":{"type":"Point","coordinates":[46.659235,24.744938]}},{"type":"Feature","properties":{"station_id":"ST_KING_FAHD_DISTRICT_2","name":"King Fahad District 2","name_ar":"حي الملك فهد 2","lines":["1"],"codes":["1B2"],"interchange":false,"spread_m":0.0,"district":"King Fahd District","district_ar":"الملك فهد","municipality":null,"area":null,"aliases":[]},"geometry":{"type":"Point","coordinates":[46.663637,24.736322]}},{"type":"Feature","properties":{"station_id":"ST_KING_FAHD_LIBRARY","name":"King Fahad Library","name_ar":"مكتبة الملك فهد","lines":["1"],"codes":[],"interchange":false,"spread_m":0.0,"district":"Al Olaya District","district_ar":"العليا","municipality":null,"area":null,"aliases":[]},"geometry":{"type":"Point","coordinates":[46.686933,24.690206]}},{"type":"Feature","properties":{"station_id":"ST_MANFOUHAH","name":"Manfouhah","name_ar":"منفوحة","lines":["1"],"codes":["1G1"],"interchange":false,"spread_m":0.0,"district":"Manfuhah District","district_ar":"منفوحة","municipality":null,"area":null,"aliases":[]},"geometry":{"type":"Point","coordinates":[46.72759,24.610426]}},{"type":"Feature","properties":{"station_id":"ST_MINISTRY_OF_INTERIOR","name":"Ministry of Interior","name_ar":"وزارة الداخلية","lines":["1"],"codes":["1D2"],"interchange":false,"spread_m":0.0,"district":"Al Olaya District","district_ar":"العليا","municipality":null,"area":null,"aliases":[]},"geometry":{"type":"Point","coordinates":[46.694903,24.674423]}},{"type":"Feature","properties":{"station_id":"ST_NATIONAL_MUSEUM","name":"National Museum","name_ar":"المتحف الوطني","lines":["1","5"],"codes":[],"interchange":true,"spread_m":43.4,"district":"Al Futah District","district_ar":"الفوطة","municipality":null,"area":null,"aliases":[]},"geometry":{"type":"Point","coordinates":[46.713351,24.645307]}},{"type":"Feature","properties":{"station_id":"ST_PASSPORT_DEPARTMENT","name":"Passport Department","name_ar":"الجوزات","lines":["1"],"codes":[],"interchange":false,"spread_m":0.0,"district":"Al Murabba District","district_ar":"المربع","municipality":null,"area":null,"aliases":[]},"geometry":{"type":"Point","coordinates":[46.704251,24.659785]}},{"type":"Feature","properties":{"station_id":"ST_QASR_HOKM","name":"Qasr Al Hokm","name_ar":"قصر الحكم","lines":["1","3"],"codes":[],"interchange":true,"spread_m":39.8,"district":"Jabrah District","district_ar":"جبرة","municipality":null,"area":null,"aliases":[]},"geometry":{"type":"Point","coordinates":[46.716283,24.628776]}},{"type":"Feature","properties":{"station_id":"ST_SABB","name":"SAB Bank","name_ar":"ساب","lines":["1"],"codes":["1Y1"],"interchange":false,"spread_m":0.0,"district":"Al Yasmin District","district_ar":"الياسمين","municipality":null,"area":null,"aliases":[]},"geometry":{"type":"Point","coordinates":[46.616642,24.829504]}},{"type":"Feature","properties":{"station_id":"ST_STC","name":"STC","name_ar":"شركة الاتصالات السعودية","lines":["1","2"],"codes":[],"interchange":true,"spread_m":10.1,"district":"Al Wuroud District","district_ar":"الورود","municipality":null,"area":null,"aliases":[]},"geometry":{"type":"Point","coordinates":[46.666781,24.726802]}},{"type":"Feature","properties":{"station_id":"ST_SKIRINAH","name":"Skirinah","name_ar":"سكيرينه","lines":["1"],"codes":["1F9"],"interchange":false,"spread_m":0.0,"district":"Al Oud District","district_ar":"العود","municipality":null,"area":null,"aliases":[]},"geometry":{"type":"Point","coordinates":[46.725307,24.617912]}},{"type":"Feature","properties":{"station_id":"ST_TRANSPORTATION_CENTER","name":"Transportation Center","name_ar":"النقل العام","lines":["1"],"codes":["1H2"],"interchange":false,"spread_m":0.0,"district":"Al Aziziyah District","district_ar":"العزيزية","municipality":null,"area":null,"aliases":[]},"geometry":{"type":"Point","coordinates":[46.745325,24.598461]}},{"type":"Feature","properties":{"station_id":"ST_HAMRA","name":"Al Hamra","name_ar":"الحمراء","lines":["2","6"],"codes":[],"interchange":true,"spread_m":1.7,"district":"Al Ishbiliyah District","district_ar":"اشبيلية","municipality":"Al Rawda Muncipality","area":null,"aliases":[]},"geometry":{"type":"Point","coordinates":[46.776494,24.776348]}},{"type":"Feature","properties":{"station_id":"ST_KHALEEJ","name":"Al Khaleej","name_ar":"الخليج","lines":["2"],"codes":[],"interchange":false,"spread_m":0.0,"district":"Al Ishbiliyah District","district_ar":"اشبيلية","municipality":"Al Rawda Muncipality","area":null,"aliases":[]},"geometry":{"type":"Point","coordinates":[46.794415,24.78218]}},{"type":"Feature","properties":{"station_id":"ST_WURUD","name":"Al Wurud","name_ar":"الورود","lines":["2"],"codes":[],"interchange":false,"spread_m":0.0,"district":"King Fahd District","district_ar":"الملك فهد","municipality":null,"area":null,"aliases":[]},"geometry":{"type":"Point","coordinates":[46.677232,24.733355]}},{"type":"Feature","properties":{"station_id":"ST_NUZHAH","name":"An Nuzhah","name_ar":"النزهة","lines":["2"],"codes":[],"interchange":false,"spread_m":0.0,"district":"Al Nuzhah District","district_ar":"النزهة","municipality":null,"area":null,"aliases":[]},"geometry":{"type":"Point","coordinates":[46.712422,24.748206]}},{"type":"Feature","properties":{"station_id":"ST_TAKHASSUSI","name":"At Takhassusi","name_ar":"التخصصي","lines":["2"],"codes":["2B1"],"interchange":false,"spread_m":0.0,"district":"Al Muhammadiyah","district_ar":"المحمدية","municipality":"Al Maathar Municipality","area":null,"aliases":[]},"geometry":{"type":"Point","coordinates":[46.65437,24.72372]}},{"type":"Feature","properties":{"station_id":"ST_CITY_CENTRE_ISHBILIYAH","name":"City Centre Ishbiliyah","name_ar":"سيتي سنتر","lines":["2"],"codes":["24"],"interchange":false,"spread_m":0.0,"district":"Al Khalij District","district_ar":"حي الخليج","municipality":"Al Rawda Muncipality","area":null,"aliases":[]},"geometry":{"type":"Point","coordinates":[46.810808,24.792274]}},{"type":"Feature","properties":{"station_id":"ST_KACST","name":"KACST","name_ar":"مدينة الملك عبد العزيز للعلوم والتقنية","lines":["2"],"codes":[],"interchange":false,"spread_m":0.0,"district":"Al Raid District","district_ar":"الرائد","municipality":"Al Maathar Municipality","area":null,"aliases":[]},"geometry":{"type":"Point","coordinates":[46.646661,24.720464]}},{"type":"Feature","properties":{"station_id":"ST_KHALID_BIN_ALWALEED_ROAD","name":"Khalid Bin Alwaleed Road","name_ar":"طريق خالد بن الوليد","lines":["2"],"codes":[],"interchange":false,"spread_m":0.0,"district":"Hamra District","district_ar":"الحمراء","municipality":"Al Rawda Muncipality","area":null,"aliases":[]},"geometry":{"type":"Point","coordinates":[46.759368,24.767844]}},{"type":"Feature","properties":{"station_id":"ST_KING_ABDULAZIZ_ROAD","name":"King Abdulaziz Road","name_ar":"طريق الملك عبدالعزيز","lines":["2"],"codes":[],"interchange":false,"spread_m":0.0,"district":"Mursalat District","district_ar":"المرسلات","municipality":null,"area":null,"aliases":[]},"geometry":{"type":"Point","coordinates":[46.685313,24.736777]}},{"type":"Feature","properties":{"station_id":"ST_KING_FAHD_SPORTS_CITY","name":"King Fahd Sports City","name_ar":"استاد الملك فهد","lines":["2"],"codes":["2G1"],"interchange":false,"spread_m":0.0,"district":"Al Maizliyyah District","district_ar":"حي المعيزيلة","municipality":"Al Rawda Muncipality","area":null,"aliases":["King Fahad Stadium"]},"geometry":{"type":"Point","coordinates":[46.83643,24.793085]}},{"type":"Feature","properties":{"station_id":"ST_KING_SALMAN_OASIS","name":"King Salman Oasis","name_ar":"واحة الملك سلمان","lines":["2"],"codes":[],"interchange":false,"spread_m":0.0,"district":"King Saud University","district_ar":"جامعة الملك سعود","municipality":"Al Maathar Municipality","area":null,"aliases":[]},"geometry":{"type":"Point","coordinates":[46.638598,24.717001]}},{"type":"Feature","properties":{"station_id":"ST_KING_SAUD_UNIVERSITY","name":"King Saud University","name_ar":"جامعة الملك سعود","lines":["2"],"codes":[],"interchange":false,"spread_m":0.0,"district":"King Saud University","district_ar":"جامعة الملك سعود","municipality":"Al Maathar Municipality","area":null,"aliases":[]},"geometry":{"type":"Point","coordinates":[46.628338,24.71023]}},{"type":"Feature","properties":{"station_id":"ST_MINISTRY_OF_EDUCATION","name":"Ministry of Education","name_ar":"وزارة التعليم","lines":["2","5"],"codes":["2C2","5C4"],"interchange":true,"spread_m":94.1,"district":"Salah ad Din District","district_ar":"صلاح الدين","municipality":null,"area":null,"aliases":[]},"geometry":{"type":"Point","coordinates":[46.69517,24.740621]}},{"type":"Feature","properties":{"station_id":"ST_RIYADH_EXHIBITION_CENTER","name":"Riyadh Exhibition Center","name_ar":"معارض الرياض","lines":["2"],"codes":[],"interchange":false,"spread_m":0.0,"district":"Al Mugharzat District","district_ar":"المغرزات","municipality":null,"area":null,"aliases":[]},"geometry":{"type":"Point","coordinates":[46.727107,24.754551]}},{"type":"Feature","properties":{"station_id":"ST_DOUH","name":"Ad Douh","name_ar":"الدوح","lines":["3"],"codes":["3B1"],"interchange":false,"spread_m":0.0,"district":"Al Uarayja al Gharbiyah District","district_ar":"العريجاء الغربية","municipality":"Al-Urayja Municipality","area":null,"aliases":[]},"geometry":{"type":"Point","coordinates":[46.588487,24.582512]}},{"type":"Feature","properties":{"station_id":"ST_AISHAH_BINT_ABI_BAKR_STREET","name":"Aishah bint Abi Bakr Street","name_ar":"شارع عائشة بنت أبي بكر","lines":["3"],"codes":[],"interchange":false,"spread_m":0.0,"district":"Al Urayja al Wusta District","district_ar":"العريجاء الوسطى","municipality":"Al-Urayja Municipality","area":null,"aliases":[]},"geometry":{"type":"Point","coordinates":[46.643814,24.600589]}},{"type":"Feature","properties":{"station_id":"ST_HILLA","name":"Al Hilla","name_ar":"الحلة","lines":["3"],"codes":["3E3"],"interchange":false,"spread_m":0.0,"district":"Al Marqab District","district_ar":"المرقب","municipality":null,"area":null,"aliases":[]},"geometry":{"type":"Point","coordinates":[46.721795,24.632248]}},{"type":"Feature","properties":{"station_id":"ST_JARRADIYAH","name":"Al Jarradiyah","name_ar":"الجرادية","lines":["3"],"codes":["3D2"],"interchange":false,"spread_m":0.0,"district":"Al Badiah District","district_ar":"البديعة","municipality":"Shmeisi Municipality","area":null,"aliases":[]},"geometry":{"type":"Point","coordinates":[46.697792,24.618369]}},{"type":"Feature","properties":{"station_id":"ST_MALAZ","name":"Al Malaz","name_ar":"الملز","lines":["3"],"codes":["3F2"],"interchange":false,"spread_m":0.0,"district":"Al Malaz District","district_ar":"الملز","municipality":null,"area":null,"aliases":[]},"geometry":{"type":"Point","coordinates":[46.744546,24.660408]}},{"type":"Feature","properties":{"station_id":"ST_MARGAB","name":"Al Margab","name_ar":"المرقب","lines":["3"],"codes":["3E4"],"interchange":false,"spread_m":0.0,"district":"Al Marqab District","district_ar":"المرقب","municipality":null,"area":null,"aliases":[]},"geometry":{"type":"Point","coordinates":[46.726291,24.634505]}},{"type":"Feature","properties":{"station_id":"ST_RAJHI_GRAND_MOSQUE","name":"Al Rajhi Grand Mosque","name_ar":"جامع الراجحي","lines":["3"],"codes":["3G2"],"interchange":false,"spread_m":0.0,"district":"Al Rawabi District","district_ar":"حي الروابي","municipality":"Al Naseem Municipality","area":null,"aliases":[]},"geometry":{"type":"Point","coordinates":[46.779486,24.68022]}},{"type":"Feature","properties":{"station_id":"ST_NASEEM","name":"An Naseem","name_ar":"النسيم","lines":["3","6"],"codes":["3J1"],"interchange":true,"spread_m":5.0,"district":"السلام","district_ar":"السلام","municipality":"Al Naseem Municipality","area":null,"aliases":[]},"geometry":{"type":"Point","coordinates":[46.82754,24.70046]}},{"type":"Feature","properties":{"station_id":"ST_SALHIYAH","name":"As Salhiyah","name_ar":"الصالحية","lines":["3"],"codes":["3E5"],"interchange":false,"spread_m":0.0,"district":"Al Marqab District","district_ar":"المرقب","municipality":null,"area":null,"aliases":[]},"geometry":{"type":"Point","coordinates":[46.732843,24.637762]}},{"type":"Feature","properties":{"station_id":"ST_COURTS_COMPLEX","name":"Courts Complex","name_ar":"مجمع المحاكم","lines":["3"],"codes":["3E1"],"interchange":false,"spread_m":0.0,"district":"Mikal District","district_ar":"معكال","municipality":null,"area":null,"aliases":[]},"geometry":{"type":"Point","coordinates":[46.712284,24.626749]}},{"type":"Feature","properties":{"station_id":"ST_DHAHRAT_BADIAH","name":"Dhahrat Al Badiah","name_ar":"ظهرة البديعة","lines":["3"],"codes":["3D3"],"interchange":false,"spread_m":0.0,"district":"Al Urayja al Wusta District","district_ar":"العريجاء الوسطى","municipality":"Al-Urayja Municipality","area":null,"aliases":[]},"geometry":{"type":"Point","coordinates":[46.653848,24.60669]}},{"type":"Feature","properties":{"station_id":"ST_FIRST_INDUSTRIAL_CITY","name":"First Industrial City","name_ar":"الصناعية الأولى","lines":["3"],"codes":["3E6"],"interchange":false,"spread_m":0.0,"district":"As Sinaiyah District","district_ar":"الصناعية القديمة","municipality":null,"area":null,"aliases":[]},"geometry":{"type":"Point","coordinates":[46.739391,24.644711]}},{"type":"Feature","properties":{"station_id":"ST_HARUN_RASHID_ROAD","name":"Harun Ar Rashid Road","name_ar":"طريق هارون الرشيد","lines":["3"],"codes":["3H1"],"interchange":false,"spread_m":0.0,"district":"Al Rawabi District","district_ar":"حي الروابي","municipality":"Al Naseem Municipality","area":null,"aliases":[]},"geometry":{"type":"Point","coordinates":[46.79596,24.686084]}},{"type":"Feature","properties":{"station_id":"ST_HASSAN_BIN_THABIT_STREET","name":"Hassan Bin Thabit Street","name_ar":"شارع حسان بن ثابت","lines":["3"],"codes":["3J2"],"interchange":false,"spread_m":0.0,"district":"Al Naseem District West","district_ar":"النسيم الغربي","municipality":"Al Naseem Municipality","area":null,"aliases":[]},"geometry":{"type":"Point","coordinates":[46.847577,24.712803]}},{"type":"Feature","properties":{"station_id":"ST_JARIR_DISTRICT","name":"Jarir District","name_ar":"حي جرير","lines":["3"],"codes":[],"interchange":false,"spread_m":0.0,"district":"Al Rabwah District","district_ar":"الربوة","municipality":null,"area":null,"aliases":[]},"geometry":{"type":"Point","coordinates":[46.760406,24.673056]}},{"type":"Feature","properties":{"station_id":"ST_JEDDAH_ROAD","name":"Jeddah Road","name_ar":"طريق جدة","lines":["3"],"codes":["3A1"],"interchange":false,"spread_m":0.0,"district":"Tuwayq District","district_ar":"طويق","municipality":"Namar Municipality","area":null,"aliases":[]},"geometry":{"type":"Point","coordinates":[46.543592,24.591562]}},{"type":"Feature","properties":{"station_id":"ST_KHASHM","name":"Khashm Al An","name_ar":"خشم العان","lines":["3"],"codes":["3K1"],"interchange":false,"spread_m":0.0,"district":"Al Naseem District East","district_ar":"النسيم الشرقي","municipality":"Al Naseem Municipality","area":null,"aliases":[]},"geometry":{"type":"Point","coordinates":[46.860699,24.721665]}},{"type":"Feature","properties":{"station_id":"ST_RAILWAY","name":"Railway Station","name_ar":"سكة الحديد","lines":["3"],"codes":["3F1"],"interchange":false,"spread_m":0.0,"district":"As Sinaiyah District","district_ar":"الصناعية القديمة","municipality":null,"area":null,"aliases":[]},"geometry":{"type":"Point","coordinates":[46.740703,24.649514]}},{"type":"Feature","properties":{"station_id":"ST_SULTANAH","name":"Sultanah","name_ar":"سلطانة","lines":["3"],"codes":["3D1"],"interchange":false,"spread_m":0.0,"district":"Al Badiah District","district_ar":"البديعة","municipality":"Shmeisi Municipality","area":null,"aliases":[]},"geometry":{"type":"Point","coordinates":[46.686308,24.614866]}},{"type":"Feature","properties":{"station_id":"ST_TUWAIQ","name":"Tuwaiq","name_ar":"طويق","lines":["3"],"codes":["3A2"],"interchange":false,"spread_m":0.0,"district":"Tuwayq District","district_ar":"طويق","municipality":"Namar Municipality","area":null,"aliases":[]},"geometry":{"type":"Point","coordinates":[46.559836,24.585497]}},{"type":"Feature","properties":{"station_id":"ST_WESTERN","name":"Western Station","name_ar":"المحطة الغربية","lines":["3"],"codes":["3B2"],"interchange":false,"spread_m":0.0,"district":"As Suwaydi al Gharbi District","district_ar":"السويدي الغربي","municipality":"Al-Urayja Municipality","area":null,"aliases":[]},"geometry":{"type":"Point","coordinates":[46.614576,24.581814]}},{"type":"Feature","properties":{"station_id":"ST_AIRPORT_T1_2","name":"Airport T1-2","name_ar":"1-2 الصالة","lines":["4"],"codes":["4G3"],"interchange":false,"spread_m":0.0,"district":null,"district_ar":null,"municipality":null,"area":"King Khalid International Airport","aliases":[]},"geometry":{"type":"Point","coordinates":[46.698991,24.961054]}},{"type":"Feature","properties":{"station_id":"ST_AIRPORT_T3_4","name":"Airport T3-4","name_ar":"3-4 الصالة","lines":["4"],"codes":[],"interchange":false,"spread_m":0.0,"district":null,"district_ar":null,"municipality":null,"area":"King Khalid International Airport","aliases":[]},"geometry":{"type":"Point","coordinates":[46.702351,24.95579]}},{"type":"Feature","properties":{"station_id":"ST_AIRPORT_T5","name":"Airport T5","name_ar":"5 الصالة","lines":["4"],"codes":[],"interchange":false,"spread_m":0.0,"district":null,"district_ar":null,"municipality":null,"area":"King Khalid International Airport","aliases":[]},"geometry":{"type":"Point","coordinates":[46.710445,24.940515]}},{"type":"Feature","properties":{"station_id":"ST_RABI","name":"Ar Rabi","name_ar":"الربيع","lines":["4","6"],"codes":["12"],"interchange":true,"spread_m":0.0,"district":"Al Rabiea District","district_ar":"الربيع","municipality":"Municipality of Al Shamal","area":null,"aliases":[]},"geometry":{"type":"Point","coordinates":[46.660211,24.786329]}},{"type":"Feature","properties":{"station_id":"ST_GOVERNMENTAL_COMPLEX","name":"Governmental Complex","name_ar":"جامعة الاميره نوره 2","lines":["4"],"codes":[],"interchange":false,"spread_m":0.0,"district":null,"district_ar":null,"municipality":null,"area":"Princess Nora bint Abdulrahman University","aliases":["PNU 2"]},"geometry":{"type":"Point","coordinates":[46.704413,24.859674]}},{"type":"Feature","properties":{"station_id":"ST_PNU","name":"PNU","name_ar":"جامعة الاميره نوره 1","lines":["4"],"codes":[],"interchange":false,"spread_m":0.0,"district":null,"district_ar":null,"municipality":null,"area":"Princess Nora bint Abdulrahman University","aliases":[]},"geometry":{"type":"Point","coordinates":[46.717396,24.841607]}},{"type":"Feature","properties":{"station_id":"ST_SABIC","name":"SABIC","name_ar":"سابك","lines":["4","6"],"codes":["14"],"interchange":true,"spread_m":0.0,"district":"Imam Muhammad ibn Saud University","district_ar":"جامعة الإمام محمد بن سعود الإسلامية","municipality":"Municipality of Al Shamal","area":null,"aliases":[]},"geometry":{"type":"Point","coordinates":[46.709314,24.807033]}},{"type":"Feature","properties":{"station_id":"ST_UTHMAN_BIN_AFFAN_ROAD","name":"Uthman Bin Affan Road","name_ar":"طريق عثمان بن عفان","lines":["4","6"],"codes":["13"],"interchange":true,"spread_m":0.0,"district":"Al Wadi District","district_ar":"الوادي","municipality":"Municipality of Al Shamal","area":null,"aliases":[]},"geometry":{"type":"Point","coordinates":[46.696043,24.801435]}},{"type":"Feature","properties":{"station_id":"ST_ABU_DHABI_SQUARE","name":"Abu Dhabi Square","name_ar":"ميدان أبو ظبي","lines":["5"],"codes":["5B3"],"interchange":false,"spread_m":0.0,"district":"As Sulaymaniyah District","district_ar":"السليمانية","municipality":null,"area":null,"aliases":[]},"geometry":{"type":"Point","coordinates":[46.716253,24.70617]}},{"type":"Feature","properties":{"station_id":"ST_DHABAB","name":"Ad Dhabab","name_ar":"الضباب","lines":["5"],"codes":["5B4"],"interchange":false,"spread_m":0.0,"district":"حديقة الملك سلمان","district_ar":"حديقة الملك سلمان","municipality":null,"area":null,"aliases":[]},"geometry":{"type":"Point","coordinates":[46.707763,24.709686]}},{"type":"Feature","properties":{"station_id":"ST_WIZARAT","name":"Al Wizarat","name_ar":"الوزارات","lines":["5"],"codes":["5A3"],"interchange":false,"spread_m":0.0,"district":"Ad Dubbat District","district_ar":"الضباط","municipality":null,"area":null,"aliases":[]},"geometry":{"type":"Point","coordinates":[46.718384,24.675379]}},{"type":"Feature","properties":{"station_id":"ST_SULIMANIYAH","name":"As Sulimaniyah","name_ar":"السليمانية","lines":["5"],"codes":["5C1"],"interchange":false,"spread_m":0.0,"district":"As Sulaymaniyah District","district_ar":"السليمانية","municipality":null,"area":null,"aliases":[]},"geometry":{"type":"Point","coordinates":[46.700221,24.71288]}},{"type":"Feature","properties":{"station_id":"ST_GOSI","name":"GOSI","name_ar":"المؤسسة العامة للتأمينات الاجتماعية","lines":["5"],"codes":["5B1"],"interchange":false,"spread_m":0.0,"district":"Al Wizarat District","district_ar":"الوزارات","municipality":null,"area":null,"aliases":[]},"geometry":{"type":"Point","coordinates":[46.718137,24.686753]}},{"type":"Feature","properties":{"station_id":"ST_MEW_A","name":"MEW&A","name_ar":"وزاره البيئة والمياه والزراعة","lines":["5"],"codes":["5A2"],"interchange":false,"spread_m":0.0,"district":"Al Murabba District","district_ar":"المربع","municipality":null,"area":null,"aliases":[]},"geometry":{"type":"Point","coordinates":[46.717701,24.65986]}},{"type":"Feature","properties":{"station_id":"ST_MINISTRY_OF_DEFENSE","name":"Ministry of Defense","name_ar":"وزارة الدفاع","lines":["5"],"codes":["5A5"],"interchange":false,"spread_m":0.0,"district":"Al Wizarat District","district_ar":"الوزارات","municipality":null,"area":null,"aliases":[]},"geometry":{"type":"Point","coordinates":[46.718233,24.667901]}},{"type":"Feature","properties":{"station_id":"ST_MINISTRY_OF_FINANCE","name":"Ministry of Finance","name_ar":"وزارة المالية","lines":["5"],"codes":["5A6"],"interchange":false,"spread_m":0.0,"district":"Al Murabba District","district_ar":"المربع","municipality":null,"area":null,"aliases":[]},"geometry":{"type":"Point","coordinates":[46.716399,24.652648]}},{"type":"Feature","properties":{"station_id":"ST_OFFICERS_CLUB","name":"Officers Club","name_ar":"نادي الضباط","lines":["5"],"codes":["5B2"],"interchange":false,"spread_m":0.0,"district":"As Sulaymaniyah District","district_ar":"السليمانية","municipality":null,"area":null,"aliases":[]},"geometry":{"type":"Point","coordinates":[46.717914,24.698282]}},{"type":"Feature","properties":{"station_id":"ST_SALAHADDIN","name":"Salahaddin","name_ar":"صلاح الدين","lines":["5"],"codes":["5C2"],"interchange":false,"spread_m":0.0,"district":"Salah ad Din District","district_ar":"صلاح الدين","municipality":null,"area":null,"aliases":[]},"geometry":{"type":"Point","coordinates":[46.700685,24.728522]}},{"type":"Feature","properties":{"station_id":"ST_ANDALUS","name":"Al Andalus","name_ar":"الأندلس","lines":["6"],"codes":[],"interchange":false,"spread_m":0.0,"district":"Al Nahdhah District","district_ar":"النهضة","municipality":"Al Rawda Muncipality","area":null,"aliases":[]},"geometry":{"type":"Point","coordinates":[46.790262,24.756729]}},{"type":"Feature","properties":{"station_id":"ST_YARMUK","name":"Al Yarmuk","name_ar":"اليرموك","lines":["6"],"codes":[],"interchange":false,"spread_m":0.0,"district":"Ghirnatah District","district_ar":"غرناطة","municipality":"Al Rawda Muncipality","area":null,"aliases":[]},"geometry":{"type":"Point","coordinates":[46.76632,24.791315]}},{"type":"Feature","properties":{"station_id":"ST_SALAM","name":"As Salam","name_ar":"السلام","lines":["6"],"codes":[],"interchange":false,"spread_m":0.0,"district":"Al Naseem District West","district_ar":"النسيم الغربي","municipality":"Al Naseem Municipality","area":null,"aliases":[]},"geometry":{"type":"Point","coordinates":[46.811216,24.72275]}},{"type":"Feature","properties":{"station_id":"ST_GRANADA","name":"Granada","name_ar":"غرناطية","lines":["6"],"codes":[],"interchange":false,"spread_m":0.0,"district":"Ghirnatah District","district_ar":"غرناطة","municipality":"Al Rawda Muncipality","area":null,"aliases":[]},"geometry":{"type":"Point","coordinates":[46.729166,24.786462]}},{"type":"Feature","properties":{"station_id":"ST_KHURAIS_ROAD","name":"Khurais Road","name_ar":"طريق خريص","lines":["6"],"codes":[],"interchange":false,"spread_m":0.0,"district":"Al Andalus District","district_ar":"الأندلس","municipality":"Al Rawda Muncipality","area":null,"aliases":[]},"geometry":{"type":"Point","coordinates":[46.798615,24.740731]}}]}
