{"type":"FeatureCollection","features":[{"type":"Feature","properties":{"id":"diriyah-at-turaif-study-area","name_en":"At-Turaif / Diriyah study area","name_ar":"منطقة الدراسة – حي الطريف بالدرعية"},"geometry":{"type":"Polygon","coordinates":[[[46.5514724,24.7471721],[46.5520955,24.7442607],[46.5650367,24.7327991],[46.5653156,24.7325701],[46.5770372,24.7280498],[46.5842288,24.7297601],[46.5842634,24.72977],[46.5842911,24.7297799],[46.5843079,24.729797],[46.5846215,24.7306989],[46.5849014,24.7315136],[46.5849736,24.7317247],[46.5849033,24.7400988],[46.5848529,24.7421074],[46.5764853,24.7553288],[46.5761984,24.7553431],[46.5710879,24.7547718],[46.5514724,24.7471721]]]}}]}