{"type":"FeatureCollection","features":[{"type":"Feature","properties":{"id":"green-0","category":"palm_grove"},"geometry":{"type":"Polygon","coordinates":[[[46.5712164,24.7524102],[46.5713668,24.7520526],[46.5711848,24.7519844],[46.5712916,24.7516071],[46.5714212,24.7511238],[46.5713351,24.750998],[46.5715606,24.7502039],[46.5717535,24.7497206],[46.5719039,24.7496038],[46.5721076,24.7496236],[46.5723331,24.7498751],[46.5725903,24.7503396],[46.5727723,24.7509782],[46.572794,24.7515109],[46.5726328,24.7518981],[46.5720967,24.7528171],[46.5710879,24.7547718],[46.5710879,24.7536606],[46.5710018,24.7529213],[46.5710424,24.7528261],[46.5712164,24.7524102]]]}},{"type":"Feature","properties":{"id":"green-1","category":"palm_grove"},"geometry":{"type":"Polygon","coordinates":[[[46.5715705,24.7490235],[46.5709593,24.7484818],[46.5704549,24.7482016],[46.5694895,24.7480767],[46.5685776,24.7481495],[46.5678743,24.7483525],[46.566998,24.7488915],[46.565555,24.749912],[46.5647103,24.7505129],[46.5646935,24.7506207],[46.566453,24.7500593],[46.5674936,24.7498652],[46.5678803,24.7499039],[46.5684708,24.7496335],[46.5692531,24.7495463],[46.5704657,24.7492562],[46.5706052,24.7491493],[46.5715705,24.7490235]]]}},{"type":"Feature","properties":{"id":"green-2","category":"palm_grove"},"geometry":{"type":"Polygon","coordinates":[[[46.5773389,24.7336426],[46.5778987,24.7334729],[46.5779689,24.7336696],[46.5780312,24.7338403],[46.5781094,24.7340424],[46.5778196,24.734134],[46.5775584,24.7342167],[46.5773389,24.7336426]]]}},{"type":"Feature","properties":{"id":"green-3","category":"palm_grove"},"geometry":{"type":"Polygon","coordinates":[[[46.5779086,24.7400251],[46.5780431,24.7399578],[46.5782152,24.7402371],[46.5780797,24.7403045],[46.5779086,24.7400251]]]}},{"type":"Feature","properties":{"id":"green-4","category":"palm_grove"},"geometry":{"type":"Polygon","coordinates":[[[46.5766841,24.7421074],[46.5783724,24.7437765],[46.5784644,24.7436741],[46.5786583,24.7434594],[46.5787058,24.7433687],[46.5788512,24.7430947],[46.5790104,24.7426779],[46.5780273,24.7415586],[46.5777879,24.7416565],[46.5766841,24.7421074]]]}},{"type":"Feature","properties":{"id":"green-5","category":"palm_grove"},"geometry":{"type":"Polygon","coordinates":[[[46.5727228,24.7355498],[46.5732005,24.7364157],[46.5735823,24.7364597],[46.5740225,24.7364202],[46.5741085,24.7363951],[46.5741629,24.7362855],[46.5743172,24.7359729],[46.5743785,24.735954],[46.5746397,24.7360115],[46.5746604,24.736016],[46.5748553,24.7361381],[46.5749265,24.7361983],[46.5751787,24.7364112],[46.5752855,24.7364427],[46.575421,24.7365217],[46.5758068,24.735777],[46.5755981,24.7355749],[46.5754616,24.7353234],[46.5753805,24.7351069],[46.5751926,24.7351832],[46.575065,24.7353467],[46.5748256,24.7352443],[46.5749433,24.7346209],[46.5749789,24.7345957],[46.5750669,24.7332123],[46.5746674,24.7330578],[46.5746456,24.7330498],[46.5745269,24.733003],[46.5743301,24.7329267],[46.5739562,24.7327821],[46.5736615,24.7332716],[46.5735655,24.7334306],[46.5733133,24.7334396],[46.5733014,24.7336462],[46.5732767,24.7341098],[46.5732747,24.7341448],[46.5732589,24.7344457],[46.5732569,24.7344817],[46.5730097,24.7344709],[46.5728732,24.7349039],[46.5728514,24.734973],[46.5728425,24.735194],[46.5728346,24.7353638],[46.5727228,24.7355498]]]}},{"type":"Feature","properties":{"id":"green-6","category":"palm_grove"},"geometry":{"type":"Polygon","coordinates":[[[46.5760422,24.7390622],[46.575788,24.7392185],[46.5759749,24.73962],[46.5770906,24.7401689],[46.5773952,24.7404995],[46.5779353,24.7410834],[46.5795702,24.7404375],[46.5784417,24.7392544],[46.5776672,24.7391367],[46.5769501,24.7387972],[46.5760422,24.7390622]]]}},{"type":"Feature","properties":{"id":"green-7","category":"palm_grove"},"geometry":{"type":"Polygon","coordinates":[[[46.5520955,24.7442607],[46.5524457,24.7443119],[46.5614522,24.7418325],[46.5614077,24.7426859],[46.5647607,24.7454806],[46.5662305,24.7459037],[46.5661543,24.7462576],[46.5653641,24.7472359],[46.5652889,24.7476689],[46.5646361,24.747703],[46.5618479,24.7481189],[46.5538502,24.7468505],[46.5537908,24.7474111],[46.5514724,24.7471721],[46.5519393,24.7450853],[46.5520955,24.7442607]]]}},{"type":"Feature","properties":{"id":"green-8","category":"palm_grove"},"geometry":{"type":"Polygon","coordinates":[[[46.5725596,24.7407492],[46.5724953,24.7409252],[46.5728761,24.7410268],[46.5730957,24.741148],[46.5733746,24.7412208],[46.5734122,24.7412621],[46.573707,24.7413582],[46.5738098,24.7413609],[46.5739433,24.7414023],[46.5741421,24.7415298],[46.5745497,24.7416538],[46.5747504,24.7413295],[46.5745684,24.7412208],[46.5744428,24.7413007],[46.5743321,24.7412693],[46.5742757,24.7411525],[46.5741797,24.7411121],[46.5741283,24.7411435],[46.5735467,24.7409468],[46.5734656,24.7408435],[46.57334,24.7407824],[46.5731847,24.7408121],[46.5730047,24.7408022],[46.5728603,24.7407564],[46.5726556,24.7407366],[46.5725596,24.7407492]]]}},{"type":"Feature","properties":{"id":"green-9","category":"palm_grove"},"geometry":{"type":"Polygon","coordinates":[[[46.5737287,24.7403629],[46.5737,24.7401428],[46.5736328,24.7401186],[46.5734983,24.7401455],[46.5734795,24.7401644],[46.5734152,24.7401644],[46.5733855,24.7401356],[46.5731501,24.7401985],[46.5731254,24.7402614],[46.5729968,24.7402812],[46.5729562,24.7404554],[46.5731422,24.7404285],[46.5731897,24.7404626],[46.5735764,24.740433],[46.5748662,24.7408588],[46.5749255,24.7409585],[46.5750729,24.7409603],[46.5751777,24.7410618],[46.5753656,24.7411328],[46.5755239,24.7411202],[46.5755664,24.7410384],[46.5755239,24.7409944],[46.5755585,24.740813],[46.5754378,24.7407932],[46.5754161,24.7407528],[46.5754507,24.7407159],[46.5753755,24.7405569],[46.5751965,24.74045],[46.5751747,24.7404788],[46.5750946,24.7404644],[46.5750036,24.7403845],[46.5747969,24.740397],[46.5745121,24.7403458],[46.5744695,24.7402901],[46.574429,24.7402542],[46.5742658,24.740203],[46.5741075,24.7401958],[46.5739621,24.7401725],[46.5738444,24.740177],[46.5737693,24.7401671],[46.5737287,24.7403629]]]}},{"type":"Feature","properties":{"id":"green-10","category":"palm_grove"},"geometry":{"type":"Polygon","coordinates":[[[46.584122,24.7394942],[46.5839964,24.7395598],[46.5839766,24.7396191],[46.5840211,24.7397476],[46.5840735,24.7399155],[46.5841101,24.7400772],[46.5841101,24.7402309],[46.5841061,24.7403225],[46.5841309,24.7403854],[46.5841833,24.7404581],[46.584301,24.7405138],[46.5844355,24.7405174],[46.5845779,24.7405093],[46.584753,24.7404438],[46.584846,24.740389],[46.5848865,24.7403081],[46.5848944,24.740238],[46.5849033,24.7400988],[46.5848213,24.7400108],[46.5847807,24.7399416],[46.5848094,24.7397799],[46.5847807,24.7396991],[46.5847481,24.7396074],[46.5846472,24.7395275],[46.5845374,24.7394942],[46.5844355,24.7394682],[46.5843218,24.739461],[46.584122,24.7394942]]]}},{"type":"Feature","properties":{"id":"green-11","category":"palm_grove"},"geometry":{"type":"Polygon","coordinates":[[[46.574432,24.7297763],[46.5752954,24.730901],[46.5752697,24.7309261],[46.5749789,24.7312181],[46.5748088,24.7313888],[46.5747593,24.7314382],[46.5753577,24.7321218],[46.575698,24.732889],[46.5760036,24.7327452],[46.5763755,24.732217],[46.5768592,24.7316574],[46.5769363,24.7314005],[46.577058,24.7309962],[46.577146,24.7308983],[46.5772024,24.7307995],[46.5772528,24.7307267],[46.5780737,24.7298563],[46.5782617,24.7296568],[46.5771954,24.7282573],[46.5771371,24.72818],[46.5770599,24.7280794],[46.5770372,24.7280498],[46.5762697,24.7290514],[46.5756396,24.7298563],[46.5754735,24.7298455],[46.5754507,24.7297583],[46.575424,24.7297053],[46.5750936,24.7292786],[46.574432,24.7297763]]]}},{"type":"Feature","properties":{"id":"green-12","category":"palm_grove"},"geometry":{"type":"Polygon","coordinates":[[[46.5750669,24.7332123],[46.5750017,24.7324766],[46.5746525,24.7318882],[46.5737801,24.7320661],[46.5736437,24.7325862],[46.5739562,24.7327821],[46.5743301,24.7329267],[46.5745269,24.733003],[46.5746456,24.7330498],[46.5746674,24.7330578],[46.5750669,24.7332123]]]}},{"type":"Feature","properties":{"id":"green-13","category":"palm_grove"},"geometry":{"type":"Polygon","coordinates":[[[46.5741629,24.7362855],[46.5743291,24.7363609],[46.574428,24.7362855],[46.5747514,24.7363798],[46.5749265,24.7361983],[46.5746397,24.7360115],[46.5743785,24.735954],[46.5743172,24.7359729],[46.5741629,24.7362855]]]}},{"type":"Feature","properties":{"id":"green-14","category":"palm_grove"},"geometry":{"type":"Polygon","coordinates":[[[46.5743261,24.7372179],[46.5738682,24.7372637],[46.5738247,24.737473],[46.5739216,24.7379024],[46.5743696,24.7378198],[46.574429,24.7376015],[46.5744468,24.7373643],[46.5743261,24.7372179]]]}},{"type":"Feature","properties":{"id":"green-15","category":"palm_grove"},"geometry":{"type":"Polygon","coordinates":[[[46.5811577,24.741378],[46.5808669,24.7412028],[46.5806632,24.7410259],[46.5804485,24.7409558],[46.5801192,24.7409315],[46.5797947,24.740857],[46.5795366,24.7408031],[46.5793467,24.7408327],[46.5791617,24.7409127],[46.5790114,24.74098],[46.5788502,24.7409702],[46.5786454,24.7409513],[46.5784338,24.7410052],[46.5780559,24.7413573],[46.5791973,24.7427084],[46.5786177,24.7437945],[46.5792913,24.7443864],[46.5801726,24.7457573],[46.580857,24.7436444],[46.5806384,24.7421056],[46.5807997,24.7416691],[46.5811577,24.741378]]]}},{"type":"Feature","properties":{"id":"green-16","category":"palm_grove"},"geometry":{"type":"Polygon","coordinates":[[[46.5802131,24.74121],[46.5797789,24.741343],[46.5797928,24.7415325],[46.5800519,24.742032],[46.5803961,24.7418927],[46.5804376,24.7414696],[46.5803467,24.7412675],[46.5802131,24.74121]]]}},{"type":"Feature","properties":{"id":"green-17","category":"palm_grove"},"geometry":{"type":"Polygon","coordinates":[[[46.5766059,24.7424964],[46.5763152,24.7427677],[46.5762835,24.7428746],[46.5762944,24.7429536],[46.5763557,24.7430551],[46.5764981,24.7431764],[46.5764418,24.7433848],[46.5764566,24.7438223],[46.57624,24.7438888],[46.5761342,24.743922],[46.5753211,24.7451788],[46.5756554,24.7453351],[46.576507,24.7452201],[46.5776207,24.7445158],[46.5781281,24.7445913],[46.5783606,24.7444385],[46.5781954,24.7441223],[46.577504,24.7433408],[46.5766059,24.7424964]]]}},{"type":"Feature","properties":{"id":"green-18","category":"palm_grove"},"geometry":{"type":"Polygon","coordinates":[[[46.5772231,24.7408543],[46.5761955,24.7417427],[46.5766841,24.7421074],[46.5777879,24.7416565],[46.5775881,24.7414238],[46.5776257,24.7412567],[46.5772231,24.7408543]]]}},{"type":"Feature","properties":{"id":"green-19","category":"palm_grove"},"geometry":{"type":"Polygon","coordinates":[[[46.5783368,24.7445823],[46.5780055,24.7446802],[46.5780302,24.7446928],[46.5775762,24.7445401],[46.576507,24.7452201],[46.5756554,24.7453351],[46.5753211,24.7451788],[46.5742292,24.7464804],[46.5751658,24.7468424],[46.5754408,24.7465666],[46.5759393,24.7465379],[46.5763567,24.7466107],[46.5781321,24.7476608],[46.5790371,24.7468802],[46.5792804,24.7464777],[46.5792537,24.7455569],[46.5789659,24.7449551],[46.5785396,24.7444556],[46.5783368,24.7445823]]]}},{"type":"Feature","properties":{"id":"green-20","category":"palm_grove"},"geometry":{"type":"Polygon","coordinates":[[[46.577776,24.745804],[46.5773636,24.7456072],[46.5769986,24.7453243],[46.5761965,24.7449946],[46.5760857,24.7456396],[46.5757039,24.7456459],[46.5752756,24.7454671],[46.574696,24.746413],[46.575148,24.7466421],[46.5759265,24.7464696],[46.5767602,24.7467777],[46.577776,24.745804]]]}},{"type":"Feature","properties":{"id":"green-21","category":"palm_grove"},"geometry":{"type":"Polygon","coordinates":[[[46.565547,24.7351006],[46.5657201,24.7351392],[46.5659506,24.7353252],[46.5659565,24.7354671],[46.5656865,24.7359684],[46.5652711,24.7358669],[46.5654076,24.7354321],[46.565547,24.7351006]]]}},{"type":"Feature","properties":{"id":"green-22","category":"palm_grove"},"geometry":{"type":"Polygon","coordinates":[[[46.5657112,24.7360214],[46.5659822,24.7355111],[46.566093,24.735468],[46.5666429,24.7357195],[46.5661494,24.7366565],[46.565373,24.736351],[46.5654115,24.7362388],[46.5655915,24.736219],[46.5657112,24.7360214]]]}},{"type":"Feature","properties":{"id":"green-23","category":"palm_grove"},"geometry":{"type":"Polygon","coordinates":[[[46.5764784,24.7467706],[46.5779511,24.7476841],[46.5755743,24.7495553],[46.5750056,24.7490873],[46.5750135,24.7489211],[46.5754655,24.7488079],[46.5764784,24.7467706]]]}},{"type":"Feature","properties":{"id":"green-24","category":"palm_grove"},"geometry":{"type":"Polygon","coordinates":[[[46.5750392,24.746952],[46.573976,24.7466502],[46.5736249,24.7468909],[46.5729553,24.7475251],[46.5728633,24.7479779],[46.5734834,24.7486929],[46.5735141,24.748728],[46.5744616,24.7481818],[46.5744953,24.7476761],[46.5750353,24.7473203],[46.5750392,24.746952]]]}},{"type":"Feature","properties":{"id":"green-25","category":"palm_grove"},"geometry":{"type":"Polygon","coordinates":[[[46.5761688,24.7466574],[46.5754913,24.7466421],[46.5751658,24.7468424],[46.5752064,24.7472458],[46.5745704,24.7476967],[46.5746337,24.7486049],[46.5748681,24.7488403],[46.5754408,24.7486534],[46.5757672,24.7479914],[46.5762904,24.7470688],[46.5763458,24.7468379],[46.5761688,24.7466574]]]}},{"type":"Feature","properties":{"id":"green-26","category":"palm_grove"},"geometry":{"type":"Polygon","coordinates":[[[46.5715547,24.7466232],[46.5714093,24.745768],[46.5715428,24.7452973],[46.5697566,24.744311],[46.5696359,24.7447386],[46.57017,24.7457132],[46.5681285,24.746042],[46.5666835,24.7467652],[46.5659179,24.7466125],[46.5653225,24.7476419],[46.5659545,24.7491322],[46.5681899,24.7477623],[46.5704133,24.747774],[46.5720047,24.7490011],[46.5734518,24.7514705],[46.5753182,24.7497655],[46.5749334,24.7493577],[46.5748681,24.7488403],[46.5745773,24.7486301],[46.5744616,24.7481818],[46.5734834,24.7486929],[46.5722659,24.7473859],[46.5721778,24.7472916],[46.5715547,24.7466232]]]}},{"type":"Feature","properties":{"id":"green-27","category":"palm_grove"},"geometry":{"type":"Polygon","coordinates":[[[46.5778403,24.7430731],[46.5780461,24.7429375],[46.5783992,24.7429671],[46.5787275,24.7431629],[46.5787058,24.7433687],[46.5784644,24.7436741],[46.5778403,24.7430731]]]}},{"type":"Feature","properties":{"id":"green-28","category":"palm_grove"},"geometry":{"type":"Polygon","coordinates":[[[46.5753587,24.7549946],[46.5761984,24.7553431],[46.5764853,24.7553288],[46.5764269,24.7542229],[46.5763755,24.7541331],[46.5763884,24.7534908],[46.5762548,24.7532321],[46.5762202,24.7525269],[46.5762746,24.7517328],[46.576241,24.7512504],[46.5763636,24.7511489],[46.5765872,24.7510384],[46.5774388,24.7508201],[46.5781647,24.7509675],[46.5782043,24.7507357],[46.5772439,24.7504204],[46.5765832,24.7502075],[46.5764032,24.7500997],[46.5761193,24.7500611],[46.5757811,24.7501805],[46.5752222,24.7506531],[46.5744428,24.7512424],[46.5737257,24.7519628],[46.5733667,24.752394],[46.5726674,24.7533264],[46.5727268,24.7533875],[46.5731076,24.753772],[46.5731264,24.7537909],[46.5732718,24.7540074],[46.5736258,24.7541951],[46.5739859,24.7543855],[46.5746238,24.7546685],[46.5753587,24.7549946]]]}},{"type":"Feature","properties":{"id":"green-29","category":"palm_grove"},"geometry":{"type":"Polygon","coordinates":[[[46.577775,24.7337909],[46.5777889,24.7337271],[46.5778314,24.7336867],[46.5778829,24.7336696],[46.5779689,24.7336696],[46.5780312,24.7338403],[46.5779798,24.7338591],[46.5779471,24.7338771],[46.5778957,24.7338834],[46.5778502,24.7338753],[46.5778205,24.7338735],[46.5778225,24.7338546],[46.5778146,24.7338286],[46.5777988,24.733807],[46.577775,24.7337909]]]}},{"type":"Feature","properties":{"id":"green-30","category":"palm_grove"},"geometry":{"type":"Polygon","coordinates":[[[46.5848885,24.7318056],[46.5848994,24.731802],[46.5848539,24.7317086],[46.5848776,24.731696],[46.5847817,24.7314804],[46.5845621,24.7310456],[46.5844454,24.7308175],[46.5842693,24.7304375],[46.5841793,24.7302327],[46.5841576,24.7301635],[46.5841358,24.7300449],[46.58412,24.7300126],[46.5840755,24.7299856],[46.5840696,24.7300781],[46.5841427,24.7302776],[46.5843445,24.7307132],[46.5848885,24.7318056]]]}},{"type":"Feature","properties":{"id":"green-31","category":"palm_grove"},"geometry":{"type":"Polygon","coordinates":[[[46.5840953,24.7299281],[46.5840982,24.7298868],[46.5840903,24.7298401],[46.5841002,24.7298069],[46.5841329,24.7297718],[46.5841714,24.7297574],[46.5842288,24.7297601],[46.5842634,24.72977],[46.5842911,24.7297799],[46.5843079,24.729797],[46.5844177,24.7301132],[46.5845334,24.7304581],[46.5846215,24.7306989],[46.5847026,24.730945],[46.5847886,24.7311885],[46.5849014,24.7315136],[46.5849736,24.7317247],[46.5844672,24.7307043],[46.5842377,24.7302183],[46.584212,24.7301078],[46.5842041,24.7300431],[46.5841873,24.7299946],[46.5841596,24.7299605],[46.5840953,24.7299281]]]}}]}