{"type":"FeatureCollection","features":[{"type":"Feature","properties":{"id":"turaif","category":"heritage","name_en":"At-Turaif District","name_ar":"حي الطريف","tag":"UNESCO World Heritage Site","icon":"🏛️"},"geometry":{"type":"Point","coordinates":[46.5732757,24.7437037]}},{"type":"Feature","properties":{"id":"mosque","category":"heritage","name_en":"Historic Mosque","name_ar":"مسجد الطريف","tag":"Mosque of At-Turaif","icon":"🕌"},"geometry":{"type":"Point","coordinates":[46.577601,24.7331755]}},{"type":"Feature","properties":{"id":"palace","category":"heritage","name_en":"Thunayan bin Saud Palace","name_ar":"قصر ثنيان بن سعود","tag":"Najdi residence","icon":"🏰"},"geometry":{"type":"Point","coordinates":[46.5743063,24.7440945]}},{"type":"Feature","properties":{"id":"horse","category":"heritage","name_en":"Arabian Horse Museum","name_ar":"متحف الخيل العربي","tag":"Heritage of the Najdi horse","icon":"🐎"},"geometry":{"type":"Point","coordinates":[46.5746842,24.743639]}},{"type":"Feature","properties":{"id":"visitor","category":"heritage","name_en":"Visitor Centre","name_ar":"مركز الزوار","tag":"Gateway to At-Turaif","icon":"ℹ️"},"geometry":{"type":"Point","coordinates":[46.5761915,24.7423805]}},{"type":"Feature","properties":{"id":"salwa","category":"heritage","name_en":"Salwa Palace","name_ar":"قصر سلوى","tag":"Seat of the Imams","icon":"👑"},"geometry":{"type":"Point","coordinates":[46.5651742,24.7394583]}},{"type":"Feature","properties":{"id":"treasury","category":"heritage","name_en":"Trade & Treasury Museum","name_ar":"متحف التجارة والمال","tag":"Diriyah's caravan economy","icon":"⚖️"},"geometry":{"type":"Point","coordinates":[46.5760689,24.7428629]}},{"type":"Feature","properties":{"id":"moudhi","category":"heritage","name_en":"Moudhi Endowment","name_ar":"وقف موضي","tag":"Charitable waqf","icon":"📜"},"geometry":{"type":"Point","coordinates":[46.5762113,24.7430138]}}]}