{"type":"FeatureCollection","features":[{"type":"Feature","geometry":{"type":"Point","coordinates":[46.5803456,24.7447161]},"properties":{"data_quality":"approximate","id":"poi-bujairi-terrace","category":"hospitality","subcategory":"dining_district","name_en":"Bujairi Terrace","name_ar":"شرفة البجيري","tag":"Dining & lifestyle terrace overlooking At-Turaif"}},{"type":"Feature","geometry":{"type":"Point","coordinates":[46.5807413,24.7450754]},"properties":{"data_quality":"approximate","id":"poi-bujairi-cafe-row","category":"hospitality","subcategory":"cafe","name_en":"Bujairi Terrace – Café Row","name_ar":"صف المقاهي – شرفة البجيري","tag":"Cafés with views across Wadi Hanifah to At-Turaif"}},{"type":"Feature","geometry":{"type":"Point","coordinates":[46.57995,24.7443568]},"properties":{"data_quality":"approximate","id":"poi-bujairi-restaurants","category":"hospitality","subcategory":"restaurant","name_en":"Bujairi Terrace – Restaurant Row","name_ar":"صف المطاعم – شرفة البجيري","tag":"International & Saudi dining overlooking the escarpment"}},{"type":"Feature","geometry":{"type":"Point","coordinates":[46.5776751,24.7429195]},"properties":{"data_quality":"approximate","id":"poi-visitor-centre","category":"hospitality","subcategory":"visitor_centre","name_en":"Diriyah Visitor Centre","name_ar":"مركز زوار الدرعية","tag":"Gateway, tickets & orientation for At-Turaif"}},{"type":"Feature","geometry":{"type":"Point","coordinates":[46.5726823,24.7445122]},"properties":{"data_quality":"approximate","id":"poi-turaif-walking-museum","category":"hospitality","subcategory":"museum","name_en":"At-Turaif Walking Museums","name_ar":"متاحف الطريف","tag":"Guided walking-museum route through the historic quarter"}},{"type":"Feature","geometry":{"type":"Point","coordinates":[46.5813347,24.7454348]},"properties":{"data_quality":"approximate","id":"poi-wadi-viewpoint","category":"hospitality","subcategory":"viewpoint","name_en":"Wadi Hanifah Viewpoint","name_ar":"إطلالة وادي حنيفة","tag":"Panoramic viewpoint over the wadi and palm groves"}},{"type":"Feature","geometry":{"type":"Point","coordinates":[46.5767849,24.7420212]},"properties":{"data_quality":"approximate","id":"poi-parking-main","category":"amenity","subcategory":"parking","name_en":"Diriyah Gate Visitor Parking","name_ar":"مواقف زوار بوابة الدرعية","tag":"Main public parking for At-Turaif visitors"}},{"type":"Feature","geometry":{"type":"Point","coordinates":[46.5781697,24.7425602]},"properties":{"data_quality":"approximate","id":"poi-info-kiosk","category":"amenity","subcategory":"information","name_en":"Information Kiosk","name_ar":"كشك معلومات","tag":"Maps, tickets & guide info"}},{"type":"Feature","geometry":{"type":"Point","coordinates":[46.5778729,24.7422907]},"properties":{"data_quality":"approximate","id":"poi-restrooms-visitor","category":"amenity","subcategory":"restroom","name_en":"Public Restrooms","name_ar":"دورات مياه عامة","tag":"Visitor-centre facilities"}},{"type":"Feature","geometry":{"type":"Point","coordinates":[46.5736713,24.7431647]},"properties":{"data_quality":"approximate","id":"poi-musalla-turaif","category":"amenity","subcategory":"prayer_room","name_en":"Musalla (Prayer Room)","name_ar":"مصلى","tag":"Prayer facilities near the historic mosque"}},{"type":"Feature","geometry":{"type":"Point","coordinates":[46.5770817,24.7436381]},"properties":{"data_quality":"approximate","id":"poi-bike-share","category":"amenity","subcategory":"bicycle_rental","name_en":"Wadi Hanifah Bike Path Station","name_ar":"محطة دراجات - مسار وادي حنيفة","tag":"Shared-bike access to the Wadi Hanifah trail network"}},{"type":"Feature","geometry":{"type":"Point","coordinates":[46.5786642,24.7430991]},"properties":{"data_quality":"approximate","id":"poi-first-aid","category":"amenity","subcategory":"first_aid","name_en":"First Aid Point","name_ar":"نقطة إسعافات أولية","tag":"Medical first-response point"}},{"type":"Feature","geometry":{"type":"Point","coordinates":[46.5764882,24.7441771]},"properties":{"data_quality":"approximate","id":"poi-atm","category":"amenity","subcategory":"atm","name_en":"ATM","name_ar":"صراف آلي","tag":"Cash point"}},{"type":"Feature","geometry":{"type":"Point","coordinates":[46.5744626,24.744063]},"properties":{"data_quality":"approximate","id":"poi-souq","category":"amenity","subcategory":"marketplace","name_en":"Heritage Souq Stalls","name_ar":"أكشاك السوق التراثي","tag":"Traditional-craft & date market stalls"}}]}