{"type":"FeatureCollection","features":[{"type":"Feature","properties":{"id":"road-0","kind":"pedestrian","width_m":5},"geometry":{"type":"LineString","coordinates":[[46.5759828,24.742182],[46.5759492,24.7421281],[46.5759047,24.7420329],[46.575881,24.7419215],[46.5758968,24.7418236],[46.5759413,24.7417319],[46.5760896,24.7416098]]}},{"type":"Feature","properties":{"id":"road-1","kind":"vehicular","width_m":14},"geometry":{"type":"LineString","coordinates":[[46.586561,24.7435061],[46.5861516,24.7439103],[46.5857975,24.7443056],[46.5847095,24.7458417],[46.5845028,24.7462352],[46.5842664,24.7466879],[46.5839746,24.7474263],[46.5836868,24.7484774],[46.5835345,24.7493676],[46.5834791,24.7504222],[46.5834395,24.751157]]}},{"type":"Feature","properties":{"id":"road-2","kind":"vehicular","width_m":5},"geometry":{"type":"LineString","coordinates":[[46.5901613,24.7403036],[46.5892385,24.7409118],[46.5889151,24.7410528],[46.5886945,24.7411229],[46.5884967,24.7411543],[46.5882207,24.7411813],[46.5877212,24.7411489],[46.5872643,24.7411022],[46.5870853,24.7411121],[46.5868993,24.7411687],[46.5867242,24.7412738],[46.586561,24.741422],[46.5864335,24.7415226],[46.5862792,24.7415945],[46.5861605,24.7416098],[46.5860408,24.7416035],[46.5858994,24.7415586],[46.5857896,24.7414912],[46.5856758,24.7413582],[46.5853821,24.7409414],[46.5853197,24.7407986],[46.5852871,24.7406495],[46.5852812,24.7404078],[46.5852495,24.7402641],[46.5851823,24.7401536],[46.5850319,24.7400153],[46.5849024,24.7398661]]}},{"type":"Feature","properties":{"id":"road-3","kind":"pedestrian","width_m":5},"geometry":{"type":"LineString","coordinates":[[46.5754378,24.7421065],[46.5754171,24.7422556],[46.5752717,24.7422494],[46.5752746,24.7422853],[46.5754626,24.7423203],[46.5754675,24.7423958],[46.5754349,24.7424668],[46.575335,24.7424784],[46.575244,24.7425251],[46.5749443,24.7426761],[46.5748147,24.7427318]]}},{"type":"Feature","properties":{"id":"road-4","kind":"pedestrian","width_m":5},"geometry":{"type":"LineString","coordinates":[[46.569444,24.7417382],[46.5703579,24.7419996],[46.571168,24.742182],[46.5717871,24.7423536],[46.5720859,24.742465],[46.5722471,24.7425647],[46.5725834,24.7427201],[46.5727841,24.7428126],[46.5730522,24.7429456],[46.5729661,24.7431495],[46.5731036,24.7432465],[46.5731392,24.7432725],[46.5735428,24.743498],[46.5738316,24.7436992],[46.5740373,24.7438232],[46.5742361,24.7439373],[46.5744349,24.7439777],[46.5744755,24.7439867],[46.5745348,24.7439984],[46.5746535,24.7440478],[46.5749759,24.7440909],[46.5752756,24.7441816],[46.5757761,24.7444466]]}},{"type":"Feature","properties":{"id":"road-5","kind":"pedestrian","width_m":2.5},"geometry":{"type":"LineString","coordinates":[[46.5746159,24.7425521],[46.5745655,24.7425961],[46.5743696,24.7427668],[46.5739176,24.7432267]]}},{"type":"Feature","properties":{"id":"road-6","kind":"pedestrian","width_m":5},"geometry":{"type":"LineString","coordinates":[[46.5759007,24.743966],[46.5759413,24.7438475],[46.5759294,24.7437513],[46.5757791,24.7436139],[46.5757365,24.7435825],[46.5756574,24.7435124],[46.5756287,24.7434881],[46.5753815,24.7433049],[46.5752252,24.7431692],[46.5752242,24.7431674],[46.5751451,24.7430093],[46.5749819,24.7428997],[46.5748147,24.7427318],[46.5746159,24.7425521],[46.5741916,24.74242],[46.5740601,24.7424712],[46.5738375,24.742632],[46.5735111,24.7429743],[46.5731392,24.7432725]]}},{"type":"Feature","properties":{"id":"road-7","kind":"pedestrian","width_m":5},"geometry":{"type":"LineString","coordinates":[[46.5729661,24.7431495],[46.5724528,24.7429303],[46.5723905,24.7429033],[46.5720859,24.742465]]}},{"type":"Feature","properties":{"id":"road-8","kind":"pedestrian","width_m":2.5},"geometry":{"type":"LineString","coordinates":[[46.5759215,24.744205],[46.5757761,24.7444466],[46.5756367,24.7446182],[46.57542,24.7444924],[46.5751985,24.7444502],[46.5748998,24.744541],[46.5745388,24.7442822],[46.5744428,24.7442238],[46.5744359,24.7440217],[46.5744349,24.7439777]]}},{"type":"Feature","properties":{"id":"road-9","kind":"pedestrian","width_m":2.5},"geometry":{"type":"LineString","coordinates":[[46.5730522,24.7429456],[46.5732045,24.7428422],[46.5734903,24.7425162],[46.5738939,24.7423212],[46.5741214,24.7421344],[46.5742974,24.7419152]]}},{"type":"Feature","properties":{"id":"road-10","kind":"pedestrian","width_m":5},"geometry":{"type":"LineString","coordinates":[[46.5745605,24.7417481],[46.5748662,24.7412702]]}},{"type":"Feature","properties":{"id":"road-11","kind":"pedestrian","width_m":2.5},"geometry":{"type":"LineString","coordinates":[[46.5742974,24.7419152],[46.5745605,24.7417481]]}},{"type":"Feature","properties":{"id":"road-12","kind":"pedestrian","width_m":5},"geometry":{"type":"LineString","coordinates":[[46.5760896,24.7416098],[46.5761272,24.7415783],[46.5770886,24.7407806],[46.5771341,24.740742]]}},{"type":"Feature","properties":{"id":"road-13","kind":"pedestrian","width_m":2.5},"geometry":{"type":"LineString","coordinates":[[46.5741916,24.74242],[46.5742529,24.742155]]}},{"type":"Feature","properties":{"id":"road-14","kind":"pedestrian","width_m":2.5},"geometry":{"type":"LineString","coordinates":[[46.5740601,24.7424712],[46.5740284,24.7424425],[46.5738939,24.7423212]]}},{"type":"Feature","properties":{"id":"road-15","kind":"pedestrian","width_m":5},"geometry":{"type":"LineString","coordinates":[[46.5735428,24.743498],[46.5737871,24.743145],[46.5739176,24.7432267],[46.5740779,24.7433669],[46.5740798,24.7433687],[46.5738316,24.7436992]]}},{"type":"Feature","properties":{"id":"road-16","kind":"pedestrian","width_m":2.5},"geometry":{"type":"LineString","coordinates":[[46.5745388,24.7442822],[46.5746535,24.7440478],[46.5747455,24.7438304],[46.5748019,24.743737]]}},{"type":"Feature","properties":{"id":"road-17","kind":"pedestrian","width_m":5},"geometry":{"type":"LineString","coordinates":[[46.5746179,24.7433417],[46.5747277,24.7434181],[46.5749136,24.7435465],[46.5749572,24.7435744]]}},{"type":"Feature","properties":{"id":"road-18","kind":"pedestrian","width_m":2.5},"geometry":{"type":"LineString","coordinates":[[46.5750086,24.7436076],[46.5751421,24.74348],[46.5753548,24.7433246],[46.5753815,24.7433049],[46.5754052,24.7432806],[46.5755328,24.7431441],[46.5755724,24.7430192],[46.5756574,24.7429797],[46.5757267,24.7428746],[46.5757603,24.7428926]]}},{"type":"Feature","properties":{"id":"road-19","kind":"pedestrian","width_m":5},"geometry":{"type":"LineString","coordinates":[[46.5756287,24.7434881],[46.5758671,24.7433157],[46.5760758,24.7431162],[46.5761025,24.7430911],[46.5761173,24.7430075]]}},{"type":"Feature","properties":{"id":"road-20","kind":"pedestrian","width_m":2.5},"geometry":{"type":"LineString","coordinates":[[46.5749759,24.7440909],[46.5749918,24.7439867],[46.5747455,24.7438304]]}},{"type":"Feature","properties":{"id":"road-21","kind":"pedestrian","width_m":2.5},"geometry":{"type":"LineString","coordinates":[[46.5757791,24.7436139],[46.5759265,24.7435196],[46.5761173,24.7434441]]}},{"type":"Feature","properties":{"id":"road-22","kind":"vehicular","width_m":6},"geometry":{"type":"LineString","coordinates":[[46.565278,24.7334666],[46.5651138,24.7334729],[46.5649289,24.7334567],[46.5645105,24.7334944],[46.5644818,24.7334971],[46.5644116,24.7335178],[46.5643868,24.733525],[46.5642068,24.7335672],[46.563923,24.7336552],[46.5635857,24.733781],[46.5633681,24.7339355],[46.5629161,24.7342104]]}},{"type":"Feature","properties":{"id":"road-23","kind":"vehicular","width_m":8},"geometry":{"type":"LineString","coordinates":[[46.586471,24.7429707],[46.5858024,24.7421353],[46.5855027,24.7416807],[46.5849795,24.7408642],[46.5848806,24.7406495],[46.5848944,24.7404447]]}},{"type":"Feature","properties":{"id":"road-24","kind":"vehicular","width_m":8},"geometry":{"type":"LineString","coordinates":[[46.5761599,24.7499389],[46.5754151,24.7495805]]}},{"type":"Feature","properties":{"id":"road-25","kind":"vehicular","width_m":8},"geometry":{"type":"LineString","coordinates":[[46.5754151,24.7495805],[46.5749581,24.7491897]]}},{"type":"Feature","properties":{"id":"road-26","kind":"vehicular","width_m":8},"geometry":{"type":"LineString","coordinates":[[46.5751708,24.7499829],[46.5751599,24.7501132],[46.5752361,24.7501761],[46.5754477,24.7501338],[46.5757326,24.750124],[46.5758829,24.7501069],[46.5761193,24.7500611],[46.5763043,24.7499928],[46.5763992,24.7498266],[46.576604,24.749311],[46.5765842,24.7491807],[46.5764981,24.7491125],[46.5763715,24.7490927]]}},{"type":"Feature","properties":{"id":"road-27","kind":"vehicular","width_m":8},"geometry":{"type":"LineString","coordinates":[[46.578955,24.7509684],[46.5784753,24.7508031],[46.5774229,24.7504393],[46.576875,24.7502722],[46.5766762,24.7501859],[46.5763043,24.7499928],[46.5761599,24.7499389]]}},{"type":"Feature","properties":{"id":"road-28","kind":"vehicular","width_m":6},"geometry":{"type":"LineString","coordinates":[[46.5825414,24.7359756],[46.5823871,24.7355228],[46.5822279,24.7350548],[46.5820716,24.7345922],[46.5818065,24.7338151],[46.5815593,24.7330857],[46.5813891,24.7325871],[46.5812279,24.732111],[46.5810578,24.7316107]]}},{"type":"Feature","properties":{"id":"road-29","kind":"vehicular","width_m":6},"geometry":{"type":"LineString","coordinates":[[46.5818184,24.7356845],[46.5823871,24.7355228],[46.5829034,24.7353818],[46.5841892,24.7350224]]}},{"type":"Feature","properties":{"id":"road-30","kind":"vehicular","width_m":6},"geometry":{"type":"LineString","coordinates":[[46.5822279,24.7350548],[46.5827353,24.7349191],[46.5833337,24.7347601],[46.5840171,24.7345661],[46.5846393,24.7343954]]}},{"type":"Feature","properties":{"id":"road-31","kind":"vehicular","width_m":6},"geometry":{"type":"LineString","coordinates":[[46.583301,24.7305165],[46.5835226,24.731007],[46.5837402,24.7314562],[46.5841368,24.7322035],[46.5843307,24.7325862],[46.5845433,24.7330156],[46.5850052,24.7338322],[46.5852713,24.7343164],[46.5860675,24.7355111]]}},{"type":"Feature","properties":{"id":"road-32","kind":"vehicular","width_m":6},"geometry":{"type":"LineString","coordinates":[[46.5820716,24.7345922],[46.5826047,24.7344448],[46.5831665,24.7342894],[46.5838707,24.7340945],[46.5843969,24.7339256]]}},{"type":"Feature","properties":{"id":"road-33","kind":"vehicular","width_m":6},"geometry":{"type":"LineString","coordinates":[[46.5820845,24.7329393],[46.5826047,24.7344448]]}},{"type":"Feature","properties":{"id":"road-34","kind":"vehicular","width_m":6},"geometry":{"type":"LineString","coordinates":[[46.5826196,24.732791],[46.5831665,24.7342894],[46.5833337,24.7347601]]}},{"type":"Feature","properties":{"id":"road-35","kind":"vehicular","width_m":6},"geometry":{"type":"LineString","coordinates":[[46.5858321,24.7361714],[46.5855077,24.735671],[46.5851971,24.7352479],[46.5846848,24.7344745],[46.5846393,24.7343954],[46.5843969,24.7339256],[46.5843584,24.733851],[46.584028,24.7331953],[46.5838252,24.7327731],[46.5836462,24.7324623],[46.583399,24.7320131],[46.583218,24.7316574],[46.582939,24.7311301],[46.5827709,24.7306432],[46.5825859,24.7301823]]}},{"type":"Feature","properties":{"id":"road-36","kind":"vehicular","width_m":6},"geometry":{"type":"LineString","coordinates":[[46.5840171,24.7345661],[46.5841892,24.7350224],[46.5843297,24.7354896]]}},{"type":"Feature","properties":{"id":"road-37","kind":"vehicular","width_m":6},"geometry":{"type":"LineString","coordinates":[[46.582939,24.7311301],[46.5824247,24.7312388],[46.5823851,24.7312495],[46.5819143,24.7313771],[46.5810578,24.7316107],[46.5805257,24.731767],[46.5799342,24.7319493]]}},{"type":"Feature","properties":{"id":"road-38","kind":"vehicular","width_m":6},"geometry":{"type":"LineString","coordinates":[[46.5814,24.7363007],[46.5819737,24.7361381],[46.5825414,24.7359756],[46.5834454,24.7357447],[46.5843297,24.7354896],[46.5847629,24.7353728],[46.5851971,24.7352479]]}},{"type":"Feature","properties":{"id":"road-39","kind":"vehicular","width_m":6},"geometry":{"type":"LineString","coordinates":[[46.5803743,24.7313223],[46.5805257,24.731767]]}},{"type":"Feature","properties":{"id":"road-40","kind":"vehicular","width_m":6},"geometry":{"type":"LineString","coordinates":[[46.5815593,24.7330857],[46.5820845,24.7329393],[46.582579,24.7328009],[46.5826196,24.732791],[46.5831744,24.7326365],[46.5836462,24.7324623]]}},{"type":"Feature","properties":{"id":"road-41","kind":"vehicular","width_m":6},"geometry":{"type":"LineString","coordinates":[[46.5838707,24.7340945],[46.5831744,24.7326365]]}},{"type":"Feature","properties":{"id":"road-42","kind":"vehicular","width_m":5},"geometry":{"type":"LineString","coordinates":[[46.5795346,24.751475],[46.5823317,24.7514849]]}},{"type":"Feature","properties":{"id":"road-43","kind":"vehicular","width_m":5},"geometry":{"type":"LineString","coordinates":[[46.5823367,24.7512837],[46.5795346,24.7512513]]}},{"type":"Feature","properties":{"id":"road-44","kind":"vehicular","width_m":14},"geometry":{"type":"LineString","coordinates":[[46.5836858,24.751122],[46.583755,24.7498338],[46.5838292,24.7491556],[46.5838806,24.7489256],[46.5839123,24.748666],[46.5840211,24.7480767],[46.5842179,24.747456],[46.584486,24.7467706],[46.5848074,24.7461373],[46.5851289,24.7455965],[46.585568,24.7450207],[46.5858469,24.744655],[46.586205,24.7442517],[46.5866214,24.7438178],[46.586748,24.7436804]]}},{"type":"Feature","properties":{"id":"road-45","kind":"vehicular","width_m":8},"geometry":{"type":"LineString","coordinates":[[46.5682492,24.7344269],[46.5687161,24.7344628],[46.5695034,24.7344745],[46.5697398,24.7345095],[46.5698218,24.7345239],[46.5700612,24.7345661],[46.5703015,24.7346146],[46.5704578,24.7346793],[46.5705983,24.73477],[46.5708841,24.734947],[46.5713124,24.7352506],[46.5714133,24.7353225]]}},{"type":"Feature","properties":{"id":"road-46","kind":"vehicular","width_m":5},"geometry":{"type":"LineString","coordinates":[[46.5661158,24.7327578],[46.566001,24.732668]]}},{"type":"Feature","properties":{"id":"road-47","kind":"vehicular","width_m":8},"geometry":{"type":"LineString","coordinates":[[46.5718732,24.7355938],[46.5717585,24.7355039],[46.5715547,24.7353449],[46.5714647,24.7352677],[46.5713648,24.7352003],[46.5707437,24.7347799],[46.5705587,24.7346613],[46.5703678,24.7345571],[46.5699781,24.7344412],[46.5698456,24.7344251],[46.569714,24.734408],[46.5684381,24.7344017],[46.5682492,24.7344269]]}},{"type":"Feature","properties":{"id":"road-48","kind":"vehicular","width_m":8},"geometry":{"type":"LineString","coordinates":[[46.5740907,24.738975],[46.5740432,24.7389759],[46.5739987,24.7389894],[46.5739621,24.7390163],[46.5739364,24.7390523],[46.5739255,24.7390945],[46.5739305,24.7391376],[46.5739473,24.7391708],[46.573974,24.7391987],[46.5740076,24.7392185],[46.5740462,24.7392292],[46.5740868,24.7392292],[46.5741303,24.7392176],[46.5741679,24.7391942],[46.5741916,24.7391655],[46.5742064,24.7391322],[46.5742104,24.7390963],[46.5742025,24.7390604],[46.5741847,24.7390289],[46.5741629,24.7390065],[46.5741352,24.7389894],[46.5740907,24.738975]]}},{"type":"Feature","properties":{"id":"road-49","kind":"vehicular","width_m":8},"geometry":{"type":"LineString","coordinates":[[46.5758859,24.7388744],[46.5758167,24.7388519],[46.5749176,24.7390289],[46.5745309,24.7391017],[46.5743469,24.7391062],[46.5741847,24.7390289]]}},{"type":"Feature","properties":{"id":"road-50","kind":"vehicular","width_m":8},"geometry":{"type":"LineString","coordinates":[[46.5868548,24.7355354],[46.5869636,24.7357707],[46.5869418,24.7358139],[46.5868766,24.7358597],[46.5868241,24.7358866],[46.5867846,24.7359001],[46.5867045,24.7359261],[46.5858321,24.7361714],[46.5844761,24.7365738],[46.5835523,24.7368568]]}},{"type":"Feature","properties":{"id":"road-51","kind":"vehicular","width_m":8},"geometry":{"type":"LineString","coordinates":[[46.5835908,24.7369332],[46.5867737,24.7359953],[46.5868192,24.7359827],[46.5868815,24.7359666],[46.5869676,24.7359558],[46.587022,24.7359765],[46.5871495,24.7360663]]}},{"type":"Feature","properties":{"id":"road-52","kind":"vehicular","width_m":8},"geometry":{"type":"LineString","coordinates":[[46.5794189,24.731033],[46.579499,24.7311355],[46.5795376,24.7311974],[46.5795504,24.7312289],[46.5796988,24.7316026],[46.5801389,24.7329204],[46.580221,24.7331665],[46.5805573,24.7341583],[46.5807551,24.7347206],[46.5807868,24.7347961],[46.5810924,24.7357294],[46.5816255,24.7372727],[46.5816334,24.7373113],[46.5816334,24.7373329],[46.5816156,24.7373814]]}},{"type":"Feature","properties":{"id":"road-53","kind":"vehicular","width_m":8},"geometry":{"type":"LineString","coordinates":[[46.581766,24.7373293],[46.5817403,24.7373095],[46.5817244,24.7372916],[46.5817007,24.7372574],[46.5815741,24.7368263],[46.5814,24.7363007],[46.5809055,24.734832],[46.5799342,24.7319493],[46.5798007,24.7315586],[46.579771,24.7314696],[46.5796711,24.7311992],[46.5796563,24.7311669],[46.5796306,24.7310995],[46.5796039,24.7310151]]}},{"type":"Feature","properties":{"id":"road-54","kind":"vehicular","width_m":8},"geometry":{"type":"LineString","coordinates":[[46.5840478,24.7394062],[46.5839845,24.7394619],[46.583939,24.7395338],[46.5839251,24.739611],[46.5839331,24.7397583],[46.5840161,24.7400054],[46.5840211,24.7402039],[46.584031,24.7403629],[46.5840587,24.7404339],[46.5841091,24.7405075],[46.5841922,24.7405722],[46.5844147,24.7405992],[46.5845799,24.7405794],[46.584756,24.740512],[46.5848944,24.7404447],[46.5850082,24.7402982],[46.5850062,24.7401114],[46.5849024,24.7398661],[46.5848658,24.7396452],[46.5848074,24.7395257],[46.5847223,24.7394206],[46.5845819,24.7393451],[46.5844316,24.7392984],[46.5841655,24.7393478],[46.5840478,24.7394062]]}},{"type":"Feature","properties":{"id":"road-55","kind":"vehicular","width_m":8},"geometry":{"type":"LineString","coordinates":[[46.5834405,24.7370526],[46.5834721,24.7371622],[46.584027,24.7389076],[46.5841121,24.7391969],[46.5841091,24.7392355],[46.5841081,24.739284],[46.5840478,24.7394062]]}},{"type":"Feature","properties":{"id":"road-56","kind":"vehicular","width_m":5},"geometry":{"type":"LineString","coordinates":[[46.5849122,24.7409926],[46.5850893,24.7415657],[46.5853148,24.7420814],[46.5855532,24.7425296],[46.5857114,24.7428485],[46.5857569,24.7430884],[46.5857619,24.7433902],[46.5857193,24.7436507],[46.585658,24.7438861],[46.5851991,24.7446227]]}},{"type":"Feature","properties":{"id":"road-57","kind":"vehicular","width_m":8},"geometry":{"type":"LineString","coordinates":[[46.5725675,24.7406144],[46.5725814,24.7404464],[46.572612,24.7401051],[46.5728079,24.739753],[46.5728761,24.7396874],[46.5729503,24.7396416],[46.5730532,24.7395904],[46.573159,24.7395553],[46.5736427,24.7394826],[46.5737366,24.7394637],[46.5738148,24.7394224],[46.5738731,24.7393532]]}},{"type":"Feature","properties":{"id":"road-58","kind":"vehicular","width_m":8},"geometry":{"type":"LineString","coordinates":[[46.5738731,24.7393532],[46.5739869,24.7392804],[46.5740868,24.7392292]]}},{"type":"Feature","properties":{"id":"road-59","kind":"vehicular","width_m":6},"geometry":{"type":"LineString","coordinates":[[46.5788215,24.7432384],[46.5785307,24.7436777],[46.5784021,24.7438924],[46.5782706,24.7440442]]}},{"type":"Feature","properties":{"id":"road-60","kind":"vehicular","width_m":6},"geometry":{"type":"LineString","coordinates":[[46.5786514,24.7311579],[46.5781351,24.7313466],[46.5775505,24.7315541],[46.5773666,24.7316349],[46.5772004,24.7317247],[46.5770481,24.7318281],[46.5769561,24.7319062],[46.5768651,24.7319906],[46.5767385,24.732182],[46.5768661,24.7326141],[46.5770797,24.7331836],[46.577233,24.7336337]]}},{"type":"Feature","properties":{"id":"road-61","kind":"vehicular","width_m":6},"geometry":{"type":"LineString","coordinates":[[46.577962,24.7334118],[46.5782013,24.7340837]]}},{"type":"Feature","properties":{"id":"road-62","kind":"vehicular","width_m":6},"geometry":{"type":"LineString","coordinates":[[46.5803684,24.7359261],[46.5810924,24.7357294]]}},{"type":"Feature","properties":{"id":"road-63","kind":"vehicular","width_m":6},"geometry":{"type":"LineString","coordinates":[[46.576783,24.7344188],[46.576148,24.7346173]]}},{"type":"Feature","properties":{"id":"road-64","kind":"vehicular","width_m":6},"geometry":{"type":"LineString","coordinates":[[46.5766109,24.7338798],[46.5772518,24.7336822]]}},{"type":"Feature","properties":{"id":"road-65","kind":"vehicular","width_m":6},"geometry":{"type":"LineString","coordinates":[[46.5664748,24.7339948],[46.5666568,24.7337998],[46.5670781,24.7333444]]}},{"type":"Feature","properties":{"id":"road-66","kind":"vehicular","width_m":6},"geometry":{"type":"LineString","coordinates":[[46.5795495,24.7333597],[46.580221,24.7331665]]}},{"type":"Feature","properties":{"id":"road-67","kind":"vehicular","width_m":6},"geometry":{"type":"LineString","coordinates":[[46.5776821,24.7348967],[46.5786078,24.7346541]]}},{"type":"Feature","properties":{"id":"road-68","kind":"vehicular","width_m":8},"geometry":{"type":"LineString","coordinates":[[46.5745704,24.7315065],[46.574881,24.7318972],[46.5752865,24.7325548],[46.575602,24.7333507],[46.5758147,24.7339705],[46.5759799,24.734488],[46.5762904,24.7353485],[46.576332,24.7354294],[46.5764151,24.7354815],[46.576604,24.7355408],[46.5768463,24.7355938],[46.577322,24.7356683],[46.5776346,24.7356513],[46.5784367,24.7354977],[46.5792864,24.7353045],[46.5799273,24.7351051],[46.5800667,24.7350719],[46.5807868,24.7347961]]}},{"type":"Feature","properties":{"id":"road-69","kind":"vehicular","width_m":8},"geometry":{"type":"LineString","coordinates":[[46.5807551,24.7347206],[46.5800371,24.7349775],[46.5799065,24.7350117],[46.5794852,24.7351428],[46.5792508,24.7352219],[46.5788769,24.7353081],[46.578414,24.735406],[46.5778898,24.7355165],[46.5776296,24.7355686],[46.5773428,24.7355947],[46.5771964,24.7355704],[46.5768681,24.7355021],[46.5766485,24.7354536],[46.5764784,24.7354033],[46.576419,24.7353467],[46.5763913,24.7352839],[46.576148,24.7346173],[46.5760877,24.7344574],[46.5760471,24.7343478],[46.575604,24.7330668],[46.5753904,24.732535],[46.57497,24.7318379],[46.5746209,24.7314166],[46.5744171,24.7312082],[46.5739928,24.7307339],[46.5732025,24.7298904],[46.5728405,24.7295014],[46.5718653,24.7284414],[46.5717812,24.7283606],[46.5716793,24.7282393],[46.5716605,24.7282186],[46.5716358,24.7281881],[46.5716121,24.7281585],[46.5715834,24.7281189],[46.5715686,24.7280965],[46.5715577,24.7280722],[46.5715488,24.7280471],[46.5715468,24.7280219],[46.5715488,24.7279267]]}},{"type":"Feature","properties":{"id":"road-70","kind":"vehicular","width_m":6},"geometry":{"type":"LineString","coordinates":[[46.5783695,24.7320059],[46.5789956,24.7318254],[46.5796988,24.7316026]]}},{"type":"Feature","properties":{"id":"road-71","kind":"vehicular","width_m":6},"geometry":{"type":"LineString","coordinates":[[46.5783853,24.7340298],[46.5786078,24.7346541],[46.5788769,24.7353081]]}},{"type":"Feature","properties":{"id":"road-72","kind":"vehicular","width_m":6},"geometry":{"type":"LineString","coordinates":[[46.5679802,24.7323437],[46.567091,24.7332761],[46.5670781,24.7333444]]}},{"type":"Feature","properties":{"id":"road-73","kind":"vehicular","width_m":6},"geometry":{"type":"LineString","coordinates":[[46.5760471,24.7343478],[46.576694,24.7341529],[46.5773547,24.7339651]]}},{"type":"Feature","properties":{"id":"road-74","kind":"vehicular","width_m":6},"geometry":{"type":"LineString","coordinates":[[46.5805573,24.7341583],[46.5798966,24.7343406],[46.5792676,24.7345311]]}},{"type":"Feature","properties":{"id":"road-75","kind":"vehicular","width_m":6},"geometry":{"type":"LineString","coordinates":[[46.5768661,24.7326141],[46.5778166,24.7323356]]}},{"type":"Feature","properties":{"id":"road-76","kind":"vehicular","width_m":6},"geometry":{"type":"LineString","coordinates":[[46.5782013,24.7340837],[46.5783853,24.7340298],[46.5790223,24.7338421]]}},{"type":"Feature","properties":{"id":"road-77","kind":"vehicular","width_m":6},"geometry":{"type":"LineString","coordinates":[[46.5685924,24.7327353],[46.5681088,24.7323374],[46.5680435,24.7322808],[46.567272,24.7316241]]}},{"type":"Feature","properties":{"id":"road-78","kind":"vehicular","width_m":6},"geometry":{"type":"LineString","coordinates":[[46.5789956,24.7318254],[46.5793516,24.7328216],[46.5794555,24.7331108],[46.5795495,24.7333597],[46.5798966,24.7343406]]}},{"type":"Feature","properties":{"id":"road-79","kind":"vehicular","width_m":6},"geometry":{"type":"LineString","coordinates":[[46.5760877,24.7344574],[46.5759799,24.734488],[46.5755209,24.7346128],[46.5754616,24.7348419]]}},{"type":"Feature","properties":{"id":"road-80","kind":"vehicular","width_m":6},"geometry":{"type":"LineString","coordinates":[[46.5770797,24.7331836],[46.5778027,24.7329653],[46.5780124,24.7329024],[46.5786237,24.7327192]]}},{"type":"Feature","properties":{"id":"road-81","kind":"vehicular","width_m":6},"geometry":{"type":"LineString","coordinates":[[46.5800371,24.7349775],[46.5800667,24.7350719],[46.5802883,24.7357052],[46.5803684,24.7359261],[46.5809144,24.7375081],[46.5809579,24.7376204]]}},{"type":"Feature","properties":{"id":"road-82","kind":"vehicular","width_m":6},"geometry":{"type":"LineString","coordinates":[[46.5672077,24.7316879],[46.5679802,24.7323437],[46.5680484,24.7323949],[46.5685529,24.7327901],[46.5685924,24.7327353]]}},{"type":"Feature","properties":{"id":"road-83","kind":"vehicular","width_m":6},"geometry":{"type":"LineString","coordinates":[[46.5781351,24.7313466],[46.5783695,24.7320059],[46.5786237,24.7327192],[46.5787275,24.7330129],[46.5788225,24.7332788],[46.5790223,24.7338421],[46.5792676,24.7345311],[46.5794852,24.7351428]]}},{"type":"Feature","properties":{"id":"road-84","kind":"vehicular","width_m":6},"geometry":{"type":"LineString","coordinates":[[46.5670781,24.7333444],[46.5671355,24.7333219],[46.5680484,24.7323949],[46.5681088,24.7323374],[46.5685964,24.7318406],[46.5689702,24.7314723],[46.5690533,24.7314481],[46.5691423,24.7314382],[46.5693095,24.7314166]]}},{"type":"Feature","properties":{"id":"road-85","kind":"vehicular","width_m":6},"geometry":{"type":"LineString","coordinates":[[46.5762242,24.732862],[46.5766109,24.7338798],[46.576694,24.7341529],[46.576783,24.7344188],[46.5771668,24.7354051],[46.5771964,24.7355704]]}},{"type":"Feature","properties":{"id":"road-86","kind":"vehicular","width_m":6},"geometry":{"type":"LineString","coordinates":[[46.5685924,24.7327353],[46.5694687,24.7326994],[46.5694509,24.7318361],[46.569443,24.7314445],[46.5693095,24.7314166],[46.5689851,24.731396],[46.5688951,24.7314526],[46.5680435,24.7322808],[46.5679802,24.7323437]]}},{"type":"Feature","properties":{"id":"road-87","kind":"vehicular","width_m":6},"geometry":{"type":"LineString","coordinates":[[46.5707813,24.728498],[46.5708901,24.7292768],[46.5710364,24.7302515],[46.5711423,24.7309881],[46.5711482,24.7310582],[46.5711591,24.7311507],[46.5712125,24.7316035],[46.5713925,24.7326419],[46.571531,24.7333363],[46.5717446,24.734355],[46.5717664,24.734461],[46.5717624,24.7346191],[46.571618,24.7350745],[46.5714647,24.7352677]]}},{"type":"Feature","properties":{"id":"road-88","kind":"vehicular","width_m":8},"geometry":{"type":"LineString","coordinates":[[46.5741679,24.7391942],[46.5742856,24.7391843],[46.5744062,24.7391843],[46.5747148,24.7391412],[46.5750719,24.7390693],[46.5752232,24.7390388],[46.575333,24.7390586],[46.5754161,24.7391232],[46.5754507,24.7392032],[46.5754537,24.739293]]}},{"type":"Feature","properties":{"id":"road-89","kind":"vehicular","width_m":4},"geometry":{"type":"LineString","coordinates":[[46.5700048,24.7403279],[46.56981,24.7404357],[46.5696102,24.7404357],[46.5693332,24.7403764],[46.5690603,24.7403413],[46.5685697,24.7402578],[46.5679159,24.7400853],[46.5676281,24.7400377],[46.5674807,24.7400539],[46.5672107,24.7401581],[46.5670593,24.7402964]]}},{"type":"Feature","properties":{"id":"road-90","kind":"vehicular","width_m":8},"geometry":{"type":"LineString","coordinates":[[46.5749581,24.7491897],[46.5749215,24.7492436],[46.5749334,24.7493577],[46.5751124,24.7495625],[46.5753182,24.7497655],[46.5753607,24.7498078]]}},{"type":"Feature","properties":{"id":"road-91","kind":"vehicular","width_m":8},"geometry":{"type":"LineString","coordinates":[[46.5754477,24.7501338],[46.5757217,24.7500548],[46.5759274,24.7499272],[46.5764863,24.7494484],[46.576604,24.749311],[46.5767622,24.7490074],[46.5768176,24.7489427],[46.576965,24.7487837]]}},{"type":"Feature","properties":{"id":"road-92","kind":"vehicular","width_m":4},"geometry":{"type":"LineString","coordinates":[[46.5758829,24.7501069],[46.5759274,24.7501832]]}},{"type":"Feature","properties":{"id":"road-93","kind":"vehicular","width_m":4},"geometry":{"type":"LineString","coordinates":[[46.5749581,24.7491897],[46.5749018,24.748975],[46.5748681,24.7488403]]}},{"type":"Feature","properties":{"id":"road-94","kind":"vehicular","width_m":6},"geometry":{"type":"LineString","coordinates":[[46.5745704,24.7476967],[46.5745724,24.7477524],[46.5746001,24.7486031],[46.5748681,24.7488403],[46.5753083,24.748763],[46.5754408,24.7486534],[46.5757415,24.7481513],[46.5757672,24.7479914],[46.5760748,24.7475395],[46.5762904,24.7470688],[46.5763458,24.7468379],[46.5763567,24.7466107],[46.5762311,24.7465235],[46.5759393,24.7465379],[46.5757672,24.7465469],[46.5756188,24.7465199],[46.5754408,24.7465666],[46.5751668,24.7467472],[46.5751658,24.7468424],[46.5751629,24.7471317],[46.5750353,24.7473203],[46.5749522,24.7474425],[46.5745704,24.7476967]]}},{"type":"Feature","properties":{"id":"road-95","kind":"vehicular","width_m":4},"geometry":{"type":"LineString","coordinates":[[46.5703906,24.7502327],[46.5699395,24.7502309],[46.569713,24.7501536],[46.5695489,24.7502147],[46.5692215,24.7502659],[46.5687418,24.7502695],[46.5684213,24.7505525],[46.5679278,24.7507231],[46.5674342,24.7507941],[46.5668368,24.7509567],[46.566276,24.7510914],[46.5658388,24.7512433],[46.5653957,24.7514436],[46.5647508,24.7522889],[46.564194,24.7529402],[46.5640268,24.7530821],[46.5637202,24.7530498],[46.5635066,24.7529393],[46.5638003,24.7516044],[46.5639032,24.7513753],[46.5639833,24.7512019],[46.5642039,24.7510142],[46.5646203,24.7507636],[46.5644591,24.7505695],[46.5643552,24.750468]]}},{"type":"Feature","properties":{"id":"road-96","kind":"vehicular","width_m":6},"geometry":{"type":"LineString","coordinates":[[46.5655134,24.7333731],[46.565464,24.733401],[46.5653057,24.7334531],[46.565278,24.7334666],[46.5653106,24.7334756],[46.5654877,24.7334693],[46.5656351,24.733533]]}},{"type":"Feature","properties":{"id":"road-97","kind":"vehicular","width_m":6},"geometry":{"type":"LineString","coordinates":[[46.5657013,24.7329402],[46.5656074,24.7329491],[46.565555,24.7329375],[46.5655025,24.732889],[46.5654936,24.7329222],[46.5655075,24.7329707],[46.5655915,24.7331019]]}},{"type":"Feature","properties":{"id":"road-98","kind":"vehicular","width_m":6},"geometry":{"type":"LineString","coordinates":[[46.5655025,24.732889],[46.56537,24.7324551],[46.5650812,24.7316223],[46.5648537,24.7309666],[46.5634413,24.7268945],[46.5634057,24.7267912],[46.5633641,24.7266717],[46.5632128,24.7262963],[46.5632019,24.7262558],[46.5630249,24.7255857],[46.5628449,24.7246901],[46.5627974,24.7243748],[46.5625303,24.7225728]]}},{"type":"Feature","properties":{"id":"road-99","kind":"vehicular","width_m":12},"geometry":{"type":"LineString","coordinates":[[46.5657221,24.7334297],[46.565729,24.7332546],[46.5657735,24.7331441],[46.5658863,24.7330066],[46.5661158,24.7327578],[46.5666439,24.7322422],[46.5672077,24.7316879],[46.567272,24.7316241],[46.5689801,24.7299344],[46.5690345,24.7299003]]}},{"type":"Feature","properties":{"id":"road-100","kind":"vehicular","width_m":10},"geometry":{"type":"LineString","coordinates":[[46.5628014,24.7349012],[46.5629576,24.7353063],[46.5631732,24.7356809],[46.5634324,24.7361696],[46.5636945,24.7368047],[46.56392,24.7374245],[46.5639546,24.7375117],[46.5639991,24.7376042],[46.5640496,24.7376814],[46.5641129,24.7377587],[46.5643423,24.7379509],[46.5645233,24.7381126],[46.5647192,24.738533],[46.5648151,24.7386346],[46.5650406,24.7387945],[46.5652671,24.7388798],[46.5656301,24.7389499],[46.5661078,24.7390163],[46.5668734,24.7391161],[46.5671503,24.7391888],[46.567543,24.7393343],[46.5680652,24.7395239],[46.5689297,24.739806],[46.5690988,24.7398751],[46.5691117,24.7398805],[46.5693243,24.7399748],[46.5697338,24.7402129],[46.5700048,24.7403279],[46.5702857,24.7404303],[46.5706725,24.7405462],[46.5710404,24.7406234],[46.5712372,24.740645],[46.5714271,24.7406459],[46.571711,24.7406279],[46.5725675,24.7406144],[46.5731016,24.740671],[46.5733232,24.7407034],[46.5735487,24.7407564],[46.5741253,24.7409333],[46.5749047,24.7412325],[46.5757158,24.7416304],[46.5760224,24.741829],[46.5765743,24.7423338],[46.5771381,24.7428638],[46.5777157,24.7434261],[46.5782706,24.7440442],[46.5785139,24.7443236],[46.5788858,24.7447476],[46.5790974,24.7450961],[46.5792438,24.745336],[46.5793259,24.7455165],[46.5793823,24.7456926],[46.5794021,24.745813],[46.5794169,24.7460115],[46.5794189,24.7462028],[46.5794031,24.7463502],[46.5793546,24.7465083],[46.5792913,24.7466565],[46.5792122,24.7467849],[46.5791291,24.7469053],[46.5788779,24.747138],[46.5785772,24.7473841],[46.578142,24.7477533],[46.576965,24.7487837]]}},{"type":"Feature","properties":{"id":"road-101","kind":"vehicular","width_m":4},"geometry":{"type":"LineString","coordinates":[[46.5647192,24.738533],[46.5645916,24.7386184],[46.564468,24.7386256],[46.5643483,24.7385923],[46.5641752,24.7385384],[46.5636935,24.7384181],[46.5634166,24.7384091],[46.5631208,24.7384495],[46.562835,24.7385411],[46.5626619,24.7386714],[46.5624661,24.7386301],[46.5623464,24.7386741],[46.5622198,24.7388034],[46.5621357,24.7389337],[46.562108,24.7390523],[46.5621505,24.7391529],[46.5622544,24.7392562],[46.562562,24.7394682],[46.5629062,24.7397009],[46.5637123,24.7400314],[46.5640822,24.7401671],[46.5645411,24.7403908],[46.5649714,24.7406216],[46.5681533,24.7420553]]}},{"type":"Feature","properties":{"id":"road-102","kind":"vehicular","width_m":4},"geometry":{"type":"LineString","coordinates":[[46.5677102,24.7406845],[46.5676815,24.7406971],[46.5676587,24.7407177],[46.5676449,24.7407438],[46.5676399,24.7407725],[46.5676459,24.7408004],[46.5676617,24.7408255],[46.5676864,24.7408453],[46.5677151,24.7408561],[46.5677477,24.7408579],[46.5677804,24.7408507],[46.5678071,24.7408336],[46.5678269,24.7408103],[46.5678368,24.7407815],[46.5678348,24.7407519],[46.5678229,24.740724],[46.5678021,24.7407016],[46.5677735,24.7406872],[46.5677418,24.7406809],[46.5677102,24.7406845]]}},{"type":"Feature","properties":{"id":"road-103","kind":"vehicular","width_m":4},"geometry":{"type":"LineString","coordinates":[[46.5677151,24.7408561],[46.5676399,24.7409666],[46.5675163,24.7410932],[46.5673709,24.7411929],[46.5672354,24.7412657],[46.5671325,24.7412774],[46.5670138,24.7412199],[46.5669238,24.7410932],[46.5668388,24.7409055],[46.5667666,24.7408049]]}},{"type":"Feature","properties":{"id":"road-104","kind":"vehicular","width_m":4},"geometry":{"type":"LineString","coordinates":[[46.565728,24.7404644],[46.5657023,24.7406324],[46.5657409,24.7407707],[46.5658685,24.7408974],[46.5660643,24.7409899],[46.566369,24.7410591],[46.5665846,24.7409324],[46.5667666,24.7408049],[46.5668516,24.7405596]]}},{"type":"Feature","properties":{"id":"road-105","kind":"vehicular","width_m":4},"geometry":{"type":"LineString","coordinates":[[46.5626619,24.7386714],[46.5626332,24.7391583],[46.5626837,24.7393254],[46.5628014,24.7394817],[46.5630368,24.7396721],[46.5640565,24.7400844],[46.5642197,24.7401186],[46.5643631,24.7401446],[46.5644927,24.7401374],[46.5646569,24.7400925],[46.5648883,24.740132],[46.5652246,24.740238],[46.5654234,24.7403207],[46.565728,24.7404644],[46.565916,24.7404527],[46.5662691,24.7403135]]}},{"type":"Feature","properties":{"id":"road-106","kind":"vehicular","width_m":4},"geometry":{"type":"LineString","coordinates":[[46.566363,24.7403557],[46.5664164,24.7403521],[46.5664659,24.7403333],[46.5665045,24.7403],[46.5665272,24.7402605],[46.5665351,24.7402156],[46.5665262,24.7401716],[46.5665025,24.740132],[46.5664659,24.7401006],[46.5664204,24.7400826],[46.5663709,24.7400781],[46.5663215,24.740088],[46.566279,24.7401114],[46.5662473,24.7401464],[46.5662295,24.7401886],[46.5662265,24.7402336],[46.5662404,24.7402767],[46.5662691,24.7403135],[46.5663126,24.7403422],[46.566363,24.7403557]]}},{"type":"Feature","properties":{"id":"road-107","kind":"vehicular","width_m":6},"geometry":{"type":"LineString","coordinates":[[46.5848618,24.7319143],[46.5841368,24.7322035]]}},{"type":"Feature","properties":{"id":"road-108","kind":"vehicular","width_m":6},"geometry":{"type":"LineString","coordinates":[[46.5817353,24.7319718],[46.5818926,24.7324434]]}},{"type":"Feature","properties":{"id":"road-109","kind":"vehicular","width_m":6},"geometry":{"type":"LineString","coordinates":[[46.5813891,24.7325871],[46.5818926,24.7324434],[46.582398,24.7322997],[46.5827234,24.7322062],[46.583399,24.7320131]]}},{"type":"Feature","properties":{"id":"road-110","kind":"vehicular","width_m":6},"geometry":{"type":"LineString","coordinates":[[46.5806879,24.7322395],[46.5812279,24.732111],[46.5817353,24.7319718],[46.582582,24.7317472]]}},{"type":"Feature","properties":{"id":"road-111","kind":"vehicular","width_m":6},"geometry":{"type":"LineString","coordinates":[[46.5812635,24.733957],[46.5818065,24.7338151]]}},{"type":"Feature","properties":{"id":"road-112","kind":"vehicular","width_m":8},"geometry":{"type":"LineString","coordinates":[[46.576965,24.7487837],[46.5763715,24.7490927],[46.5758938,24.7494107],[46.5753607,24.7498078],[46.5751708,24.7499829],[46.5745971,24.7504815],[46.5742045,24.7508381],[46.5736258,24.7514247],[46.5734508,24.7516241]]}},{"type":"Feature","properties":{"id":"road-113","kind":"vehicular","width_m":6},"geometry":{"type":"LineString","coordinates":[[46.5845433,24.7330156],[46.584028,24.7331953]]}},{"type":"Feature","properties":{"id":"road-114","kind":"vehicular","width_m":6},"geometry":{"type":"LineString","coordinates":[[46.5838252,24.7327731],[46.5843307,24.7325862]]}},{"type":"Feature","properties":{"id":"road-115","kind":"vehicular","width_m":6},"geometry":{"type":"LineString","coordinates":[[46.5824247,24.7312388],[46.582582,24.7317472],[46.5827234,24.7322062]]}},{"type":"Feature","properties":{"id":"road-116","kind":"vehicular","width_m":6},"geometry":{"type":"LineString","coordinates":[[46.5834454,24.7357447],[46.5836086,24.7362082]]}},{"type":"Feature","properties":{"id":"road-117","kind":"vehicular","width_m":6},"geometry":{"type":"LineString","coordinates":[[46.5849202,24.7358471],[46.5843099,24.736025],[46.5836086,24.7362082],[46.5828985,24.7364121],[46.5821497,24.7366268],[46.5820973,24.7366771],[46.5815741,24.7368263]]}},{"type":"Feature","properties":{"id":"road-118","kind":"vehicular","width_m":6},"geometry":{"type":"LineString","coordinates":[[46.5843099,24.736025],[46.5844761,24.7365738]]}},{"type":"Feature","properties":{"id":"road-119","kind":"vehicular","width_m":6},"geometry":{"type":"LineString","coordinates":[[46.5847629,24.7353728],[46.5849202,24.7358471]]}},{"type":"Feature","properties":{"id":"road-120","kind":"vehicular","width_m":5},"geometry":{"type":"LineString","coordinates":[[46.5666439,24.7322422],[46.5665569,24.732173]]}},{"type":"Feature","properties":{"id":"road-121","kind":"vehicular","width_m":6},"geometry":{"type":"LineString","coordinates":[[46.5846848,24.7344745],[46.5852713,24.7343164]]}},{"type":"Feature","properties":{"id":"road-122","kind":"vehicular","width_m":6},"geometry":{"type":"LineString","coordinates":[[46.5839993,24.7301033],[46.5840854,24.7303036],[46.5847975,24.7317813],[46.5848302,24.7318487],[46.5848618,24.7319143],[46.5856145,24.7336579],[46.5860141,24.7344862],[46.5865244,24.7353602]]}},{"type":"Feature","properties":{"id":"road-123","kind":"vehicular","width_m":8},"geometry":{"type":"LineString","coordinates":[[46.5758859,24.7388744],[46.5757316,24.7389328],[46.5756643,24.7389903],[46.5755516,24.7391017],[46.5754942,24.7391906],[46.5754537,24.739293]]}},{"type":"Feature","properties":{"id":"road-124","kind":"vehicular","width_m":4},"geometry":{"type":"LineString","coordinates":[[46.5660169,24.74939],[46.5659447,24.7492939],[46.5656084,24.7488448],[46.565371,24.7485142],[46.5652968,24.7483228],[46.5652473,24.7480363],[46.565189,24.7478656],[46.5651583,24.7477749],[46.5651613,24.7477138],[46.5651089,24.7476177],[46.5650129,24.7475548],[46.5645946,24.7473733],[46.5642612,24.7471658],[46.5641168,24.7469844],[46.5639714,24.7469089],[46.5638804,24.7468927],[46.5636925,24.7469385],[46.5634759,24.7469242],[46.5629873,24.7467885],[46.5625481,24.7465702],[46.5623355,24.7465774],[46.5622257,24.7465873],[46.5621377,24.7465927],[46.5619517,24.7465855],[46.5618558,24.7465828],[46.5617618,24.7466116],[46.5616649,24.7466987],[46.5614077,24.7469332],[46.5612228,24.7471757],[46.5611288,24.7472458],[46.5610378,24.7472404],[46.5609943,24.7472044],[46.5609409,24.7471317],[46.5607906,24.7469772],[46.560751,24.7469089],[46.5607935,24.7466717],[46.5607985,24.746537],[46.5608469,24.746387],[46.5609597,24.7462702],[46.5611209,24.7461741],[46.5613029,24.7460771],[46.561566,24.7460483],[46.5618291,24.74598],[46.5624433,24.7459441]]}},{"type":"Feature","properties":{"id":"road-125","kind":"vehicular","width_m":6},"geometry":{"type":"LineString","coordinates":[[46.5717624,24.7346191],[46.5720948,24.7353387]]}},{"type":"Feature","properties":{"id":"road-126","kind":"vehicular","width_m":6},"geometry":{"type":"LineString","coordinates":[[46.5721313,24.7355165],[46.5724647,24.7354626],[46.5725161,24.7353818],[46.5725428,24.7353575],[46.5725764,24.7353396],[46.5725784,24.7352569],[46.5725646,24.7352183],[46.5725379,24.7350961],[46.5721017,24.7350988]]}},{"type":"Feature","properties":{"id":"road-127","kind":"vehicular","width_m":6},"geometry":{"type":"LineString","coordinates":[[46.5721017,24.7352371],[46.5725646,24.7352183]]}},{"type":"Feature","properties":{"id":"road-128","kind":"vehicular","width_m":6},"geometry":{"type":"LineString","coordinates":[[46.5721135,24.734276],[46.5727119,24.7344332]]}},{"type":"Feature","properties":{"id":"road-129","kind":"vehicular","width_m":6},"geometry":{"type":"LineString","coordinates":[[46.5719939,24.7330893],[46.5724835,24.7330533],[46.5729483,24.7330336]]}},{"type":"Feature","properties":{"id":"road-130","kind":"vehicular","width_m":6},"geometry":{"type":"LineString","coordinates":[[46.5729483,24.7330336],[46.5730334,24.732579]]}},{"type":"Feature","properties":{"id":"road-131","kind":"vehicular","width_m":6},"geometry":{"type":"LineString","coordinates":[[46.5730334,24.732579],[46.5719236,24.7325817],[46.5713925,24.7326419]]}},{"type":"Feature","properties":{"id":"road-132","kind":"vehicular","width_m":6},"geometry":{"type":"LineString","coordinates":[[46.5718346,24.7319736],[46.5719236,24.7325817],[46.5719424,24.7328557],[46.5719939,24.7330893],[46.5720295,24.73333],[46.5720483,24.7334208],[46.5720769,24.7335636],[46.5720868,24.733745],[46.5720987,24.7339867],[46.5721135,24.734276],[46.5721205,24.7344682],[46.5721185,24.734823],[46.5721017,24.7350988],[46.5721017,24.7352371],[46.5720948,24.7353387],[46.5721313,24.7355165],[46.5720453,24.7356926]]}},{"type":"Feature","properties":{"id":"road-133","kind":"vehicular","width_m":6},"geometry":{"type":"LineString","coordinates":[[46.5718346,24.7319736],[46.5725339,24.7319448]]}},{"type":"Feature","properties":{"id":"road-134","kind":"vehicular","width_m":6},"geometry":{"type":"LineString","coordinates":[[46.572976,24.7309342],[46.5730294,24.7314094],[46.5731006,24.7319529]]}},{"type":"Feature","properties":{"id":"road-135","kind":"vehicular","width_m":6},"geometry":{"type":"LineString","coordinates":[[46.5734083,24.731767],[46.5733519,24.7313816],[46.5732767,24.7309037]]}},{"type":"Feature","properties":{"id":"road-136","kind":"vehicular","width_m":6},"geometry":{"type":"LineString","coordinates":[[46.5725339,24.7319448],[46.5724815,24.7314544]]}},{"type":"Feature","properties":{"id":"road-137","kind":"vehicular","width_m":6},"geometry":{"type":"LineString","coordinates":[[46.5720868,24.733745],[46.5720216,24.7337531],[46.5717891,24.7333812],[46.5717535,24.7332842],[46.5719424,24.7328557]]}},{"type":"Feature","properties":{"id":"road-138","kind":"vehicular","width_m":6},"geometry":{"type":"LineString","coordinates":[[46.5717891,24.7333812],[46.5720295,24.73333]]}},{"type":"Feature","properties":{"id":"road-139","kind":"vehicular","width_m":6},"geometry":{"type":"LineString","coordinates":[[46.5788225,24.7332788],[46.5794555,24.7331108],[46.5801389,24.7329204]]}},{"type":"Feature","properties":{"id":"road-140","kind":"vehicular","width_m":6},"geometry":{"type":"LineString","coordinates":[[46.5793516,24.7328216],[46.5787275,24.7330129]]}},{"type":"Feature","properties":{"id":"road-141","kind":"vehicular","width_m":6},"geometry":{"type":"LineString","coordinates":[[46.5780124,24.7329024],[46.5778166,24.7323356],[46.5775505,24.7315541]]}},{"type":"Feature","properties":{"id":"road-142","kind":"vehicular","width_m":6},"geometry":{"type":"LineString","coordinates":[[46.5805257,24.731767],[46.5806879,24.7322395],[46.5812635,24.733957],[46.581494,24.734673],[46.5818184,24.7356845],[46.5819737,24.7361381],[46.5821497,24.7366268]]}},{"type":"Feature","properties":{"id":"road-143","kind":"vehicular","width_m":6},"geometry":{"type":"LineString","coordinates":[[46.582398,24.7322997],[46.582579,24.7328009]]}},{"type":"Feature","properties":{"id":"road-144","kind":"vehicular","width_m":6},"geometry":{"type":"LineString","coordinates":[[46.5827353,24.7349191],[46.5829034,24.7353818]]}},{"type":"Feature","properties":{"id":"road-145","kind":"vehicular","width_m":8},"geometry":{"type":"LineString","coordinates":[[46.5835404,24.7370311],[46.583576,24.7371676],[46.5841645,24.7390109],[46.5843069,24.7392355],[46.5844316,24.7392984]]}},{"type":"Feature","properties":{"id":"road-146","kind":"vehicular","width_m":6},"geometry":{"type":"LineString","coordinates":[[46.5644116,24.7335178],[46.5644492,24.7335357],[46.5644778,24.7336471],[46.5645135,24.7337774],[46.5645471,24.7339049],[46.5646816,24.7341888],[46.5647756,24.7342652],[46.5648102,24.734302],[46.5648438,24.7343505],[46.5649417,24.7344134],[46.5650387,24.734479],[46.5651425,24.7344942],[46.5654432,24.7347727],[46.565553,24.734867],[46.565643,24.7348994]]}},{"type":"Feature","properties":{"id":"road-147","kind":"vehicular","width_m":6},"geometry":{"type":"LineString","coordinates":[[46.5758147,24.7339705],[46.575148,24.7340388],[46.5742955,24.7339858],[46.5739602,24.7339409]]}},{"type":"Feature","properties":{"id":"road-148","kind":"vehicular","width_m":6},"geometry":{"type":"LineString","coordinates":[[46.575602,24.7333507],[46.5754003,24.7333821],[46.575336,24.7332977],[46.5752657,24.7331207],[46.5752005,24.7329204],[46.5751718,24.7328503],[46.5751243,24.7328683],[46.5752044,24.733145],[46.5751995,24.7332636],[46.5746674,24.7330578]]}},{"type":"Feature","properties":{"id":"road-149","kind":"vehicular","width_m":6},"geometry":{"type":"LineString","coordinates":[[46.5739602,24.7339409],[46.5739839,24.7335843],[46.5738969,24.7335007],[46.5737643,24.7335061],[46.5736011,24.7335546],[46.573521,24.7335995],[46.5734083,24.7337046]]}},{"type":"Feature","properties":{"id":"road-150","kind":"pedestrian","width_m":2.5},"geometry":{"type":"LineString","coordinates":[[46.5742955,24.7339858],[46.5743103,24.7342508],[46.5742331,24.7345284],[46.5741956,24.734602],[46.5740373,24.7345904],[46.5737564,24.7345257],[46.5736723,24.7345005],[46.5734617,24.7344942],[46.5732807,24.7344871]]}},{"type":"Feature","properties":{"id":"road-151","kind":"pedestrian","width_m":2.5},"geometry":{"type":"LineString","coordinates":[[46.5748246,24.7348751],[46.574612,24.7348275],[46.5742786,24.7347224],[46.5741956,24.7346613],[46.5741956,24.734602]]}},{"type":"Feature","properties":{"id":"road-152","kind":"vehicular","width_m":6},"geometry":{"type":"LineString","coordinates":[[46.5764151,24.7354815],[46.5762855,24.7355569],[46.5760659,24.7355614],[46.5759284,24.7355156],[46.5758641,24.7355003],[46.57579,24.735477],[46.5756515,24.7353818],[46.5755229,24.7354006],[46.5753953,24.7354195],[46.5752865,24.7353773],[46.5752351,24.7354518],[46.5751738,24.7356908],[46.5749473,24.7361876],[46.574789,24.7360726],[46.5744448,24.7359387],[46.5743251,24.7359324],[46.5742678,24.7359675],[46.5741837,24.7363591],[46.5740462,24.7365487],[46.574155,24.7367032],[46.5743291,24.7368245],[46.5744517,24.7369251],[46.5745131,24.7370158],[46.574518,24.737067],[46.5743439,24.7371622],[46.5740551,24.7371784],[46.573795,24.7372242],[46.5738088,24.737385],[46.573339,24.737438]]}},{"type":"Feature","properties":{"id":"road-153","kind":"vehicular","width_m":6},"geometry":{"type":"LineString","coordinates":[[46.5743439,24.7382375],[46.5743934,24.7383857],[46.5742638,24.7384181],[46.5743291,24.7386301],[46.5747554,24.7385357],[46.5746941,24.7383148],[46.5744626,24.7383687],[46.5743983,24.7381971]]}},{"type":"Feature","properties":{"id":"road-154","kind":"vehicular","width_m":6},"geometry":{"type":"LineString","coordinates":[[46.5756515,24.7353818],[46.5755585,24.7352291],[46.5754586,24.7351006],[46.5753004,24.7350242],[46.5751431,24.7349668],[46.5749433,24.7348904],[46.5748246,24.7348751]]}},{"type":"Feature","properties":{"id":"road-155","kind":"vehicular","width_m":6},"geometry":{"type":"LineString","coordinates":[[46.5725379,24.7350961],[46.5725389,24.7350539],[46.5725576,24.7350332]]}},{"type":"Feature","properties":{"id":"road-156","kind":"vehicular","width_m":6},"geometry":{"type":"LineString","coordinates":[[46.5724835,24.7330533],[46.5725299,24.7335241],[46.5720769,24.7335636]]}},{"type":"Feature","properties":{"id":"road-157","kind":"vehicular","width_m":6},"geometry":{"type":"LineString","coordinates":[[46.5731006,24.7319529],[46.5731333,24.7323015],[46.5728425,24.7322691],[46.5725557,24.7321649]]}},{"type":"Feature","properties":{"id":"road-158","kind":"vehicular","width_m":6},"geometry":{"type":"LineString","coordinates":[[46.5725557,24.7321649],[46.5725339,24.7319448]]}},{"type":"Feature","properties":{"id":"road-159","kind":"vehicular","width_m":6},"geometry":{"type":"LineString","coordinates":[[46.5655025,24.7370293],[46.5651742,24.7373455],[46.5650337,24.7375341],[46.5648715,24.7377515],[46.5645233,24.7381126]]}},{"type":"Feature","properties":{"id":"road-160","kind":"vehicular","width_m":6},"geometry":{"type":"LineString","coordinates":[[46.5636945,24.7368047],[46.5639932,24.7367068],[46.564194,24.736696],[46.5644185,24.7367212],[46.5648577,24.7368837],[46.5651643,24.7369556],[46.56546,24.7369107],[46.5655025,24.7370293]]}},{"type":"Feature","properties":{"id":"road-161","kind":"vehicular","width_m":6},"geometry":{"type":"LineString","coordinates":[[46.5655025,24.7370293],[46.565826,24.7372934],[46.5660811,24.7375602],[46.5663719,24.7377398],[46.5666222,24.738021],[46.5668417,24.738154],[46.5671939,24.7380992],[46.5672413,24.7380857],[46.5675252,24.7380066],[46.5678516,24.7379429],[46.5679851,24.7379842],[46.5680919,24.738154],[46.5682344,24.7382555],[46.5684183,24.7380623],[46.568541,24.7379653],[46.5687863,24.7377767],[46.5690514,24.737685],[46.5692096,24.737588],[46.5693016,24.737694],[46.5693985,24.7378961],[46.569444,24.7380345],[46.5695924,24.73803],[46.5698021,24.7381261],[46.5700108,24.7380893],[46.5701384,24.7380668],[46.5703728,24.7381683],[46.5704232,24.738189],[46.5705933,24.7383094],[46.5706873,24.7384235],[46.5708861,24.7385914],[46.5709583,24.7386516],[46.5712798,24.7388025],[46.5715587,24.7388726],[46.5718465,24.7389535],[46.5720156,24.7389508]]}},{"type":"Feature","properties":{"id":"road-162","kind":"vehicular","width_m":6},"geometry":{"type":"LineString","coordinates":[[46.5720156,24.7389508],[46.5721887,24.7393478],[46.5722105,24.7394781],[46.5721887,24.7396604],[46.572069,24.7398257],[46.5720295,24.7399398],[46.5722639,24.7400117],[46.572612,24.7401051]]}},{"type":"Feature","properties":{"id":"road-163","kind":"vehicular","width_m":6},"geometry":{"type":"LineString","coordinates":[[46.5720156,24.7389508],[46.5720186,24.7387747],[46.5722352,24.7387549],[46.5725131,24.7387361],[46.5726575,24.7387522],[46.5728148,24.7389732],[46.5730542,24.7392167],[46.5730759,24.7393873],[46.573159,24.7395553]]}},{"type":"Feature","properties":{"id":"road-164","kind":"vehicular","width_m":6},"geometry":{"type":"LineString","coordinates":[[46.5720156,24.7389508],[46.572164,24.7389562],[46.572437,24.7389858],[46.5726071,24.7390029],[46.5727258,24.7390388],[46.5728741,24.739143],[46.572975,24.7392436],[46.5730759,24.7393873]]}},{"type":"Feature","properties":{"id":"road-165","kind":"vehicular","width_m":6},"geometry":{"type":"LineString","coordinates":[[46.5656578,24.7350395],[46.5656697,24.7350593],[46.5658893,24.7351132],[46.5659555,24.7351545],[46.5660297,24.7352452],[46.5660792,24.7353135],[46.5661524,24.7353719],[46.5663512,24.7354761],[46.5666321,24.7356162],[46.5667567,24.7356477],[46.5669011,24.7356962],[46.5670485,24.7357851],[46.5672522,24.7358309],[46.5675509,24.7358255],[46.5676538,24.7357905],[46.5678348,24.7355471]]}},{"type":"Feature","properties":{"id":"road-166","kind":"vehicular","width_m":6},"geometry":{"type":"LineString","coordinates":[[46.5670485,24.7357851],[46.566911,24.7360771],[46.566818,24.7362199],[46.5667953,24.7362343],[46.5667092,24.7362891],[46.5666123,24.73636],[46.5665757,24.7364615],[46.5665322,24.7365586]]}},{"type":"Feature","properties":{"id":"road-167","kind":"vehicular","width_m":6},"geometry":{"type":"LineString","coordinates":[[46.5665252,24.7360384],[46.5666954,24.7361229],[46.5667814,24.736201],[46.5667953,24.7362343],[46.566821,24.7363016],[46.5668823,24.7363924],[46.5669515,24.7364157],[46.5671276,24.7365101]]}},{"type":"Feature","properties":{"id":"road-168","kind":"vehicular","width_m":6},"geometry":{"type":"LineString","coordinates":[[46.5650337,24.7375341],[46.565098,24.7375772],[46.5651227,24.7376168],[46.5651385,24.7376752],[46.5651455,24.7378413],[46.5651781,24.7379779],[46.565373,24.7380686],[46.56555,24.7381405],[46.5657191,24.7381926],[46.56591,24.7384109],[46.5661454,24.738463],[46.5663759,24.7385016],[46.5664738,24.7385995],[46.5666865,24.7386381],[46.5669782,24.7387361],[46.5671622,24.7387262],[46.5673254,24.7386453],[46.5674006,24.7385214],[46.567361,24.7383327],[46.5672413,24.7380857]]}},{"type":"Feature","properties":{"id":"road-169","kind":"vehicular","width_m":4},"geometry":{"type":"LineString","coordinates":[[46.5669782,24.7387361],[46.566906,24.738957],[46.5668734,24.7391161]]}},{"type":"Feature","properties":{"id":"road-170","kind":"vehicular","width_m":4},"geometry":{"type":"LineString","coordinates":[[46.5661266,24.7337998],[46.5660347,24.7340136],[46.5660188,24.734125],[46.5659674,24.7342966],[46.5658626,24.7344682],[46.5656638,24.7348033],[46.565643,24.7348994]]}},{"type":"Feature","properties":{"id":"road-171","kind":"vehicular","width_m":3},"geometry":{"type":"LineString","coordinates":[[46.5794021,24.745813],[46.5781885,24.745715],[46.5780965,24.7452318],[46.577595,24.7448248],[46.5773329,24.7446389]]}},{"type":"Feature","properties":{"id":"road-172","kind":"vehicular","width_m":3},"geometry":{"type":"LineString","coordinates":[[46.5781885,24.745715],[46.5773685,24.7456773],[46.5772182,24.7452542],[46.5768067,24.7448769]]}},{"type":"Feature","properties":{"id":"road-173","kind":"vehicular","width_m":6},"geometry":{"type":"LineString","coordinates":[[46.5680652,24.7395239],[46.5684094,24.7388618],[46.5684183,24.7380623]]}},{"type":"Feature","properties":{"id":"road-174","kind":"vehicular","width_m":6},"geometry":{"type":"LineString","coordinates":[[46.5788215,24.7432384],[46.5792201,24.7435528]]}},{"type":"Feature","properties":{"id":"road-175","kind":"pedestrian","width_m":2.5},"geometry":{"type":"LineString","coordinates":[[46.5763171,24.735936],[46.5760817,24.7358579],[46.5758266,24.7357303],[46.5757098,24.7356602],[46.5756406,24.7355866],[46.5755783,24.7355066],[46.5755229,24.7354006]]}},{"type":"Feature","properties":{"id":"road-176","kind":"vehicular","width_m":8},"geometry":{"type":"LineString","coordinates":[[46.5745971,24.7504815],[46.5750303,24.7502389],[46.5752361,24.7501761]]}},{"type":"Feature","properties":{"id":"road-177","kind":"vehicular","width_m":6},"geometry":{"type":"LineString","coordinates":[[46.5681533,24.7420553],[46.5682146,24.7417328],[46.5682957,24.7414651],[46.5681958,24.7414139],[46.5679644,24.7413241],[46.5677962,24.7413025],[46.5676172,24.7411974],[46.5675163,24.7410932]]}},{"type":"Feature","properties":{"id":"road-178","kind":"vehicular","width_m":4},"geometry":{"type":"LineString","coordinates":[[46.565189,24.7478656],[46.5645837,24.747659],[46.5618172,24.7480587],[46.5589914,24.7476455],[46.5589281,24.7476347],[46.5588628,24.7476087],[46.5578856,24.7453611],[46.5575375,24.7453126],[46.5570706,24.7451428],[46.5535277,24.7444754],[46.5533428,24.7444107],[46.553235,24.7444008],[46.5530737,24.7443694],[46.5530075,24.7443766],[46.5529026,24.7443864],[46.5528008,24.7444053],[46.5527117,24.7444493],[46.5526059,24.7445068],[46.5525515,24.7446218],[46.5524882,24.744814],[46.5524467,24.7448877],[46.5523952,24.744956],[46.5522291,24.7450476],[46.5520965,24.7450772],[46.5519393,24.7450853],[46.5343791,24.7443828]]}},{"type":"Feature","properties":{"id":"road-179","kind":"vehicular","width_m":4},"geometry":{"type":"LineString","coordinates":[[46.5822803,24.7386444],[46.5822843,24.7386058],[46.5822734,24.7385681],[46.5822496,24.7385357],[46.582215,24.7385124],[46.5821735,24.7385016],[46.58213,24.7385034],[46.5820904,24.7385178],[46.5820597,24.738542],[46.582039,24.7385726],[46.5820301,24.7386085],[46.582034,24.7386444],[46.5820498,24.7386777],[46.5820775,24.7387046],[46.5821122,24.7387226],[46.5821507,24.7387298],[46.5821943,24.7387253],[46.5822328,24.7387082],[46.5822625,24.7386804],[46.5822803,24.7386444]]}},{"type":"Feature","properties":{"id":"road-180","kind":"vehicular","width_m":4},"geometry":{"type":"LineString","coordinates":[[46.563923,24.7336552],[46.5637578,24.7333821],[46.5637301,24.7333264],[46.5637143,24.7332779],[46.5636579,24.7329923],[46.5636658,24.7329518],[46.5637034,24.7329348],[46.5644472,24.7329662],[46.5648369,24.7329716],[46.5649437,24.7329815],[46.5654788,24.7329797],[46.5655075,24.7329707]]}},{"type":"Feature","properties":{"id":"road-181","kind":"pedestrian","width_m":5},"geometry":{"type":"LineString","coordinates":[[46.5725834,24.7427201],[46.5724528,24.7429303],[46.572249,24.7432833]]}},{"type":"Feature","properties":{"id":"road-182","kind":"pedestrian","width_m":5},"geometry":{"type":"LineString","coordinates":[[46.5705854,24.7417328],[46.571619,24.7419502],[46.5717585,24.7419448],[46.5722837,24.7421047],[46.5723054,24.7422233],[46.5722945,24.7423976],[46.5722471,24.7425647]]}},{"type":"Feature","properties":{"id":"road-183","kind":"pedestrian","width_m":5},"geometry":{"type":"LineString","coordinates":[[46.5710078,24.7412388],[46.5705854,24.7417328],[46.5703579,24.7419996],[46.570262,24.7421703]]}},{"type":"Feature","properties":{"id":"road-184","kind":"pedestrian","width_m":2.5},"geometry":{"type":"LineString","coordinates":[[46.5732045,24.7428422],[46.573158,24.7425548],[46.573432,24.7420419]]}},{"type":"Feature","properties":{"id":"road-185","kind":"pedestrian","width_m":2.5},"geometry":{"type":"LineString","coordinates":[[46.5751985,24.7444502],[46.5752756,24.7441816],[46.5754428,24.7439436],[46.5754774,24.74394],[46.5759007,24.743966]]}},{"type":"Feature","properties":{"id":"road-186","kind":"pedestrian","width_m":2.5},"geometry":{"type":"LineString","coordinates":[[46.5754972,24.7437603],[46.5754774,24.74394]]}},{"type":"Feature","properties":{"id":"road-187","kind":"pedestrian","width_m":5},"geometry":{"type":"LineString","coordinates":[[46.575784,24.742906],[46.5759759,24.7425853]]}},{"type":"Feature","properties":{"id":"road-188","kind":"pedestrian","width_m":5},"geometry":{"type":"LineString","coordinates":[[46.5748662,24.7412702],[46.575063,24.7413681],[46.5755051,24.7416062],[46.5756208,24.741749],[46.5757178,24.7418703],[46.5758196,24.7420805],[46.5758859,24.7421874],[46.5759126,24.7422377]]}},{"type":"Feature","properties":{"id":"road-189","kind":"pedestrian","width_m":2.5},"geometry":{"type":"LineString","coordinates":[[46.578234,24.7444691],[46.5780124,24.744532],[46.5778878,24.7445212],[46.577777,24.7444341],[46.5777948,24.744293],[46.5777038,24.7442939],[46.5775762,24.7441834],[46.5774635,24.7439463],[46.5774051,24.7438906],[46.5773062,24.7438115],[46.577146,24.743754],[46.5770164,24.7437127],[46.5768493,24.743657],[46.5768473,24.7436543],[46.5767138,24.7435411],[46.576599,24.7433758],[46.5765377,24.7432716],[46.5765881,24.7431926],[46.5766228,24.7431378],[46.5766514,24.7431153],[46.5766495,24.743056],[46.5766297,24.7429689],[46.5764309,24.7428494],[46.5763656,24.7428018],[46.5763102,24.7427848]]}},{"type":"Feature","properties":{"id":"road-190","kind":"pedestrian","width_m":2},"geometry":{"type":"LineString","coordinates":[[46.5804139,24.7412226],[46.5808887,24.7416951],[46.5810331,24.7415604],[46.5811844,24.7414669],[46.5812784,24.7413879],[46.5814613,24.7413349],[46.5814663,24.7412711]]}},{"type":"Feature","properties":{"id":"road-191","kind":"vehicular","width_m":8},"geometry":{"type":"LineString","coordinates":[[46.5739305,24.7391376],[46.5739236,24.7392032],[46.5739028,24.7392724],[46.5738731,24.7393532]]}},{"type":"Feature","properties":{"id":"road-192","kind":"vehicular","width_m":8},"geometry":{"type":"LineString","coordinates":[[46.5845799,24.7405794],[46.584756,24.7406791],[46.5849122,24.7409926],[46.585389,24.7417373],[46.586116,24.7427848],[46.5863494,24.7430614]]}},{"type":"Feature","properties":{"id":"road-193","kind":"vehicular","width_m":4},"geometry":{"type":"LineString","coordinates":[[46.5766653,24.7401302],[46.5767454,24.7403485],[46.5771341,24.740742],[46.5772568,24.740804],[46.5773844,24.7408471]]}},{"type":"Feature","properties":{"id":"road-194","kind":"vehicular","width_m":8},"geometry":{"type":"LineString","coordinates":[[46.5777216,24.7412163],[46.5779046,24.7412603],[46.5779867,24.7412495],[46.5780985,24.7411813],[46.5784684,24.7408974],[46.5786197,24.740883],[46.5787384,24.740874],[46.5788522,24.7408902],[46.5789936,24.7409028],[46.579141,24.7408462],[46.5793042,24.740742],[46.5794871,24.7407213],[46.5797275,24.7407627],[46.579952,24.7408139],[46.5801686,24.7408534],[46.5805296,24.7409046],[46.5807334,24.740998],[46.580952,24.7411516],[46.5811468,24.741237],[46.5814663,24.7412711],[46.5817581,24.7412954],[46.5818926,24.7412666],[46.5820756,24.7411885],[46.5824208,24.7409378],[46.5826146,24.7408031],[46.58285,24.740742],[46.5831082,24.7407501],[46.5833406,24.7408219],[46.5835018,24.7408219],[46.58367,24.7407842],[46.5837639,24.7407366],[46.5838322,24.7406827],[46.583936,24.7405974],[46.5840013,24.7405686],[46.5840705,24.7405614],[46.5841922,24.7405722]]}},{"type":"Feature","properties":{"id":"road-195","kind":"vehicular","width_m":8},"geometry":{"type":"LineString","coordinates":[[46.5754537,24.739293],[46.5754438,24.7393721],[46.5754576,24.7394439],[46.5754863,24.7395392],[46.5755377,24.7396218],[46.5756307,24.7397458],[46.5757168,24.7398024],[46.576058,24.739956],[46.5762944,24.7400359],[46.5766653,24.7401302],[46.5768651,24.7403072],[46.5773211,24.7407573],[46.5773844,24.7408471],[46.5776366,24.7411229],[46.5777216,24.7412163]]}},{"type":"Feature","properties":{"id":"road-196","kind":"vehicular","width_m":8},"geometry":{"type":"LineString","coordinates":[[46.5798848,24.7378997],[46.57796,24.7383893],[46.5778947,24.7384064],[46.5777563,24.7384432],[46.5766861,24.7386992],[46.5758859,24.7388744]]}},{"type":"Feature","properties":{"id":"road-197","kind":"vehicular","width_m":4},"geometry":{"type":"LineString","coordinates":[[46.5685815,24.7338852],[46.5686617,24.7338825]]}},{"type":"Feature","properties":{"id":"road-198","kind":"vehicular","width_m":4},"geometry":{"type":"LineString","coordinates":[[46.5685904,24.7340604],[46.5685815,24.7338852]]}},{"type":"Feature","properties":{"id":"road-199","kind":"vehicular","width_m":4},"geometry":{"type":"LineString","coordinates":[[46.5673877,24.7336229],[46.5672225,24.7334791]]}},{"type":"Feature","properties":{"id":"road-200","kind":"vehicular","width_m":4},"geometry":{"type":"LineString","coordinates":[[46.5685529,24.7327901],[46.5685825,24.7332195]]}},{"type":"Feature","properties":{"id":"road-201","kind":"vehicular","width_m":4},"geometry":{"type":"LineString","coordinates":[[46.5678595,24.7340505],[46.5678783,24.7339166]]}},{"type":"Feature","properties":{"id":"road-202","kind":"vehicular","width_m":4},"geometry":{"type":"LineString","coordinates":[[46.5685825,24.7332195],[46.5685548,24.7332941],[46.5685815,24.7338852]]}},{"type":"Feature","properties":{"id":"road-203","kind":"vehicular","width_m":4},"geometry":{"type":"LineString","coordinates":[[46.5685815,24.7338852],[46.5678783,24.7339166],[46.5678239,24.7339157],[46.5677646,24.733896],[46.567456,24.7336364],[46.5673877,24.7336229]]}},{"type":"Feature","properties":{"id":"road-204","kind":"vehicular","width_m":4},"geometry":{"type":"LineString","coordinates":[[46.5673877,24.7336229],[46.5674055,24.733675],[46.5677942,24.7340172],[46.5678595,24.7340505],[46.5679198,24.7340631],[46.5685904,24.7340604],[46.5686181,24.7340577],[46.5686409,24.7340505],[46.5686587,24.7340361],[46.5686696,24.7340154],[46.5686617,24.7338825],[46.5686241,24.7332887],[46.5685825,24.7332195]]}},{"type":"Feature","properties":{"id":"road-205","kind":"vehicular","width_m":12},"geometry":{"type":"LineString","coordinates":[[46.5688456,24.7298006],[46.5688466,24.7298643],[46.5665569,24.732173],[46.5661533,24.7325296],[46.566001,24.732668],[46.5657013,24.7329402],[46.5655915,24.7331019],[46.5655985,24.7331351],[46.5655134,24.7333731],[46.565548,24.7334756],[46.5656291,24.7335223],[46.5656756,24.7335106],[46.5657112,24.7334872],[46.5657221,24.7334297]]}},{"type":"Feature","properties":{"id":"road-206","kind":"vehicular","width_m":4},"geometry":{"type":"LineString","coordinates":[[46.5685964,24.7318406],[46.5687269,24.7318451],[46.5687685,24.731917],[46.5688713,24.7319152],[46.5691077,24.7319035],[46.5691285,24.7318586],[46.5692531,24.7318541],[46.5694005,24.731846],[46.5694509,24.7318361]]}},{"type":"Feature","properties":{"id":"road-207","kind":"vehicular","width_m":4},"geometry":{"type":"LineString","coordinates":[[46.5648369,24.7329716],[46.5649417,24.7328018],[46.5650288,24.7327093],[46.56537,24.7324551]]}},{"type":"Feature","properties":{"id":"road-208","kind":"vehicular","width_m":4},"geometry":{"type":"LineString","coordinates":[[46.5661533,24.7325296],[46.5657567,24.7314418],[46.5650812,24.7316223]]}},{"type":"Feature","properties":{"id":"road-209","kind":"pedestrian","width_m":2.5},"geometry":{"type":"LineString","coordinates":[[46.5777187,24.7337837],[46.57769,24.7337927],[46.5776672,24.7338106],[46.5776514,24.733834],[46.5776465,24.7338609],[46.5776514,24.7338879],[46.5776643,24.7339094],[46.577684,24.7339274],[46.5777088,24.7339382],[46.5777365,24.7339418],[46.5777642,24.7339373],[46.5777899,24.7339247],[46.5778087,24.7339049],[46.5778205,24.7338807],[46.5778205,24.7338735],[46.5778225,24.7338546],[46.5778146,24.7338286],[46.5777988,24.733807],[46.577775,24.7337909],[46.5777473,24.7337828],[46.5777187,24.7337837]]}},{"type":"Feature","properties":{"id":"road-210","kind":"pedestrian","width_m":2.5},"geometry":{"type":"LineString","coordinates":[[46.5781094,24.7340424],[46.5780312,24.7338403],[46.5779689,24.7336696],[46.5778987,24.7334729]]}},{"type":"Feature","properties":{"id":"road-211","kind":"pedestrian","width_m":2.5},"geometry":{"type":"LineString","coordinates":[[46.5773389,24.7336426],[46.5774625,24.7339373],[46.5775584,24.7342167]]}},{"type":"Feature","properties":{"id":"road-212","kind":"pedestrian","width_m":2.5},"geometry":{"type":"LineString","coordinates":[[46.5776514,24.7338879],[46.5774625,24.7339373]]}},{"type":"Feature","properties":{"id":"road-213","kind":"pedestrian","width_m":2.5},"geometry":{"type":"LineString","coordinates":[[46.5776296,24.7335528],[46.5777187,24.7337837]]}},{"type":"Feature","properties":{"id":"road-214","kind":"pedestrian","width_m":2.5},"geometry":{"type":"LineString","coordinates":[[46.5777642,24.7339373],[46.5778196,24.734134]]}},{"type":"Feature","properties":{"id":"road-215","kind":"pedestrian","width_m":2.5},"geometry":{"type":"LineString","coordinates":[[46.5774625,24.7339373],[46.5773547,24.7339651]]}},{"type":"Feature","properties":{"id":"road-216","kind":"pedestrian","width_m":2.5},"geometry":{"type":"LineString","coordinates":[[46.5778196,24.734134],[46.5778374,24.7341906]]}},{"type":"Feature","properties":{"id":"road-217","kind":"vehicular","width_m":6},"geometry":{"type":"LineString","coordinates":[[46.577233,24.7336337],[46.5776079,24.7335169],[46.577962,24.7334118]]}},{"type":"Feature","properties":{"id":"road-218","kind":"vehicular","width_m":4},"geometry":{"type":"LineString","coordinates":[[46.5821122,24.7387226],[46.5816582,24.7388852],[46.5811933,24.7390442],[46.5811458,24.7391376],[46.5811834,24.7392265],[46.5812329,24.7392679],[46.5816038,24.739178]]}},{"type":"Feature","properties":{"id":"road-219","kind":"vehicular","width_m":10},"geometry":{"type":"LineString","coordinates":[[46.5877865,24.7412145],[46.5874552,24.7418496],[46.5871298,24.7422988],[46.5867668,24.7427955],[46.5863998,24.7432429],[46.585662,24.7440559],[46.5853356,24.7444511],[46.5851991,24.7446227],[46.5850527,24.7448069],[46.5847352,24.745256],[46.584573,24.7455093],[46.5843673,24.7458309],[46.584212,24.7461444],[46.5841675,24.7462522],[46.5840537,24.7465253],[46.5840132,24.7466089],[46.5838905,24.7468649],[46.5836818,24.7474757],[46.5836442,24.7479464],[46.5834771,24.7485798],[46.5832852,24.7495697],[46.583211,24.7506513],[46.5831636,24.7514023],[46.5831507,24.7515622],[46.5831072,24.7522404],[46.5828747,24.7558103]]}},{"type":"Feature","properties":{"id":"road-220","kind":"vehicular","width_m":4},"geometry":{"type":"LineString","coordinates":[[46.5765743,24.7423338],[46.5769501,24.7420868],[46.5770125,24.7420347],[46.5770619,24.7419376],[46.5771005,24.7419026],[46.5771499,24.7418837],[46.5772439,24.741855],[46.5773369,24.7418523],[46.577415,24.7418676],[46.5774892,24.7418981]]}},{"type":"Feature","properties":{"id":"road-221","kind":"vehicular","width_m":4},"geometry":{"type":"LineString","coordinates":[[46.5825088,24.7382097],[46.5825543,24.7383363]]}},{"type":"Feature","properties":{"id":"road-222","kind":"vehicular","width_m":4},"geometry":{"type":"LineString","coordinates":[[46.5823842,24.7380542],[46.5824336,24.7380695],[46.5824692,24.738092],[46.5825088,24.7382097]]}},{"type":"Feature","properties":{"id":"road-223","kind":"vehicular","width_m":4},"geometry":{"type":"LineString","coordinates":[[46.5825543,24.7383363],[46.5829806,24.7383489]]}},{"type":"Feature","properties":{"id":"road-224","kind":"vehicular","width_m":4},"geometry":{"type":"LineString","coordinates":[[46.5825088,24.7382097],[46.5822655,24.7382833],[46.5822556,24.7382887],[46.5822516,24.7382977],[46.5822516,24.7383219],[46.5822536,24.7383363],[46.5822615,24.7383516],[46.5822823,24.7383579],[46.5825543,24.7383363]]}},{"type":"Feature","properties":{"id":"road-225","kind":"vehicular","width_m":4},"geometry":{"type":"LineString","coordinates":[[46.5819598,24.7380219],[46.582311,24.7379303],[46.5823268,24.7379375],[46.5823367,24.737942],[46.5823842,24.7380542],[46.5820073,24.7381611]]}},{"type":"Feature","properties":{"id":"road-226","kind":"vehicular","width_m":8},"geometry":{"type":"LineString","coordinates":[[46.5656351,24.733533],[46.5657864,24.733622],[46.5658586,24.7336687],[46.5659506,24.733701]]}},{"type":"Feature","properties":{"id":"road-227","kind":"vehicular","width_m":8},"geometry":{"type":"LineString","coordinates":[[46.5659506,24.733701],[46.5657221,24.7334297]]}},{"type":"Feature","properties":{"id":"road-228","kind":"vehicular","width_m":4},"geometry":{"type":"LineString","coordinates":[[46.5671503,24.7391888],[46.5672037,24.7390199],[46.5673254,24.739019]]}},{"type":"Feature","properties":{"id":"road-229","kind":"vehicular","width_m":4},"geometry":{"type":"LineString","coordinates":[[46.5665045,24.7403],[46.5666647,24.7403791],[46.5668516,24.7405596],[46.56691,24.7403845],[46.5666647,24.7403791]]}},{"type":"Feature","properties":{"id":"road-230","kind":"vehicular","width_m":6},"geometry":{"type":"LineString","coordinates":[[46.5652177,24.7359684],[46.565369,24.7361606],[46.565283,24.7364175],[46.56546,24.7369107]]}},{"type":"Feature","properties":{"id":"road-231","kind":"vehicular","width_m":5},"geometry":{"type":"LineString","coordinates":[[46.5847095,24.7458417],[46.58421,24.7464481],[46.5840359,24.746829],[46.5837906,24.7474838],[46.5836442,24.7479464]]}},{"type":"Feature","properties":{"id":"road-232","kind":"vehicular","width_m":5},"geometry":{"type":"LineString","coordinates":[[46.5844889,24.7514274],[46.5859824,24.7513816],[46.5865838,24.7513636],[46.5868103,24.751378]]}},{"type":"Feature","properties":{"id":"road-233","kind":"vehicular","width_m":5},"geometry":{"type":"LineString","coordinates":[[46.5868439,24.7512316],[46.5859735,24.7512388],[46.584479,24.7512495]]}},{"type":"Feature","properties":{"id":"road-234","kind":"vehicular","width_m":5},"geometry":{"type":"LineString","coordinates":[[46.584479,24.7512495],[46.5823367,24.7512837]]}},{"type":"Feature","properties":{"id":"road-235","kind":"vehicular","width_m":5},"geometry":{"type":"LineString","coordinates":[[46.5823317,24.7514849],[46.5844889,24.7514274]]}},{"type":"Feature","properties":{"id":"road-236","kind":"vehicular","width_m":8},"geometry":{"type":"LineString","coordinates":[[46.5816226,24.7374524],[46.5809579,24.7376204],[46.5798848,24.7378997]]}},{"type":"Feature","properties":{"id":"road-237","kind":"vehicular","width_m":8},"geometry":{"type":"LineString","coordinates":[[46.5833366,24.7369233],[46.5831022,24.736988],[46.5817937,24.73735]]}},{"type":"Feature","properties":{"id":"road-238","kind":"vehicular","width_m":8},"geometry":{"type":"LineString","coordinates":[[46.5818125,24.737438],[46.5833515,24.7369951]]}},{"type":"Feature","properties":{"id":"road-239","kind":"pedestrian","width_m":2.5},"geometry":{"type":"LineString","coordinates":[[46.5776079,24.7335169],[46.5776296,24.7335528]]}},{"type":"Feature","properties":{"id":"road-240","kind":"vehicular","width_m":6},"geometry":{"type":"LineString","coordinates":[[46.578414,24.735406],[46.5784367,24.7354977]]}},{"type":"Feature","properties":{"id":"road-241","kind":"vehicular","width_m":6},"geometry":{"type":"LineString","coordinates":[[46.5802883,24.7357052],[46.5794407,24.7359432]]}},{"type":"Feature","properties":{"id":"road-242","kind":"vehicular","width_m":4},"geometry":{"type":"LineString","coordinates":[[46.5810697,24.7388151],[46.5811597,24.7390289],[46.5811933,24.7390442]]}},{"type":"Feature","properties":{"id":"road-243","kind":"vehicular","width_m":8},"geometry":{"type":"LineString","coordinates":[[46.5719157,24.7358839],[46.5719909,24.7359055],[46.5720404,24.7359369],[46.5720888,24.7359809],[46.5720948,24.735989],[46.5726229,24.73674],[46.5726506,24.7367777],[46.5729187,24.7371541],[46.5732085,24.7375207],[46.5733667,24.7377165],[46.5735991,24.738003],[46.5736654,24.738092],[46.5737079,24.7381872],[46.5739157,24.738692],[46.5739582,24.7388564],[46.5739611,24.7388978],[46.5739661,24.7389553],[46.5739621,24.7390163]]}},{"type":"Feature","properties":{"id":"road-244","kind":"vehicular","width_m":8},"geometry":{"type":"LineString","coordinates":[[46.5682492,24.7344269],[46.5675737,24.7343999],[46.5674441,24.7343972],[46.5673185,24.7343631],[46.5664748,24.7339948],[46.5661266,24.7337998],[46.5659506,24.733701]]}},{"type":"Feature","properties":{"id":"road-245","kind":"vehicular","width_m":8},"geometry":{"type":"LineString","coordinates":[[46.5698218,24.7345239],[46.5698713,24.7345203],[46.5699079,24.7345104],[46.5699257,24.7344862],[46.5699178,24.7344583],[46.5698812,24.7344403],[46.5698456,24.7344251]]}},{"type":"Feature","properties":{"id":"road-246","kind":"pedestrian","width_m":5},"geometry":{"type":"LineString","coordinates":[[46.5755832,24.7410501],[46.5757524,24.7409109],[46.5764042,24.740371],[46.5764922,24.7402776],[46.5765426,24.7402237],[46.5765436,24.7402228],[46.5765743,24.7402515],[46.5770886,24.7407806]]}},{"type":"Feature","properties":{"id":"road-247","kind":"vehicular","width_m":4},"geometry":{"type":"LineString","coordinates":[[46.5774892,24.7418981],[46.5781074,24.742544]]}},{"type":"Feature","properties":{"id":"road-248","kind":"vehicular","width_m":4},"geometry":{"type":"LineString","coordinates":[[46.5774892,24.7418981],[46.577598,24.7419224],[46.5777167,24.7418685],[46.577957,24.7416816]]}},{"type":"Feature","properties":{"id":"road-249","kind":"vehicular","width_m":4},"geometry":{"type":"LineString","coordinates":[[46.577957,24.7416816],[46.5780401,24.7417993]]}},{"type":"Feature","properties":{"id":"road-250","kind":"vehicular","width_m":4},"geometry":{"type":"LineString","coordinates":[[46.5780352,24.7416241],[46.578054,24.7415613],[46.5780134,24.7414885],[46.5779946,24.7414337],[46.5779986,24.7413816],[46.5779956,24.7413367],[46.5780332,24.7412684],[46.5780728,24.7412316],[46.5780985,24.7411813]]}},{"type":"Feature","properties":{"id":"road-251","kind":"vehicular","width_m":4},"geometry":{"type":"LineString","coordinates":[[46.5777216,24.7412163],[46.5777276,24.7412513],[46.5777464,24.7412918],[46.5779293,24.7414696],[46.5779976,24.7415217],[46.5780342,24.7415523],[46.5780352,24.7416241]]}},{"type":"Feature","properties":{"id":"road-252","kind":"vehicular","width_m":4},"geometry":{"type":"LineString","coordinates":[[46.577957,24.7416816],[46.5780352,24.7416241]]}},{"type":"Feature","properties":{"id":"road-253","kind":"vehicular","width_m":14},"geometry":{"type":"LineString","coordinates":[[46.5834395,24.751157],[46.5834059,24.7517795]]}},{"type":"Feature","properties":{"id":"road-254","kind":"vehicular","width_m":6},"geometry":{"type":"LineString","coordinates":[[46.581494,24.734673],[46.5809055,24.734832]]}},{"type":"Feature","properties":{"id":"road-255","kind":"vehicular","width_m":8},"geometry":{"type":"LineString","coordinates":[[46.5817363,24.7375009],[46.581768,24.7374892],[46.5817957,24.7374676],[46.5818125,24.737438],[46.5818174,24.7374075],[46.5818115,24.7373769],[46.5817937,24.73735],[46.581766,24.7373293],[46.5817215,24.7373167],[46.581677,24.737323],[46.5816394,24.7373464],[46.5816156,24.7373814],[46.5816226,24.7374524],[46.5816423,24.7374766],[46.58167,24.7374937],[46.5817027,24.7375027],[46.5817363,24.7375009]]}},{"type":"Feature","properties":{"id":"road-256","kind":"vehicular","width_m":8},"geometry":{"type":"LineString","coordinates":[[46.5835186,24.7368361],[46.583481,24.7368254],[46.5834405,24.7368263],[46.5834029,24.7368379],[46.5833713,24.7368595],[46.5833485,24.7368891],[46.5833366,24.7369233],[46.5833376,24.7369601],[46.5833515,24.7369951],[46.5833742,24.7370221],[46.5834049,24.7370419],[46.5834405,24.7370526],[46.5834751,24.7370544],[46.5835097,24.7370463],[46.5835404,24.7370311],[46.5835622,24.7370122],[46.583579,24.736988],[46.5835889,24.7369619],[46.5835908,24.7369332],[46.5835849,24.7369053],[46.583572,24.7368793],[46.5835523,24.7368568],[46.5835186,24.7368361]]}},{"type":"Feature","properties":{"id":"road-257","kind":"vehicular","width_m":6},"geometry":{"type":"LineString","coordinates":[[46.5828985,24.7364121],[46.5831022,24.736988]]}},{"type":"Feature","properties":{"id":"road-258","kind":"vehicular","width_m":6},"geometry":{"type":"LineString","coordinates":[[46.5716873,24.7310232],[46.5717585,24.7314921],[46.5718346,24.7319736]]}},{"type":"Feature","properties":{"id":"road-259","kind":"vehicular","width_m":6},"geometry":{"type":"LineString","coordinates":[[46.573883,24.738392],[46.5739928,24.7383714],[46.5741323,24.7383255],[46.5743439,24.7382375],[46.5743983,24.7381971],[46.5744933,24.7381297],[46.574702,24.7380093],[46.5748276,24.7379608],[46.5750155,24.7379447],[46.5753706,24.7379599],[46.5755476,24.7379752]]}},{"type":"Feature","properties":{"id":"road-260","kind":"vehicular","width_m":4},"geometry":{"type":"LineString","coordinates":[[46.5753706,24.7379599],[46.5753755,24.7380507],[46.5753508,24.7381558],[46.5753033,24.7383166]]}},{"type":"Feature","properties":{"id":"road-261","kind":"vehicular","width_m":4},"geometry":{"type":"LineString","coordinates":[[46.5780401,24.7417993],[46.5779788,24.7418388],[46.5778542,24.7419206],[46.5777691,24.7419781],[46.578145,24.7424668],[46.5781074,24.742544]]}},{"type":"Feature","properties":{"id":"road-262","kind":"vehicular","width_m":4},"geometry":{"type":"LineString","coordinates":[[46.5778542,24.7419206],[46.5786642,24.742915],[46.5787671,24.7429195],[46.5788096,24.7428593],[46.5783616,24.7423086],[46.5781677,24.7420715],[46.5779788,24.7418388]]}},{"type":"Feature","properties":{"id":"road-263","kind":"vehicular","width_m":4},"geometry":{"type":"LineString","coordinates":[[46.5781677,24.7420715],[46.5782913,24.7419969],[46.5784476,24.7421793],[46.5784338,24.7422574],[46.5783616,24.7423086]]}},{"type":"Feature","properties":{"id":"road-264","kind":"vehicular","width_m":6},"geometry":{"type":"LineString","coordinates":[[46.5656568,24.7350242],[46.5656578,24.7350395]]}},{"type":"Feature","properties":{"id":"road-265","kind":"vehicular","width_m":6},"geometry":{"type":"LineString","coordinates":[[46.565643,24.7348994],[46.5656568,24.7350242]]}},{"type":"Feature","properties":{"id":"road-266","kind":"vehicular","width_m":8},"geometry":{"type":"LineString","coordinates":[[46.5741352,24.7389894],[46.574065,24.7388969],[46.5740591,24.7388816],[46.573883,24.738392],[46.5738078,24.7382366],[46.573699,24.7379977],[46.573431,24.7376779],[46.5732935,24.7375135],[46.5727594,24.7368101],[46.5726862,24.7367059],[46.572252,24.7360834],[46.5721521,24.7359468],[46.5721274,24.7359145],[46.5720423,24.7357923]]}},{"type":"Feature","properties":{"id":"road-267","kind":"vehicular","width_m":8},"geometry":{"type":"LineString","coordinates":[[46.5714133,24.7353225],[46.5716141,24.7354914],[46.5716764,24.735574],[46.5716981,24.7356019],[46.5717318,24.7357097]]}},{"type":"Feature","properties":{"id":"road-268","kind":"vehicular","width_m":8},"geometry":{"type":"LineString","coordinates":[[46.5719691,24.7358678],[46.5720127,24.7358354],[46.5720423,24.7357923],[46.5720532,24.7357429],[46.5720453,24.7356926],[46.5720186,24.7356477],[46.5719761,24.7356144],[46.5719236,24.7355956],[46.5718732,24.7355938],[46.5718237,24.7356055],[46.5717812,24.7356306],[46.5717496,24.7356665],[46.5717318,24.7357097],[46.5717298,24.7357564],[46.5717436,24.7358004],[46.5717713,24.7358381],[46.5718119,24.7358669],[46.5718594,24.735883],[46.5719157,24.7358839],[46.5719691,24.7358678]]}},{"type":"Feature","properties":{"id":"road-269","kind":"vehicular","width_m":14},"geometry":{"type":"LineString","coordinates":[[46.5836502,24.7517885],[46.5836858,24.751122]]}},{"type":"Feature","properties":{"id":"road-270","kind":"vehicular","width_m":6},"geometry":{"type":"LineString","coordinates":[[46.57796,24.7383893],[46.5778453,24.7380533],[46.5776742,24.7375692],[46.5776573,24.737535],[46.5776158,24.7374937]]}},{"type":"Feature","properties":{"id":"road-271","kind":"vehicular","width_m":6},"geometry":{"type":"LineString","coordinates":[[46.5774833,24.7374901],[46.577505,24.7375081],[46.5775337,24.7375189],[46.5775634,24.7375198],[46.5775921,24.7375108],[46.5776158,24.7374937],[46.5776306,24.7374703],[46.5776366,24.7374452],[46.5776326,24.73742],[46.5776198,24.7373976],[46.577599,24.7373796],[46.5775733,24.7373688],[46.5775456,24.737367],[46.5775159,24.7373733],[46.5774902,24.7373886],[46.5774734,24.737412],[46.5774655,24.737438],[46.5774694,24.7374659],[46.5774833,24.7374901]]}},{"type":"Feature","properties":{"id":"road-272","kind":"vehicular","width_m":4},"geometry":{"type":"LineString","coordinates":[[46.5772943,24.7372943],[46.5773082,24.7372889],[46.577329,24.737288],[46.5773468,24.7372907],[46.5773656,24.7372979],[46.5773863,24.7373167],[46.5774655,24.737438]]}},{"type":"Feature","properties":{"id":"road-273","kind":"vehicular","width_m":4},"geometry":{"type":"LineString","coordinates":[[46.5775456,24.737367],[46.5774546,24.7372727],[46.5773784,24.7372009],[46.5772805,24.7370957],[46.5772647,24.7370652],[46.5772627,24.7370427],[46.5772696,24.7370266],[46.5772854,24.7370176],[46.5773201,24.7370131],[46.5775683,24.7370445]]}},{"type":"Feature","properties":{"id":"road-274","kind":"pedestrian","width_m":2.5},"geometry":{"type":"LineString","coordinates":[[46.5737871,24.743145],[46.5739038,24.7429878]]}},{"type":"Feature","properties":{"id":"road-275","kind":"pedestrian","width_m":5},"geometry":{"type":"LineString","coordinates":[[46.5761173,24.7430075],[46.5762083,24.7428755],[46.5762004,24.7428476]]}},{"type":"Feature","properties":{"id":"road-276","kind":"pedestrian","width_m":2.5},"geometry":{"type":"LineString","coordinates":[[46.575244,24.7425251],[46.5751411,24.7423185]]}},{"type":"Feature","properties":{"id":"road-277","kind":"pedestrian","width_m":2.5},"geometry":{"type":"LineString","coordinates":[[46.5752242,24.7431674],[46.5751431,24.7432079],[46.5749918,24.7431629],[46.5747277,24.7434181]]}},{"type":"Feature","properties":{"id":"road-278","kind":"pedestrian","width_m":5},"geometry":{"type":"LineString","coordinates":[[46.5756574,24.7421209],[46.5755724,24.7420715],[46.5750303,24.7417652]]}},{"type":"Feature","properties":{"id":"road-279","kind":"pedestrian","width_m":5},"geometry":{"type":"LineString","coordinates":[[46.5762083,24.7428755],[46.5762835,24.7428746]]}},{"type":"Feature","properties":{"id":"road-280","kind":"pedestrian","width_m":2.5},"geometry":{"type":"LineString","coordinates":[[46.5755724,24.7420715],[46.5754378,24.7421065]]}},{"type":"Feature","properties":{"id":"road-281","kind":"pedestrian","width_m":2.5},"geometry":{"type":"LineString","coordinates":[[46.5761272,24.7415783],[46.5760095,24.7414526],[46.5761253,24.741325],[46.5757524,24.7409109],[46.5754744,24.74045],[46.5759067,24.7400395]]}},{"type":"Feature","properties":{"id":"road-282","kind":"pedestrian","width_m":2.5},"geometry":{"type":"LineString","coordinates":[[46.5777948,24.744293],[46.5779214,24.7442032]]}},{"type":"Feature","properties":{"id":"road-283","kind":"pedestrian","width_m":2.5},"geometry":{"type":"LineString","coordinates":[[46.578234,24.7444691],[46.5779214,24.7442032],[46.5777731,24.7440074],[46.5776158,24.7438196]]}},{"type":"Feature","properties":{"id":"road-284","kind":"pedestrian","width_m":2.5},"geometry":{"type":"LineString","coordinates":[[46.5775535,24.7438367],[46.5774635,24.7439463]]}},{"type":"Feature","properties":{"id":"road-285","kind":"pedestrian","width_m":2.5},"geometry":{"type":"LineString","coordinates":[[46.5765426,24.7402237],[46.5764358,24.7401563],[46.5762983,24.7401159],[46.576145,24.740062],[46.5760006,24.7400575],[46.5759037,24.7400081],[46.5758078,24.7399497],[46.5755239,24.7396811],[46.5753765,24.7394889],[46.5753686,24.7392113]]}},{"type":"Feature","properties":{"id":"road-286","kind":"vehicular","width_m":3},"geometry":{"type":"LineString","coordinates":[[46.5773329,24.7446389],[46.5772558,24.7446793],[46.5768067,24.7448769],[46.576507,24.7452201],[46.5764952,24.7458749],[46.5765179,24.7463007],[46.5763567,24.7466107]]}},{"type":"Feature","properties":{"id":"road-287","kind":"pedestrian","width_m":2.5},"geometry":{"type":"LineString","coordinates":[[46.5762835,24.7428746],[46.5763122,24.7428764],[46.5763656,24.7428018]]}},{"type":"Feature","properties":{"id":"road-288","kind":"pedestrian","width_m":2.5},"geometry":{"type":"LineString","coordinates":[[46.5775832,24.743834],[46.5777948,24.744293]]}},{"type":"Feature","properties":{"id":"road-289","kind":"pedestrian","width_m":5},"geometry":{"type":"LineString","coordinates":[[46.5744349,24.7439777],[46.5745348,24.7434872],[46.5746179,24.7433417],[46.5747613,24.7430848],[46.5749819,24.7428997]]}},{"type":"Feature","properties":{"id":"road-290","kind":"pedestrian","width_m":2.5},"geometry":{"type":"LineString","coordinates":[[46.5749572,24.7435744],[46.5750086,24.7436076],[46.5751174,24.7437037],[46.5754972,24.7437603],[46.5755644,24.7437567],[46.575605,24.7436705],[46.5757365,24.7435825]]}},{"type":"Feature","properties":{"id":"road-291","kind":"pedestrian","width_m":5},"geometry":{"type":"LineString","coordinates":[[46.5757603,24.7428926],[46.575784,24.742906],[46.5758721,24.7429536],[46.5761173,24.7430075]]}},{"type":"Feature","properties":{"id":"road-292","kind":"pedestrian","width_m":5},"geometry":{"type":"LineString","coordinates":[[46.5763102,24.7427848],[46.576152,24.7427201]]}},{"type":"Feature","properties":{"id":"road-293","kind":"pedestrian","width_m":2.5},"geometry":{"type":"LineString","coordinates":[[46.5749443,24.7426761],[46.5746941,24.7423536],[46.5744774,24.7422179],[46.5742529,24.742155],[46.5741214,24.7421344],[46.5740244,24.7420975],[46.5737811,24.7421119],[46.5736051,24.7421604],[46.573432,24.7420419],[46.5732678,24.7419296],[46.572798,24.7425674],[46.5727841,24.7428126]]}},{"type":"Feature","properties":{"id":"road-294","kind":"pedestrian","width_m":2.5},"geometry":{"type":"LineString","coordinates":[[46.5774961,24.7437055],[46.5775119,24.7436938],[46.5775298,24.7436858],[46.5775495,24.7436813],[46.5775693,24.7436813],[46.5775891,24.7436858],[46.5776079,24.7436938],[46.5776227,24.7437055],[46.5776346,24.7437199],[46.5776376,24.7437244],[46.5776425,24.743737],[46.5776465,24.7437549],[46.5776455,24.7437729],[46.5776395,24.74379],[46.5776296,24.7438061],[46.5776158,24.7438196],[46.577599,24.7438295],[46.5775832,24.743834],[46.5775792,24.7438358],[46.5775594,24.7438376],[46.5775535,24.7438367],[46.5775396,24.7438358],[46.5775208,24.7438295],[46.577504,24.7438196],[46.5774902,24.7438061],[46.5774793,24.74379],[46.5774744,24.7437729],[46.5774734,24.7437549],[46.5774763,24.743737],[46.5774843,24.7437199],[46.5774961,24.7437055]]}},{"type":"Feature","properties":{"id":"road-295","kind":"pedestrian","width_m":5},"geometry":{"type":"LineString","coordinates":[[46.5758632,24.7422979],[46.5758978,24.7422565],[46.5759126,24.7422377],[46.5759828,24.742182]]}},{"type":"Feature","properties":{"id":"road-296","kind":"pedestrian","width_m":5},"geometry":{"type":"LineString","coordinates":[[46.5761173,24.7434441],[46.576144,24.7434342],[46.5760758,24.7431162]]}},{"type":"Feature","properties":{"id":"road-297","kind":"pedestrian","width_m":2.5},"geometry":{"type":"LineString","coordinates":[[46.5768473,24.7436543],[46.5768265,24.7437262],[46.5767296,24.7438007],[46.5767296,24.7438016],[46.5767306,24.743843],[46.5767296,24.7438888],[46.5767078,24.7439256],[46.5766712,24.7439615],[46.5766119,24.7439885]]}},{"type":"Feature","properties":{"id":"road-298","kind":"pedestrian","width_m":5},"geometry":{"type":"LineString","coordinates":[[46.5755407,24.7422637],[46.5756574,24.7421209],[46.5756762,24.7420984],[46.5758632,24.7422979],[46.5762044,24.7426617],[46.576152,24.7427201],[46.5761302,24.7427452],[46.5759759,24.7425853],[46.575783,24.7423841],[46.5755407,24.7422637]]}},{"type":"Feature","properties":{"id":"road-299","kind":"pedestrian","width_m":2.5},"geometry":{"type":"LineString","coordinates":[[46.5740779,24.7433669],[46.574158,24.7433722],[46.5742322,24.7432689]]}},{"type":"Feature","properties":{"id":"road-300","kind":"pedestrian","width_m":2.5},"geometry":{"type":"LineString","coordinates":[[46.5767296,24.7438016],[46.576692,24.7437576],[46.5766465,24.743719],[46.5765852,24.7437046],[46.5765169,24.7437262]]}},{"type":"Feature","properties":{"id":"road-301","kind":"pedestrian","width_m":2.5},"geometry":{"type":"LineString","coordinates":[[46.5762004,24.7428476],[46.5761737,24.7427632],[46.576152,24.7427201]]}},{"type":"Feature","properties":{"id":"road-302","kind":"pedestrian","width_m":2.5},"geometry":{"type":"LineString","coordinates":[[46.5775119,24.7436938],[46.5774922,24.7436435],[46.5773863,24.7434971],[46.5772617,24.7433785],[46.577148,24.7432815],[46.5770055,24.7432204],[46.576873,24.7431962],[46.5766514,24.7431153]]}},{"type":"Feature","properties":{"id":"road-303","kind":"vehicular","width_m":4},"geometry":{"type":"LineString","coordinates":[[46.58213,24.7385034],[46.5820073,24.7381611],[46.5819598,24.7380219],[46.581768,24.7374892]]}},{"type":"Feature","properties":{"id":"road-304","kind":"vehicular","width_m":4},"geometry":{"type":"LineString","coordinates":[[46.5773784,24.7372009],[46.5773389,24.7371973],[46.5773112,24.7371964],[46.5772667,24.7372071]]}},{"type":"Feature","properties":{"id":"road-305","kind":"vehicular","width_m":8},"geometry":{"type":"LineString","coordinates":[[46.5874967,24.7442364],[46.5875729,24.7444269],[46.5875739,24.7445517],[46.5875303,24.7446541],[46.5866095,24.745565],[46.5865007,24.7457115],[46.586478,24.7458112],[46.5864819,24.7460411],[46.5864958,24.7462037],[46.5864958,24.7463115],[46.586473,24.7463825],[46.5864147,24.7464822],[46.5860042,24.7469646],[46.5859003,24.7471083],[46.5857223,24.7473625],[46.585571,24.7476419],[46.5853929,24.7479878],[46.585301,24.7482231],[46.5852238,24.7483642],[46.5851605,24.7484333],[46.5850794,24.7484495],[46.5849577,24.7484387],[46.5846076,24.7483228],[46.5845047,24.7482618],[46.584389,24.7481683],[46.5843663,24.7480956],[46.5843663,24.7479959],[46.5844345,24.7477821],[46.5847767,24.7469565],[46.5850428,24.746431],[46.5851308,24.7462343],[46.5852011,24.746016],[46.5853188,24.7455812],[46.5854107,24.7453818],[46.5854829,24.7452353],[46.585568,24.7450207]]}},{"type":"Feature","properties":{"id":"road-306","kind":"pedestrian","width_m":2.5},"geometry":{"type":"LineString","coordinates":[[46.5832971,24.7270311],[46.5833188,24.7273221],[46.5833861,24.727756],[46.5834138,24.727836],[46.5835295,24.7281863],[46.5836156,24.7284845],[46.5837056,24.7288034],[46.5839113,24.729452],[46.5839271,24.7295347],[46.583939,24.7295949],[46.5839479,24.7297646],[46.5839568,24.7297907],[46.5839706,24.7298275],[46.5839736,24.7299227],[46.5839973,24.7299452],[46.5840527,24.7299578],[46.5841269,24.7300009],[46.5841507,24.7300377],[46.5841724,24.7301509],[46.584208,24.7302695],[46.5844632,24.7308264],[46.5846323,24.7311444],[46.5849439,24.7318011],[46.5849617,24.7318379],[46.5850735,24.7320975],[46.5851872,24.7324003],[46.5852822,24.7326374],[46.5854691,24.7330587],[46.5856778,24.7335241],[46.5866323,24.7353656],[46.5867025,24.7355318],[46.5867628,24.7358157],[46.586749,24.7358399]]}},{"type":"Feature","properties":{"id":"road-307","kind":"pedestrian","width_m":2.5},"geometry":{"type":"LineString","coordinates":[[46.5839687,24.7295266],[46.5839865,24.7297574],[46.5839934,24.7297799],[46.5840092,24.7298374],[46.5840063,24.7298958],[46.5840241,24.72992],[46.5840577,24.7299263],[46.5841487,24.7299641],[46.5841863,24.7300144],[46.5842031,24.7301105],[46.5842219,24.730203],[46.5849765,24.7317867],[46.5849439,24.7318011],[46.5848302,24.7318487]]}},{"type":"Feature","properties":{"id":"road-308","kind":"vehicular","width_m":6},"geometry":{"type":"LineString","coordinates":[[46.5732906,24.7516385],[46.5732253,24.7515756],[46.5731481,24.7514562],[46.5731036,24.7513834],[46.5730611,24.7512729],[46.5727327,24.7504887],[46.5725023,24.7499757],[46.5722827,24.7496595],[46.5717753,24.7490909],[46.5711512,24.7485375],[46.5706754,24.7481926],[46.5704321,24.7481072],[46.570084,24.7480075],[46.5697615,24.747942],[46.5694697,24.7479042],[46.5689604,24.7479096],[46.5685984,24.7479563],[46.5681681,24.7480542],[46.567814,24.7481962],[46.5674619,24.7483696],[46.567092,24.7486256],[46.5665391,24.7490217],[46.5660169,24.74939],[46.5643552,24.750468],[46.5640634,24.7507213],[46.5637439,24.7509693],[46.5636391,24.7510339],[46.5634789,24.7511004],[46.5632969,24.751157],[46.562928,24.7512388],[46.5625541,24.7513313]]}},{"type":"Feature","properties":{"id":"road-309","kind":"vehicular","width_m":6},"geometry":{"type":"LineString","coordinates":[[46.5774734,24.7343002],[46.5776821,24.7348967],[46.5778898,24.7355165]]}},{"type":"Feature","properties":{"id":"road-310","kind":"vehicular","width_m":6},"geometry":{"type":"LineString","coordinates":[[46.577233,24.7336337],[46.5772518,24.7336822],[46.5773547,24.7339651],[46.5774734,24.7343002]]}},{"type":"Feature","properties":{"id":"road-311","kind":"vehicular","width_m":6},"geometry":{"type":"LineString","coordinates":[[46.5774734,24.7343002],[46.5778374,24.7341906],[46.5782013,24.7340837]]}},{"type":"Feature","properties":{"id":"road-312","kind":"vehicular","width_m":6},"geometry":{"type":"LineString","coordinates":[[46.5778027,24.7329653],[46.577962,24.7334118]]}},{"type":"Feature","properties":{"id":"road-313","kind":"pedestrian","width_m":2.5},"geometry":{"type":"LineString","coordinates":[[46.5778987,24.7334729],[46.5776296,24.7335528],[46.5773389,24.7336426],[46.5773201,24.7336489]]}},{"type":"Feature","properties":{"id":"road-314","kind":"pedestrian","width_m":2.5},"geometry":{"type":"LineString","coordinates":[[46.5775584,24.7342167],[46.5778196,24.734134],[46.5779887,24.734081],[46.5780015,24.7340927],[46.5780995,24.7340613],[46.5781094,24.7340424]]}},{"type":"Feature","properties":{"id":"road-315","kind":"pedestrian","width_m":2.5},"geometry":{"type":"LineString","coordinates":[[46.5739611,24.7388978],[46.5740591,24.7388816]]}},{"type":"Feature","properties":{"id":"road-316","kind":"pedestrian","width_m":2.5},"geometry":{"type":"LineString","coordinates":[[46.5733667,24.7377165],[46.573431,24.7376779]]}},{"type":"Feature","properties":{"id":"road-317","kind":"pedestrian","width_m":2.5},"geometry":{"type":"LineString","coordinates":[[46.5726229,24.73674],[46.5726862,24.7367059]]}},{"type":"Feature","properties":{"id":"road-318","kind":"pedestrian","width_m":2.5},"geometry":{"type":"LineString","coordinates":[[46.5720948,24.735989],[46.5721521,24.7359468]]}},{"type":"Feature","properties":{"id":"road-319","kind":"pedestrian","width_m":2.5},"geometry":{"type":"LineString","coordinates":[[46.5716764,24.735574],[46.5717585,24.7355039]]}},{"type":"Feature","properties":{"id":"road-320","kind":"pedestrian","width_m":2.5},"geometry":{"type":"LineString","coordinates":[[46.5713124,24.7352506],[46.5713648,24.7352003]]}}]}