{"type":"FeatureCollection","features":[{"type":"Feature","properties":{"id":"water-0","category":"pond"},"geometry":{"type":"Polygon","coordinates":[[[46.5768542,24.7479752],[46.5767721,24.7480507],[46.5768364,24.7480974],[46.5769066,24.7480165],[46.5768918,24.7480039],[46.5769017,24.7479896],[46.5768809,24.747977],[46.5768681,24.7479851],[46.5768542,24.7479752]]]}},{"type":"Feature","properties":{"id":"water-1","category":"pond"},"geometry":{"type":"Polygon","coordinates":[[[46.5771509,24.7475242],[46.5771193,24.7475135],[46.5770985,24.7475404],[46.5771312,24.7475844],[46.5772014,24.7475889],[46.5772479,24.7475476],[46.577239,24.7475207],[46.5772192,24.7474928],[46.5771984,24.7474847],[46.5771766,24.7474964],[46.5771707,24.747526],[46.5771638,24.7475341],[46.5771509,24.7475242]]]}},{"type":"Feature","properties":{"id":"water-2","category":"pond"},"geometry":{"type":"Polygon","coordinates":[[[46.5738138,24.7497646],[46.5737396,24.749744],[46.5736981,24.74985],[46.573883,24.7498868],[46.573887,24.7498356],[46.5738237,24.7498033],[46.5738138,24.7497646]]]}},{"type":"Feature","properties":{"id":"water-3","category":"pond"},"geometry":{"type":"Polygon","coordinates":[[[46.5708337,24.7497341],[46.5708663,24.7497026],[46.5707902,24.7496649],[46.5706853,24.7496937],[46.5706349,24.7497799],[46.5706972,24.7498122],[46.5707644,24.7498131],[46.570801,24.7497449],[46.5708337,24.7497341]]]}},{"type":"Feature","properties":{"id":"water-4","category":"wadi_channel","width_m":12},"geometry":{"type":"LineString","coordinates":[[46.5767147,24.7423006],[46.5769472,24.742456],[46.5772123,24.7427839],[46.5777919,24.7432061],[46.5784021,24.7438924],[46.5784911,24.743993],[46.5787473,24.7444358],[46.5791222,24.7447853],[46.5796414,24.7455345],[46.579769,24.7458749],[46.5797433,24.7463439],[46.5790727,24.7472458],[46.5779976,24.7481243],[46.5776168,24.7485627],[46.5768087,24.7492652],[46.576604,24.749311],[46.5761797,24.7494601],[46.5755842,24.7498356],[46.5754655,24.749982],[46.5754477,24.7501338],[46.5753706,24.7503342],[46.5751649,24.7505471],[46.5742767,24.7509881],[46.573789,24.7515289],[46.5736061,24.7515909]]}},{"type":"Feature","properties":{"id":"water-5","category":"wadi_channel","width_m":12},"geometry":{"type":"LineString","coordinates":[[46.5646044,24.7381486],[46.5647251,24.7384199],[46.5649012,24.7386067],[46.5652365,24.7387307],[46.5655282,24.7387199],[46.5659496,24.7388663],[46.5663057,24.7388987],[46.5665994,24.7390226],[46.5668388,24.7390316]]}},{"type":"Feature","properties":{"id":"water-6","category":"wadi_channel","width_m":12},"geometry":{"type":"LineString","coordinates":[[46.5668388,24.7390316],[46.5669298,24.7390397]]}},{"type":"Feature","properties":{"id":"water-7","category":"wadi_channel","width_m":12},"geometry":{"type":"LineString","coordinates":[[46.5669298,24.7390397],[46.5671276,24.739081]]}},{"type":"Feature","properties":{"id":"water-8","category":"wadi_channel","width_m":12},"geometry":{"type":"LineString","coordinates":[[46.5671276,24.739081],[46.5672334,24.7391044]]}},{"type":"Feature","properties":{"id":"water-9","category":"wadi_channel","width_m":12},"geometry":{"type":"LineString","coordinates":[[46.5672334,24.7391044],[46.5672947,24.7391169],[46.5677092,24.7391951],[46.5678704,24.7392634],[46.5680375,24.739382],[46.5680732,24.7393918]]}},{"type":"Feature","properties":{"id":"water-10","category":"wadi_channel","width_m":12},"geometry":{"type":"LineString","coordinates":[[46.5680732,24.7393918],[46.568178,24.7394215]]}},{"type":"Feature","properties":{"id":"water-11","category":"wadi_channel","width_m":12},"geometry":{"type":"LineString","coordinates":[[46.568178,24.7394215],[46.5685242,24.7395167],[46.5691087,24.7397907],[46.5701977,24.7402857],[46.5709949,24.7405147],[46.5716843,24.7405318]]}},{"type":"Feature","properties":{"id":"water-12","category":"wadi_channel","width_m":12},"geometry":{"type":"LineString","coordinates":[[46.5716843,24.7405318],[46.5717782,24.7404995]]}},{"type":"Feature","properties":{"id":"water-13","category":"wadi_channel","width_m":12},"geometry":{"type":"LineString","coordinates":[[46.5717782,24.7404995],[46.5724439,24.7404608],[46.5724973,24.7404671]]}},{"type":"Feature","properties":{"id":"water-14","category":"wadi_channel","width_m":12},"geometry":{"type":"LineString","coordinates":[[46.5724973,24.7404671],[46.572616,24.7404833]]}},{"type":"Feature","properties":{"id":"water-15","category":"wadi_channel","width_m":12},"geometry":{"type":"LineString","coordinates":[[46.572616,24.7404833],[46.5730868,24.7405435],[46.5734122,24.7405354],[46.5737564,24.7406593],[46.5739315,24.7406665],[46.5748315,24.7410133],[46.5750145,24.741219],[46.5752835,24.7412657],[46.5759749,24.7416547],[46.5764784,24.7421434],[46.5766247,24.7422404]]}},{"type":"Feature","properties":{"id":"water-16","category":"wadi_channel","width_m":12},"geometry":{"type":"LineString","coordinates":[[46.5766247,24.7422404],[46.5767147,24.7423006]]}},{"type":"Feature","properties":{"id":"water-17","category":"wadi_channel","width_m":12},"geometry":{"type":"LineString","coordinates":[[46.564737,24.7501249],[46.5659447,24.7492939],[46.5676963,24.7480902],[46.5683778,24.7478539],[46.5691839,24.747765],[46.5702996,24.7479896],[46.5712412,24.7484612],[46.5722263,24.7493514],[46.5728969,24.7503943]]}}]}